{"type":"FeatureCollection","countryId":"AIA","features":[{"type":"Feature","properties":{"id":"AIA-5115","name":"East End"},"geometry":{"type":"MultiPolygon","coordinates":[[[[-63.013,18.272],[-62.973,18.276],[-62.995,18.235],[-63.013,18.272]]],[[[-62.958,18.289],[-62.926,18.29],[-62.957,18.274],[-62.958,18.289]]]]}},{"type":"Feature","properties":{"id":"AIA-5123","name":"Stoney Ground"},"geometry":{"type":"Polygon","coordinates":[[[-63.023,18.27],[-62.995,18.256],[-63.044,18.232],[-63.023,18.27]]]}},{"type":"Feature","properties":{"id":"AIA-5119","name":"North Side"},"geometry":{"type":"Polygon","coordinates":[[[-63.061,18.246],[-63.023,18.27],[-63.048,18.235],[-63.061,18.246]]]}},{"type":"Feature","properties":{"id":"AIA-5126","name":"The Valley"},"geometry":{"type":"Polygon","coordinates":[[[-63.073,18.231],[-63.061,18.246],[-63.044,18.232],[-63.073,18.231]]]}},{"type":"Feature","properties":{"id":"AIA-5118","name":"North Hill"},"geometry":{"type":"Polygon","coordinates":[[[-63.078,18.226],[-63.047,18.227],[-63.076,18.216],[-63.078,18.226]]]}},{"type":"Feature","properties":{"id":"AIA-5120","name":"Sandy Ground"},"geometry":{"type":"Polygon","coordinates":[[[-63.097,18.212],[-63.086,18.218],[-63.078,18.226],[-63.076,18.221],[-63.076,18.216],[-63.079,18.215],[-63.097,18.212]]]}},{"type":"Feature","properties":{"id":"AIA-5122","name":"South Hill"},"geometry":{"type":"Polygon","coordinates":[[[-63.123,18.208],[-63.061,18.219],[-63.123,18.184],[-63.123,18.208]]]}},{"type":"Feature","properties":{"id":"AIA-5127","name":"West End"},"geometry":{"type":"Polygon","coordinates":[[[-63.123,18.184],[-63.168,18.169],[-63.123,18.208],[-63.123,18.184]]]}},{"type":"Feature","properties":{"id":"AIA-5114","name":"Blowing Point"},"geometry":{"type":"Polygon","coordinates":[[[-63.061,18.199],[-63.1,18.176],[-63.114,18.19],[-63.073,18.212],[-63.061,18.199]]]}},{"type":"Feature","properties":{"id":"AIA-5124","name":"The Farrington"},"geometry":{"type":"Polygon","coordinates":[[[-63.03,18.215],[-63.061,18.199],[-63.047,18.227],[-63.03,18.215]]]}},{"type":"Feature","properties":{"id":"AIA-5121","name":"Sandy Hill"},"geometry":{"type":"Polygon","coordinates":[[[-62.995,18.235],[-63.03,18.215],[-63.023,18.251],[-62.995,18.256],[-62.995,18.235]]]}},{"type":"Feature","properties":{"id":"AIA-5117","name":"Island Harbour"},"geometry":{"type":"Polygon","coordinates":[[[-63.007,18.273],[-62.995,18.275],[-63,18.267],[-63.008,18.267],[-63.007,18.273]]]}},{"type":"Feature","properties":{"id":"AIA+99?","name":"Zone 13"},"geometry":{"type":"MultiPolygon","coordinates":[[[[-63.428,18.593],[-63.429,18.601],[-63.424,18.6],[-63.428,18.593]]],[[[-63.252,18.273],[-63.263,18.282],[-63.236,18.283],[-63.252,18.273]]],[[[-63.185,18.268],[-63.179,18.267],[-63.184,18.265],[-63.187,18.265],[-63.19,18.267],[-63.192,18.269],[-63.19,18.269],[-63.186,18.268],[-63.185,18.268]]],[[[-63.174,18.265],[-63.172,18.265],[-63.171,18.266],[-63.169,18.265],[-63.168,18.262],[-63.171,18.261],[-63.174,18.262],[-63.174,18.265]]]]}},{"type":"Feature","properties":{"id":"AIA-5116","name":"George Hill"},"geometry":{"type":"Polygon","coordinates":[[[-63.073,18.212],[-63.061,18.219],[-63.061,18.212],[-63.065,18.206],[-63.072,18.203],[-63.073,18.212]]]}},{"type":"Feature","properties":{"id":"AIA-5125","name":"The Quarter"},"geometry":{"type":"Polygon","coordinates":[[[-63.034,18.228],[-63.047,18.227],[-63.044,18.232],[-63.043,18.235],[-63.029,18.235],[-63.034,18.228]]]}}]}