{"type":"FeatureCollection","countryId":"AND","features":[{"type":"Feature","properties":{"id":"AND-4878","name":"Ordino"},"geometry":{"type":"Polygon","coordinates":[[[1.543,42.649],[1.597,42.622],[1.599,42.598],[1.565,42.584],[1.556,42.563],[1.501,42.571],[1.451,42.602],[1.467,42.641],[1.543,42.649]]]}},{"type":"Feature","properties":{"id":"AND-4879","name":"Canillo"},"geometry":{"type":"Polygon","coordinates":[[[1.597,42.622],[1.722,42.61],[1.713,42.59],[1.765,42.563],[1.717,42.54],[1.69,42.553],[1.683,42.575],[1.556,42.563],[1.565,42.584],[1.599,42.598],[1.597,42.622]]]}},{"type":"Feature","properties":{"id":"AND-4880","name":"Encamp"},"geometry":{"type":"Polygon","coordinates":[[[1.717,42.54],[1.707,42.503],[1.674,42.491],[1.641,42.518],[1.556,42.538],[1.556,42.563],[1.683,42.575],[1.69,42.553],[1.717,42.54]]]}},{"type":"Feature","properties":{"id":"AND-4877","name":"La Massana"},"geometry":{"type":"Polygon","coordinates":[[[1.429,42.595],[1.481,42.595],[1.501,42.571],[1.556,42.563],[1.556,42.538],[1.45,42.504],[1.429,42.531],[1.406,42.529],[1.429,42.595]]]}},{"type":"Feature","properties":{"id":"AND-4882","name":"Sant Julià de Lòria"},"geometry":{"type":"Polygon","coordinates":[[[1.508,42.429],[1.436,42.441],[1.408,42.487],[1.487,42.518],[1.499,42.489],[1.575,42.485],[1.573,42.453],[1.508,42.429]]]}},{"type":"Feature","properties":{"id":"AND-4881","name":"Escaldes-Engordany"},"geometry":{"type":"Polygon","coordinates":[[[1.657,42.498],[1.64,42.466],[1.573,42.453],[1.575,42.485],[1.499,42.489],[1.569,42.539],[1.641,42.518],[1.657,42.498]]]}},{"type":"Feature","properties":{"id":"AND-4876","name":"Andorra la Vella"},"geometry":{"type":"Polygon","coordinates":[[[1.556,42.538],[1.519,42.498],[1.493,42.493],[1.487,42.518],[1.556,42.538]]]}}]}