{"type":"FeatureCollection","countryId":"BHR","features":[{"type":"Feature","properties":{"id":"BHR-4929","name":"Al Manāmah"},"geometry":{"type":"Polygon","coordinates":[[[50.504,26.242],[50.545,26.228],[50.587,26.242],[50.609,26.208],[50.552,26.194],[50.535,26.213],[50.502,26.216],[50.504,26.242]]]}},{"type":"Feature","properties":{"id":"BHR-4927","name":"Ash Shamālīyah"},"geometry":{"type":"MultiPolygon","coordinates":[[[[50.491,26.048],[50.449,26.162],[50.461,26.225],[50.481,26.243],[50.504,26.242],[50.502,26.216],[50.535,26.213],[50.552,26.194],[50.51,26.178],[50.539,26.056],[50.491,26.048]]],[[[50.398,26.175],[50.419,26.166],[50.423,26.12],[50.386,26.123],[50.383,26.16],[50.398,26.175]]]]}},{"type":"Feature","properties":{"id":"BHR-4926","name":"Al Janūbīyah"},"geometry":{"type":"MultiPolygon","coordinates":[[[[50.616,26.096],[50.604,25.855],[50.565,25.79],[50.531,25.885],[50.46,25.985],[50.491,26.048],[50.539,26.056],[50.524,26.129],[50.581,26.122],[50.616,26.096]]],[[[50.774,25.722],[50.801,25.731],[50.783,25.697],[50.796,25.685],[50.762,25.668],[50.776,25.639],[50.757,25.58],[50.738,25.596],[50.749,25.621],[50.741,25.674],[50.774,25.722]]],[[[50.776,25.753],[50.783,25.756],[50.79,25.755],[50.791,25.749],[50.781,25.745],[50.776,25.753]]],[[[50.805,25.679],[50.82,25.679],[50.817,25.669],[50.808,25.664],[50.804,25.67],[50.802,25.675],[50.805,25.679]]],[[[50.793,25.652],[50.812,25.65],[50.812,25.632],[50.791,25.631],[50.793,25.652]]]]}},{"type":"Feature","properties":{"id":"BHR-4928","name":"Al Wusţá"},"geometry":{"type":"Polygon","coordinates":[[[50.552,26.194],[50.595,26.16],[50.62,26.185],[50.633,26.147],[50.646,26.146],[50.616,26.096],[50.581,26.122],[50.524,26.129],[50.51,26.178],[50.552,26.194]]]}},{"type":"Feature","properties":{"id":"BHR-4930","name":"Al Muḩarraq"},"geometry":{"type":"Polygon","coordinates":[[[50.602,26.279],[50.655,26.277],[50.679,26.208],[50.657,26.211],[50.648,26.239],[50.612,26.241],[50.602,26.279]]]}}]}