{"type":"FeatureCollection","countryId":"BMU","features":[{"type":"Feature","properties":{"id":"BMU-5137","name":"Hamilton"},"geometry":{"type":"MultiPolygon","coordinates":[[[[-64.705,32.336],[-64.742,32.333],[-64.722,32.353],[-64.695,32.34],[-64.705,32.336]]],[[[-64.714,32.329],[-64.705,32.336],[-64.698,32.326],[-64.707,32.321],[-64.714,32.329]]],[[[-64.743,32.322],[-64.74,32.324],[-64.736,32.323],[-64.731,32.323],[-64.74,32.317],[-64.743,32.322]]]]}},{"type":"Feature","properties":{"id":"BMU-5142","name":"Smith's"},"geometry":{"type":"Polygon","coordinates":[[[-64.731,32.323],[-64.707,32.321],[-64.738,32.302],[-64.748,32.317],[-64.731,32.323]]]}},{"type":"Feature","properties":{"id":"BMU-5136","name":"Devonshire"},"geometry":{"type":"Polygon","coordinates":[[[-64.78,32.303],[-64.748,32.317],[-64.738,32.302],[-64.761,32.286],[-64.78,32.303]]]}},{"type":"Feature","properties":{"id":"BMU-5139","name":"Pembroke"},"geometry":{"type":"Polygon","coordinates":[[[-64.795,32.29],[-64.811,32.308],[-64.78,32.303],[-64.795,32.29]]]}},{"type":"Feature","properties":{"id":"BMU-5134","name":"City of Hamilton"},"geometry":{"type":"Polygon","coordinates":[[[-64.784,32.291],[-64.795,32.29],[-64.794,32.296],[-64.784,32.297],[-64.784,32.291]]]}},{"type":"Feature","properties":{"id":"BMU-5138","name":"Paget"},"geometry":{"type":"MultiPolygon","coordinates":[[[[-64.797,32.279],[-64.767,32.296],[-64.761,32.286],[-64.788,32.265],[-64.797,32.279]]],[[[-64.808,32.286],[-64.8,32.283],[-64.803,32.281],[-64.811,32.282],[-64.808,32.286]]]]}},{"type":"Feature","properties":{"id":"BMU-5144","name":"Warwick"},"geometry":{"type":"MultiPolygon","coordinates":[[[[-64.833,32.26],[-64.797,32.279],[-64.788,32.265],[-64.833,32.26]]],[[[-64.811,32.282],[-64.82,32.281],[-64.83,32.282],[-64.833,32.287],[-64.829,32.289],[-64.821,32.287],[-64.815,32.289],[-64.812,32.29],[-64.808,32.286],[-64.811,32.282]]]]}},{"type":"Feature","properties":{"id":"BMU-5143","name":"Southampton"},"geometry":{"type":"Polygon","coordinates":[[[-64.863,32.269],[-64.858,32.255],[-64.815,32.254],[-64.861,32.249],[-64.88,32.266],[-64.863,32.269]]]}},{"type":"Feature","properties":{"id":"BMU-5141","name":"Sandys"},"geometry":{"type":"Polygon","coordinates":[[[-64.88,32.266],[-64.886,32.283],[-64.869,32.309],[-64.858,32.298],[-64.872,32.276],[-64.849,32.268],[-64.88,32.266]]]}},{"type":"Feature","properties":{"id":"BMU-5140","name":"Saint George's"},"geometry":{"type":"MultiPolygon","coordinates":[[[[-64.695,32.34],[-64.678,32.335],[-64.698,32.326],[-64.695,32.34]]],[[[-64.722,32.353],[-64.676,32.389],[-64.648,32.368],[-64.656,32.35],[-64.691,32.364],[-64.722,32.353]],[[-64.677,32.37],[-64.668,32.374],[-64.672,32.381],[-64.681,32.376],[-64.677,32.37]]]]}},{"type":"Feature","properties":{"id":"BMU-5135","name":"City of Saint George"},"geometry":{"type":"Polygon","coordinates":[[[-64.672,32.381],[-64.668,32.374],[-64.677,32.37],[-64.681,32.376],[-64.672,32.381]]]}}]}