{"type":"FeatureCollection","countryId":"BRB","features":[{"type":"Feature","properties":{"id":"BRB-1994","name":"Saint Joseph"},"geometry":{"type":"Polygon","coordinates":[[[-59.546,13.244],[-59.518,13.218],[-59.554,13.18],[-59.581,13.21],[-59.568,13.238],[-59.546,13.244]]]}},{"type":"Feature","properties":{"id":"BRB-1990","name":"Saint Andrew"},"geometry":{"type":"Polygon","coordinates":[[[-59.569,13.29],[-59.546,13.244],[-59.568,13.238],[-59.581,13.21],[-59.601,13.216],[-59.605,13.276],[-59.569,13.29]]]}},{"type":"Feature","properties":{"id":"BRB-1997","name":"Saint Peter"},"geometry":{"type":"Polygon","coordinates":[[[-59.576,13.304],[-59.569,13.29],[-59.603,13.283],[-59.606,13.242],[-59.651,13.239],[-59.653,13.274],[-59.576,13.304]]]}},{"type":"Feature","properties":{"id":"BRB-1995","name":"Saint Lucy"},"geometry":{"type":"Polygon","coordinates":[[[-59.653,13.274],[-59.645,13.324],[-59.613,13.345],[-59.594,13.335],[-59.576,13.304],[-59.653,13.274]]]}},{"type":"Feature","properties":{"id":"BRB-1992","name":"Saint James"},"geometry":{"type":"Polygon","coordinates":[[[-59.641,13.142],[-59.651,13.239],[-59.606,13.242],[-59.601,13.216],[-59.625,13.184],[-59.611,13.15],[-59.641,13.142]]]}},{"type":"Feature","properties":{"id":"BRB-1996","name":"Saint Michael"},"geometry":{"type":"Polygon","coordinates":[[[-59.6,13.084],[-59.622,13.094],[-59.641,13.142],[-59.587,13.161],[-59.569,13.1],[-59.6,13.084]]]}},{"type":"Feature","properties":{"id":"BRB-1989","name":"Christ Church"},"geometry":{"type":"Polygon","coordinates":[[[-59.476,13.086],[-59.536,13.051],[-59.564,13.078],[-59.6,13.084],[-59.513,13.129],[-59.476,13.086]]]}},{"type":"Feature","properties":{"id":"BRB-1998","name":"Saint Philip"},"geometry":{"type":"Polygon","coordinates":[[[-59.468,13.187],[-59.427,13.16],[-59.43,13.126],[-59.476,13.086],[-59.513,13.129],[-59.468,13.187]]]}},{"type":"Feature","properties":{"id":"BRB-1993","name":"Saint John"},"geometry":{"type":"Polygon","coordinates":[[[-59.518,13.218],[-59.468,13.187],[-59.509,13.146],[-59.54,13.183],[-59.518,13.218]]]}},{"type":"Feature","properties":{"id":"BRB-1991","name":"Saint George"},"geometry":{"type":"Polygon","coordinates":[[[-59.54,13.183],[-59.509,13.146],[-59.513,13.129],[-59.57,13.108],[-59.587,13.161],[-59.54,13.183]]]}},{"type":"Feature","properties":{"id":"BRB-1999","name":"Saint Thomas"},"geometry":{"type":"Polygon","coordinates":[[[-59.589,13.217],[-59.554,13.18],[-59.611,13.15],[-59.625,13.184],[-59.589,13.217]]]}}]}