{"type":"FeatureCollection","countryId":"BRN","features":[{"type":"Feature","properties":{"id":"BRN-1183","name":"Temburong"},"geometry":{"type":"Polygon","coordinates":[[[115.146,4.909],[115.147,4.886],[115.207,4.826],[115.273,4.637],[115.272,4.475],[115.286,4.435],[115.358,4.35],[115.346,4.314],[115.221,4.36],[115.17,4.361],[115.092,4.405],[115.08,4.504],[115.027,4.66],[115.03,4.821],[115.048,4.802],[115.13,4.852],[115.116,4.896],[115.146,4.909]]]}},{"type":"Feature","properties":{"id":"BRN-1182","name":"Brunei and Muara"},"geometry":{"type":"Polygon","coordinates":[[[114.982,4.889],[114.959,4.866],[114.948,4.819],[114.856,4.807],[114.743,4.731],[114.76,4.899],[114.928,5.001],[115.058,5.054],[115.102,5.05],[115.103,5.037],[115.057,5.013],[115.023,4.934],[114.982,4.889]]]}},{"type":"Feature","properties":{"id":"BRN-1184","name":"Tutong"},"geometry":{"type":"Polygon","coordinates":[[[114.743,4.731],[114.774,4.637],[114.788,4.461],[114.806,4.433],[114.848,4.424],[114.829,4.34],[114.794,4.3],[114.758,4.32],[114.697,4.43],[114.597,4.522],[114.582,4.598],[114.541,4.602],[114.494,4.681],[114.529,4.694],[114.602,4.78],[114.76,4.899],[114.743,4.731]]]}},{"type":"Feature","properties":{"id":"BRN-1181","name":"Belait"},"geometry":{"type":"Polygon","coordinates":[[[114.36,4.254],[114.278,4.274],[114.297,4.317],[114.246,4.481],[114.119,4.562],[113.999,4.601],[114.252,4.593],[114.327,4.607],[114.494,4.681],[114.541,4.602],[114.582,4.598],[114.597,4.522],[114.697,4.43],[114.758,4.32],[114.794,4.3],[114.783,4.264],[114.814,4.277],[114.817,4.26],[114.767,4.132],[114.628,4.017],[114.587,4.021],[114.569,4.064],[114.477,4.145],[114.42,4.26],[114.36,4.254]]]}}]}