{"type":"FeatureCollection","countryId":"COK","features":[{"type":"Feature","properties":{"id":"COK-4952","name":"Mangaia"},"geometry":{"type":"Polygon","coordinates":[[[-157.935,-21.878],[-157.887,-21.926],[-157.928,-21.939],[-157.961,-21.924],[-157.964,-21.9],[-157.935,-21.878]]]}},{"type":"Feature","properties":{"id":"COK-4954","name":"Mitiaro"},"geometry":{"type":"Polygon","coordinates":[[[-157.708,-19.767],[-157.708,-19.841],[-157.722,-19.856],[-157.742,-19.805],[-157.708,-19.767]]]}},{"type":"Feature","properties":{"id":"COK-4962","name":"Penrhyn"},"geometry":{"type":"Polygon","coordinates":[[[-157.941,-8.981],[-157.979,-8.976],[-158.008,-8.953],[-157.941,-8.981]]]}},{"type":"Feature","properties":{"id":"COK-4953","name":"Rarotonga"},"geometry":{"type":"Polygon","coordinates":[[[-159.798,-21.186],[-159.743,-21.202],[-159.743,-21.254],[-159.846,-21.234],[-159.831,-21.196],[-159.798,-21.186]]]}},{"type":"Feature","properties":{"id":"COK-4955","name":"Mauke"},"geometry":{"type":"Polygon","coordinates":[[[-157.313,-20.155],[-157.318,-20.172],[-157.34,-20.176],[-157.349,-20.143],[-157.313,-20.155]]]}},{"type":"Feature","properties":{"id":"COK-4950","name":"Atiu"},"geometry":{"type":"MultiPolygon","coordinates":[[[[-158.078,-19.994],[-158.082,-20.013],[-158.115,-20.016],[-158.135,-19.976],[-158.078,-19.994]]],[[[-158.268,-19.833],[-158.281,-19.822],[-158.276,-19.823],[-158.273,-19.826],[-158.268,-19.833]]],[[[-158.288,-19.811],[-158.294,-19.817],[-158.297,-19.817],[-158.296,-19.815],[-158.288,-19.811]]]]}},{"type":"Feature","properties":{"id":"COK-4951","name":"Aitutaki"},"geometry":{"type":"Polygon","coordinates":[[[-158.925,-19.269],[-158.956,-19.245],[-158.918,-19.261],[-158.925,-19.269]]]}},{"type":"Feature","properties":{"id":"COK-4959","name":"Pukapuka"},"geometry":{"type":"Polygon","coordinates":[[[-165.825,-10.882],[-165.808,-10.881],[-165.819,-10.892],[-165.825,-10.882]]]}},{"type":"Feature","properties":{"id":"COK-4961","name":"Manihiki"},"geometry":{"type":"Polygon","coordinates":[[[-160.986,-10.382],[-160.996,-10.372],[-160.938,-10.423],[-160.986,-10.382]]]}},{"type":"Feature","properties":{"id":"COK-4960","name":"Rakahanga"},"geometry":{"type":"Polygon","coordinates":[[[-161.088,-10.035],[-161.07,-10.027],[-161.087,-10.045],[-161.088,-10.035]]]}},{"type":"Feature","properties":{"id":"COK-4956","name":"Palmerston"},"geometry":{"type":"Polygon","coordinates":[[[-159.785,-18.831],[-159.761,-18.845],[-159.77,-18.834],[-159.783,-18.888],[-159.802,-18.866],[-159.785,-18.831]]]}}]}