{"type":"FeatureCollection","countryId":"CYP","features":[{"type":"Feature","properties":{"id":"CYP-3463","name":"Larnaca"},"geometry":{"type":"MultiPolygon","coordinates":[[[[33.766,34.99],[33.774,34.989],[33.778,34.985],[33.783,34.985],[33.786,34.985],[33.791,34.982],[33.794,34.978],[33.793,34.978],[33.788,34.977],[33.785,34.976],[33.782,34.976],[33.781,34.976],[33.78,34.979],[33.776,34.98],[33.771,34.98],[33.769,34.984],[33.765,34.986],[33.759,34.989],[33.761,34.99],[33.766,34.99]]],[[[33.746,35.015],[33.752,35.014],[33.752,35.004],[33.747,35.003],[33.743,35.001],[33.74,35.003],[33.739,35.005],[33.74,35.01],[33.741,35.014],[33.746,35.015]]],[[[33.547,35.073],[33.579,35.035],[33.614,35.046],[33.638,35.031],[33.679,35.034],[33.715,34.997],[33.654,34.945],[33.633,34.852],[33.606,34.822],[33.544,34.815],[33.513,34.785],[33.439,34.763],[33.415,34.758],[33.4,34.773],[33.399,34.745],[33.273,34.707],[33.272,34.773],[33.253,34.802],[33.21,34.838],[33.13,34.861],[33.138,34.893],[33.169,34.908],[33.237,34.905],[33.257,34.89],[33.32,34.932],[33.396,34.928],[33.416,34.966],[33.496,34.965],[33.521,35],[33.494,35.057],[33.535,35.057],[33.547,35.073]]],[[[33.846,34.96],[33.859,34.992],[33.829,35.001],[33.866,35],[33.896,34.962],[33.846,34.96]]]]}},{"type":"Feature","properties":{"id":"CYP-3466","name":"Famagusta"},"geometry":{"type":"Polygon","coordinates":[[[33.907,35.069],[34.012,35.064],[34.099,34.965],[34.012,34.988],[33.896,34.962],[33.866,35],[33.829,35.001],[33.83,35.023],[33.799,35.039],[33.827,35.061],[33.841,35.051],[33.88,35.073],[33.907,35.069]]]}},{"type":"Feature","properties":{"id":"CYP-3464","name":"Nicosia"},"geometry":{"type":"Polygon","coordinates":[[[33.414,35.199],[33.477,35.095],[33.467,35.005],[33.491,35.05],[33.507,35.044],[33.521,35],[33.496,34.965],[33.416,34.966],[33.396,34.928],[33.32,34.932],[33.257,34.89],[33.18,34.911],[33.131,34.88],[33.056,34.89],[32.97,34.961],[32.885,34.932],[32.799,34.955],[32.773,34.941],[32.767,34.903],[32.743,34.911],[32.686,34.891],[32.657,34.926],[32.674,34.949],[32.673,34.982],[32.609,35.057],[32.628,35.071],[32.63,35.106],[32.565,35.169],[32.602,35.179],[32.626,35.165],[32.65,35.188],[32.711,35.182],[32.732,35.143],[32.795,35.127],[32.855,35.079],[32.87,35.098],[32.947,35.103],[33.031,35.149],[33.096,35.17],[33.12,35.16],[33.157,35.185],[33.315,35.162],[33.414,35.199]]]}},{"type":"Feature","properties":{"id":"CYP-3489","name":"Limassol"},"geometry":{"type":"Polygon","coordinates":[[[32.841,34.699],[32.799,34.671],[32.767,34.676],[32.749,34.65],[32.642,34.661],[32.639,34.697],[32.706,34.741],[32.705,34.789],[32.782,34.868],[32.768,34.92],[32.775,34.944],[32.799,34.955],[32.885,34.932],[32.976,34.959],[33.056,34.89],[33.131,34.88],[33.137,34.856],[33.223,34.831],[33.272,34.773],[33.273,34.707],[33.086,34.695],[33.016,34.634],[32.963,34.625],[32.954,34.643],[32.99,34.646],[32.988,34.673],[32.914,34.66],[32.866,34.679],[32.86,34.701],[32.841,34.699]]]}},{"type":"Feature","properties":{"id":"CYP-3465","name":"Paphos"},"geometry":{"type":"Polygon","coordinates":[[[32.642,34.661],[32.557,34.699],[32.476,34.713],[32.413,34.753],[32.379,34.849],[32.323,34.898],[32.331,34.924],[32.276,35.048],[32.275,35.091],[32.287,35.097],[32.372,35.041],[32.414,35.043],[32.48,35.083],[32.554,35.178],[32.628,35.11],[32.628,35.071],[32.608,35.062],[32.673,34.982],[32.663,34.909],[32.691,34.889],[32.743,34.911],[32.783,34.876],[32.705,34.789],[32.706,34.741],[32.637,34.694],[32.642,34.661]]]}}]}