{"type":"FeatureCollection","countryId":"DMA","features":[{"type":"Feature","properties":{"id":"DMA-1439","name":"Saint Patrick"},"geometry":{"type":"Polygon","coordinates":[[[-61.254,15.333],[-61.277,15.25],[-61.318,15.243],[-61.346,15.212],[-61.357,15.254],[-61.343,15.274],[-61.3,15.324],[-61.254,15.333]]]}},{"type":"Feature","properties":{"id":"DMA-1433","name":"Saint David"},"geometry":{"type":"Polygon","coordinates":[[[-61.269,15.51],[-61.263,15.408],[-61.249,15.401],[-61.254,15.333],[-61.308,15.317],[-61.328,15.346],[-61.335,15.405],[-61.317,15.445],[-61.275,15.476],[-61.269,15.51]]]}},{"type":"Feature","properties":{"id":"DMA-1432","name":"Saint Andrew"},"geometry":{"type":"Polygon","coordinates":[[[-61.449,15.633],[-61.385,15.588],[-61.357,15.598],[-61.308,15.579],[-61.269,15.51],[-61.275,15.476],[-61.317,15.445],[-61.348,15.475],[-61.393,15.482],[-61.449,15.633]]]}},{"type":"Feature","properties":{"id":"DMA-1435","name":"Saint John"},"geometry":{"type":"Polygon","coordinates":[[[-61.484,15.53],[-61.489,15.545],[-61.462,15.573],[-61.489,15.579],[-61.469,15.634],[-61.449,15.633],[-61.438,15.591],[-61.419,15.578],[-61.408,15.503],[-61.484,15.53]]]}},{"type":"Feature","properties":{"id":"DMA-1441","name":"Saint Peter"},"geometry":{"type":"Polygon","coordinates":[[[-61.455,15.466],[-61.472,15.481],[-61.48,15.534],[-61.408,15.503],[-61.455,15.466]]]}},{"type":"Feature","properties":{"id":"DMA-1436","name":"Saint Joseph"},"geometry":{"type":"Polygon","coordinates":[[[-61.416,15.39],[-61.455,15.466],[-61.431,15.489],[-61.406,15.494],[-61.323,15.458],[-61.335,15.405],[-61.416,15.39]]]}},{"type":"Feature","properties":{"id":"DMA-1440","name":"Saint Paul"},"geometry":{"type":"Polygon","coordinates":[[[-61.394,15.314],[-61.416,15.39],[-61.335,15.405],[-61.328,15.346],[-61.394,15.314]]]}},{"type":"Feature","properties":{"id":"DMA-1434","name":"Saint George"},"geometry":{"type":"Polygon","coordinates":[[[-61.373,15.26],[-61.394,15.314],[-61.328,15.346],[-61.311,15.335],[-61.304,15.312],[-61.317,15.292],[-61.357,15.254],[-61.373,15.26]]]}},{"type":"Feature","properties":{"id":"DMA-1437","name":"Saint Luke"},"geometry":{"type":"Polygon","coordinates":[[[-61.373,15.237],[-61.373,15.26],[-61.357,15.254],[-61.373,15.237]]]}},{"type":"Feature","properties":{"id":"DMA-1438","name":"Saint Mark"},"geometry":{"type":"Polygon","coordinates":[[[-61.346,15.212],[-61.374,15.205],[-61.373,15.237],[-61.356,15.244],[-61.346,15.212]]]}}]}