{"type":"FeatureCollection","countryId":"ESB","features":[{"type":"Feature","properties":{"id":"ESB-5132","name":"Dhekelia"},"geometry":{"type":"Polygon","coordinates":[[[33.778,34.985],[33.702,34.973],[33.715,34.997],[33.676,35.037],[33.679,35.056],[33.715,35.067],[33.708,35.029],[33.74,35.047],[33.766,35.032],[33.794,35.04],[33.824,35.067],[33.867,35.067],[33.876,35.119],[33.889,35.119],[33.914,35.073],[33.841,35.051],[33.827,35.061],[33.799,35.039],[33.83,35.023],[33.829,35.001],[33.859,34.992],[33.859,34.975],[33.838,34.964],[33.892,34.958],[33.862,34.938],[33.778,34.985]],[[33.743,35.001],[33.747,35.003],[33.752,35.004],[33.752,35.014],[33.746,35.015],[33.741,35.014],[33.74,35.01],[33.739,35.005],[33.74,35.003],[33.743,35.001]]]}}]}