{"type":"FeatureCollection","countryId":"ESH","features":[{"type":"Feature","properties":{"id":"ESH-0","name":"W. Sahara"},"geometry":{"type":"Polygon","coordinates":[[[-8.666,27.656],[-8.684,27.396],[-8.687,25.881],[-11.969,25.933],[-11.937,23.375],[-12.874,23.285],[-13.119,22.771],[-12.929,21.327],[-16.845,21.333],[-17.063,21],[-17.02,21.422],[-14.751,21.501],[-14.631,21.861],[-14.221,22.31],[-13.891,23.691],[-12.501,24.77],[-12.031,26.031],[-11.718,26.104],[-11.393,26.883],[-10.551,26.991],[-10.189,26.861],[-9.735,26.861],[-9.413,27.088],[-8.795,27.121],[-8.818,27.656],[-8.666,27.656]]]}}]}