{"type":"FeatureCollection","countryId":"FSM","features":[{"type":"Feature","properties":{"id":"FSM-4944","name":"Kosrae"},"geometry":{"type":"Polygon","coordinates":[[[163.026,5.341],[163.047,5.324],[163.019,5.273],[162.916,5.287],[162.924,5.321],[162.991,5.375],[163.026,5.369],[163.026,5.341]]]}},{"type":"Feature","properties":{"id":"FSM-4941","name":"Pohnpei"},"geometry":{"type":"MultiPolygon","coordinates":[[[[158.291,6.938],[158.305,6.924],[158.325,6.931],[158.338,6.879],[158.304,6.866],[158.314,6.809],[158.244,6.788],[158.18,6.802],[158.16,6.828],[158.16,6.89],[158.133,6.892],[158.126,6.907],[158.132,6.941],[158.178,6.956],[158.181,6.979],[158.277,6.965],[158.303,6.943],[158.291,6.938]]],[[[154.808,0.928],[154.818,0.922],[154.802,0.918],[154.808,0.928]]],[[[154.715,0.966],[154.722,0.969],[154.733,0.967],[154.727,0.961],[154.715,0.961],[154.715,0.966]]],[[[154.793,0.972],[154.797,0.966],[154.792,0.963],[154.784,0.964],[154.778,0.969],[154.778,0.974],[154.784,0.975],[154.793,0.972]]],[[[154.879,3.752],[154.877,3.768],[154.892,3.779],[154.894,3.763],[154.879,3.752]]],[[[154.789,3.792],[154.792,3.777],[154.774,3.766],[154.771,3.781],[154.789,3.792]]],[[[157.162,5.774],[157.161,5.776],[157.159,5.778],[157.158,5.779],[157.161,5.78],[157.164,5.779],[157.164,5.777],[157.162,5.776],[157.162,5.774]]],[[[157.936,6.717],[157.939,6.727],[157.942,6.731],[157.949,6.732],[157.948,6.726],[157.946,6.723],[157.936,6.717]]],[[[154.3,8.175],[154.313,8.138],[154.296,8.106],[154.238,8.143],[154.26,8.18],[154.3,8.175]]]]}},{"type":"Feature","properties":{"id":"FSM-4942","name":"Chuuk"},"geometry":{"type":"MultiPolygon","coordinates":[[[[151.589,7.384],[151.636,7.387],[151.65,7.369],[151.645,7.336],[151.568,7.343],[151.623,7.366],[151.589,7.384]]],[[[151.877,7.459],[151.918,7.459],[151.856,7.425],[151.863,7.466],[151.877,7.459]]],[[[153.668,5.286],[153.685,5.31],[153.711,5.315],[153.668,5.286]]],[[[149.316,6.697],[149.316,6.704],[149.317,6.71],[149.319,6.715],[149.323,6.719],[149.326,6.713],[149.325,6.707],[149.321,6.702],[149.316,6.697]]],[[[151.857,7.317],[151.855,7.37],[151.866,7.351],[151.857,7.317]]],[[[149.186,7.372],[149.181,7.381],[149.187,7.382],[149.188,7.38],[149.187,7.376],[149.186,7.372]]],[[[150.407,8.576],[150.405,8.586],[150.409,8.585],[150.41,8.582],[150.408,8.579],[150.407,8.576]]],[[[149.669,8.575],[149.668,8.604],[149.687,8.616],[149.669,8.575]]],[[[150.118,8.976],[150.124,8.986],[150.127,8.987],[150.133,8.986],[150.131,8.981],[150.127,8.979],[150.123,8.978],[150.118,8.976]]]]}},{"type":"Feature","properties":{"id":"FSM-4943","name":"Yap"},"geometry":{"type":"MultiPolygon","coordinates":[[[[138.192,9.576],[138.184,9.544],[138.219,9.549],[138.202,9.521],[138.178,9.5],[138.157,9.526],[138.144,9.521],[138.068,9.412],[138.073,9.47],[138.113,9.521],[138.126,9.566],[138.141,9.574],[138.15,9.541],[138.164,9.576],[138.194,9.589],[138.192,9.576]]],[[[140.514,9.768],[140.522,9.775],[140.531,9.776],[140.533,9.772],[140.525,9.764],[140.515,9.761],[140.514,9.768]]]]}}]}