{"type":"FeatureCollection","countryId":"KAB","features":[{"type":"Feature","properties":{"id":"KAB+00?","name":"Baykonur lease in Qyzylorda"},"geometry":{"type":"Polygon","coordinates":[[[63.384,46.391],[63.557,46.372],[63.662,46.341],[63.834,46.241],[63.941,46.101],[63.964,46.021],[63.964,45.936],[63.941,45.856],[63.897,45.782],[63.834,45.716],[63.71,45.636],[63.557,45.584],[63.444,45.568],[63.21,45.584],[63.058,45.636],[62.9,45.748],[62.846,45.818],[62.813,45.895],[62.804,46.021],[62.827,46.101],[62.871,46.175],[63.013,46.297],[63.21,46.372],[63.384,46.391]]]}}]}