{"type":"FeatureCollection","countryId":"KNA","features":[{"type":"Feature","properties":{"id":"KNA-5108","name":"Saint Paul Charlestown"},"geometry":{"type":"Polygon","coordinates":[[[-62.622,17.128],[-62.626,17.141],[-62.579,17.145],[-62.622,17.128]]]}},{"type":"Feature","properties":{"id":"KNA-5105","name":"Saint John Figtree"},"geometry":{"type":"Polygon","coordinates":[[[-62.566,17.101],[-62.612,17.104],[-62.622,17.128],[-62.579,17.145],[-62.566,17.101]]]}},{"type":"Feature","properties":{"id":"KNA-5102","name":"Saint George Gingerland"},"geometry":{"type":"Polygon","coordinates":[[[-62.537,17.138],[-62.544,17.109],[-62.566,17.101],[-62.579,17.145],[-62.537,17.138]]]}},{"type":"Feature","properties":{"id":"KNA-5103","name":"Saint James Windward"},"geometry":{"type":"Polygon","coordinates":[[[-62.613,17.189],[-62.599,17.203],[-62.56,17.197],[-62.537,17.138],[-62.579,17.145],[-62.613,17.189]]]}},{"type":"Feature","properties":{"id":"KNA-5110","name":"Saint Thomas Lowland"},"geometry":{"type":"Polygon","coordinates":[[[-62.626,17.141],[-62.613,17.189],[-62.579,17.145],[-62.626,17.141]]]}},{"type":"Feature","properties":{"id":"KNA-5107","name":"Saint Paul Capesterre"},"geometry":{"type":"Polygon","coordinates":[[[-62.857,17.38],[-62.822,17.41],[-62.808,17.367],[-62.857,17.38]]]}},{"type":"Feature","properties":{"id":"KNA-5100","name":"Saint Anne Sandy Point"},"geometry":{"type":"Polygon","coordinates":[[[-62.832,17.33],[-62.861,17.362],[-62.857,17.38],[-62.808,17.367],[-62.832,17.33]]]}},{"type":"Feature","properties":{"id":"KNA-5111","name":"Saint Thomas Middle Island"},"geometry":{"type":"Polygon","coordinates":[[[-62.772,17.298],[-62.832,17.33],[-62.808,17.367],[-62.754,17.331],[-62.772,17.298]]]}},{"type":"Feature","properties":{"id":"KNA-5112","name":"Trinity Palmetto Point"},"geometry":{"type":"Polygon","coordinates":[[[-62.724,17.292],[-62.772,17.298],[-62.754,17.331],[-62.738,17.33],[-62.724,17.292]]]}},{"type":"Feature","properties":{"id":"KNA-5101","name":"Saint George Basseterre"},"geometry":{"type":"Polygon","coordinates":[[[-62.681,17.299],[-62.637,17.258],[-62.625,17.225],[-62.66,17.225],[-62.67,17.263],[-62.724,17.292],[-62.734,17.319],[-62.681,17.299]]]}},{"type":"Feature","properties":{"id":"KNA-5109","name":"Saint Peter Basseterre"},"geometry":{"type":"Polygon","coordinates":[[[-62.704,17.342],[-62.681,17.299],[-62.734,17.319],[-62.732,17.339],[-62.704,17.342]]]}},{"type":"Feature","properties":{"id":"KNA-5106","name":"Saint Mary Cayon"},"geometry":{"type":"Polygon","coordinates":[[[-62.731,17.365],[-62.704,17.342],[-62.745,17.331],[-62.731,17.365]]]}},{"type":"Feature","properties":{"id":"KNA-5099","name":"Christ Church Nichola Town"},"geometry":{"type":"Polygon","coordinates":[[[-62.769,17.387],[-62.731,17.365],[-62.745,17.331],[-62.788,17.35],[-62.769,17.387]]]}},{"type":"Feature","properties":{"id":"KNA-5104","name":"Saint John Capesterre"},"geometry":{"type":"Polygon","coordinates":[[[-62.822,17.41],[-62.769,17.387],[-62.788,17.35],[-62.815,17.374],[-62.822,17.41]]]}}]}