{"type":"FeatureCollection","countryId":"LBN","features":[{"type":"Feature","properties":{"id":"LBN-3059","name":"An Nabatiyah"},"geometry":{"type":"Polygon","coordinates":[[[35.598,33.244],[35.549,33.281],[35.52,33.222],[35.512,33.147],[35.48,33.087],[35.345,33.056],[35.289,33.099],[35.305,33.167],[35.368,33.204],[35.355,33.217],[35.416,33.267],[35.43,33.314],[35.354,33.318],[35.338,33.356],[35.297,33.368],[35.338,33.402],[35.368,33.379],[35.389,33.427],[35.378,33.435],[35.417,33.46],[35.41,33.472],[35.528,33.501],[35.524,33.386],[35.543,33.349],[35.559,33.382],[35.591,33.386],[35.635,33.433],[35.662,33.43],[35.716,33.481],[35.756,33.465],[35.782,33.428],[35.845,33.419],[35.769,33.343],[35.699,33.323],[35.598,33.244]]]}},{"type":"Feature","properties":{"id":"LBN-3060","name":"South Lebanon"},"geometry":{"type":"Polygon","coordinates":[[[35.289,33.099],[35.185,33.084],[35.1,33.096],[35.115,33.124],[35.148,33.14],[35.162,33.177],[35.175,33.17],[35.205,33.225],[35.209,33.255],[35.188,33.28],[35.225,33.312],[35.271,33.458],[35.349,33.514],[35.377,33.589],[35.477,33.572],[35.596,33.606],[35.635,33.433],[35.591,33.386],[35.559,33.382],[35.543,33.349],[35.524,33.386],[35.524,33.501],[35.41,33.472],[35.417,33.46],[35.378,33.435],[35.389,33.427],[35.368,33.379],[35.338,33.402],[35.297,33.368],[35.338,33.356],[35.354,33.318],[35.43,33.314],[35.416,33.267],[35.355,33.217],[35.368,33.204],[35.305,33.167],[35.289,33.099]]]}},{"type":"Feature","properties":{"id":"LBN-3022","name":"Beqaa"},"geometry":{"type":"Polygon","coordinates":[[[35.87,33.431],[35.845,33.419],[35.782,33.428],[35.756,33.465],[35.716,33.481],[35.662,33.43],[35.635,33.433],[35.614,33.51],[35.637,33.533],[35.671,33.623],[35.756,33.717],[35.741,33.735],[35.768,33.768],[35.808,33.781],[35.77,33.808],[35.953,33.993],[35.998,34.068],[36.011,34.152],[36.043,34.159],[36.071,34.223],[36.198,34.361],[36.244,34.456],[36.308,34.496],[36.433,34.494],[36.45,34.465],[36.531,34.414],[36.516,34.362],[36.545,34.321],[36.582,34.3],[36.563,34.263],[36.604,34.199],[36.488,34.089],[36.475,34.054],[36.391,34.045],[36.289,33.947],[36.267,33.91],[36.311,33.872],[36.368,33.858],[36.358,33.824],[36.232,33.853],[36.166,33.83],[36.138,33.851],[36.05,33.816],[35.994,33.761],[35.948,33.709],[35.947,33.673],[35.925,33.662],[35.922,33.64],[36.03,33.598],[36.035,33.568],[35.999,33.541],[35.933,33.528],[35.919,33.462],[35.87,33.431]]]}},{"type":"Feature","properties":{"id":"LBN-3023","name":"North Lebanon"},"geometry":{"type":"Polygon","coordinates":[[[36.309,34.688],[36.368,34.629],[36.44,34.629],[36.436,34.598],[36.389,34.596],[36.384,34.554],[36.32,34.514],[36.33,34.499],[36.249,34.462],[36.198,34.361],[36.071,34.223],[36.04,34.156],[35.982,34.156],[35.933,34.177],[35.916,34.165],[35.844,34.193],[35.738,34.187],[35.645,34.218],[35.665,34.311],[35.689,34.328],[35.706,34.317],[35.751,34.39],[35.806,34.415],[35.824,34.435],[35.805,34.465],[35.903,34.478],[35.983,34.539],[35.99,34.6],[35.97,34.65],[36.038,34.628],[36.262,34.627],[36.309,34.688]]]}},{"type":"Feature","properties":{"id":"LBN-3025","name":"Mount Lebanon"},"geometry":{"type":"Polygon","coordinates":[[[35.548,33.906],[35.578,33.917],[35.614,33.993],[35.641,33.999],[35.627,34.044],[35.648,34.119],[35.627,34.201],[35.645,34.218],[35.738,34.187],[35.844,34.193],[35.89,34.17],[35.922,34.165],[35.933,34.177],[36.011,34.152],[35.998,34.068],[35.953,33.993],[35.77,33.808],[35.808,33.781],[35.768,33.768],[35.741,33.735],[35.756,33.717],[35.671,33.623],[35.637,33.533],[35.614,33.51],[35.62,33.538],[35.601,33.553],[35.596,33.606],[35.477,33.572],[35.377,33.589],[35.394,33.65],[35.477,33.804],[35.483,33.865],[35.536,33.872],[35.548,33.906]]]}},{"type":"Feature","properties":{"id":"LBN-3024","name":"Beirut"},"geometry":{"type":"Polygon","coordinates":[[[35.483,33.865],[35.476,33.91],[35.548,33.906],[35.536,33.872],[35.483,33.865]]]}}]}