{"type":"FeatureCollection","countryId":"MHL","features":[{"type":"Feature","properties":{"id":"MHL-4968","name":"Railik Chain"},"geometry":{"type":"MultiPolygon","coordinates":[[[[168.101,5.599],[168.121,5.597],[168.125,5.631],[168.128,5.602],[168.101,5.599]]],[[[168.685,4.574],[168.735,4.591],[168.768,4.629],[168.741,4.586],[168.685,4.574]]],[[[169.59,5.801],[169.624,5.827],[169.656,5.943],[169.735,6.013],[169.721,5.977],[169.665,5.939],[169.615,5.799],[169.59,5.801]]],[[[168.758,7.308],[168.83,7.308],[168.792,7.293],[168.675,7.321],[168.679,7.335],[168.758,7.308]]],[[[168.577,7.404],[168.555,7.43],[168.563,7.464],[168.577,7.404]]],[[[166.904,11.173],[166.875,11.145],[166.836,11.159],[166.904,11.173]]],[[[169.115,5.638],[169.116,5.649],[169.121,5.647],[169.115,5.638]]],[[[168.966,7.575],[168.962,7.592],[168.938,7.596],[168.966,7.595],[168.966,7.575]]],[[[167.402,8.318],[167.408,8.307],[167.4,8.311],[167.402,8.318]]],[[[167.732,8.725],[167.731,8.73],[167.73,8.735],[167.733,8.74],[167.74,8.744],[167.742,8.738],[167.74,8.733],[167.732,8.725]]],[[[165.54,11.634],[165.543,11.633],[165.547,11.631],[165.551,11.627],[165.554,11.62],[165.54,11.634]]],[[[165.282,11.696],[165.282,11.708],[165.287,11.711],[165.289,11.706],[165.282,11.696]]]]}},{"type":"Feature","properties":{"id":"MHL-4969","name":"Ratak Chain"},"geometry":{"type":"MultiPolygon","coordinates":[[[[171.725,6.102],[171.745,6.079],[171.723,6.083],[171.725,6.102]]],[[[171.91,7.099],[171.915,7.125],[171.929,7.118],[171.892,7.091],[171.91,7.099]]],[[[172.03,6.054],[171.962,6.052],[171.948,6.068],[172.03,6.054]]],[[[171.757,6.972],[171.689,7.007],[171.614,7.006],[171.577,7.047],[171.611,7.02],[171.689,7.02],[171.757,6.972]]],[[[171.394,7.11],[171.263,7.068],[171.202,7.072],[171.036,7.155],[171.05,7.171],[171.057,7.143],[171.226,7.076],[171.394,7.11]]],[[[171.792,7.055],[171.801,7.063],[171.764,7.02],[171.792,7.055]]],[[[170.852,8.898],[170.845,8.887],[170.839,8.888],[170.838,8.889],[170.837,8.889],[170.837,8.89],[170.841,8.899],[170.845,8.901],[170.85,8.901],[170.852,8.898]]],[[[170.24,9.45],[170.239,9.467],[170.244,9.466],[170.247,9.458],[170.24,9.45]]],[[[170.875,10.275],[170.875,10.287],[170.879,10.287],[170.879,10.275],[170.875,10.275]]],[[[169.011,14.61],[169.014,14.611],[169.007,14.603],[168.997,14.593],[168.987,14.587],[168.998,14.599],[169.011,14.61]]]]}}]}