{"type":"FeatureCollection","countryId":"MLT","features":[{"type":"Feature","properties":{"id":"MLT-5950","name":"Kalkara"},"geometry":{"type":"Polygon","coordinates":[[[14.525,35.898],[14.548,35.89],[14.529,35.882],[14.525,35.898]]]}},{"type":"Feature","properties":{"id":"MLT-5949","name":"Valletta"},"geometry":{"type":"Polygon","coordinates":[[[14.514,35.901],[14.525,35.898],[14.502,35.895],[14.514,35.901]]]}},{"type":"Feature","properties":{"id":"MLT-5936","name":"Sliema"},"geometry":{"type":"Polygon","coordinates":[[[14.51,35.925],[14.507,35.899],[14.493,35.907],[14.51,35.925]]]}},{"type":"Feature","properties":{"id":"MLT-5935","name":"San Giljan"},"geometry":{"type":"Polygon","coordinates":[[[14.501,35.93],[14.51,35.925],[14.489,35.905],[14.484,35.923],[14.501,35.93]]]}},{"type":"Feature","properties":{"id":"MLT-5934","name":"Pembroke"},"geometry":{"type":"Polygon","coordinates":[[[14.465,35.947],[14.501,35.93],[14.472,35.92],[14.465,35.947]]]}},{"type":"Feature","properties":{"id":"MLT-5928","name":"Naxxar"},"geometry":{"type":"Polygon","coordinates":[[[14.438,35.963],[14.465,35.947],[14.441,35.903],[14.42,35.934],[14.438,35.963]]]}},{"type":"Feature","properties":{"id":"MLT-5926","name":"San Pawl il-Bahar"},"geometry":{"type":"Polygon","coordinates":[[[14.406,35.968],[14.438,35.963],[14.426,35.92],[14.394,35.923],[14.412,35.913],[14.4,35.908],[14.372,35.945],[14.406,35.968]]]}},{"type":"Feature","properties":{"id":"MLT-5925","name":"Mellieħa"},"geometry":{"type":"Polygon","coordinates":[[[14.341,35.926],[14.322,35.973],[14.335,35.982],[14.377,35.994],[14.349,35.973],[14.406,35.968],[14.372,35.934],[14.341,35.926]]]}},{"type":"Feature","properties":{"id":"MLT-5924","name":"Mġarr"},"geometry":{"type":"Polygon","coordinates":[[[14.343,35.9],[14.341,35.926],[14.374,35.936],[14.404,35.905],[14.343,35.9]]]}},{"type":"Feature","properties":{"id":"MLT-5923","name":"Rabat"},"geometry":{"type":"Polygon","coordinates":[[[14.365,35.864],[14.343,35.9],[14.413,35.898],[14.396,35.887],[14.413,35.879],[14.413,35.86],[14.365,35.864]]]}},{"type":"Feature","properties":{"id":"MLT-5947","name":"Dingli"},"geometry":{"type":"Polygon","coordinates":[[[14.389,35.84],[14.365,35.864],[14.393,35.868],[14.389,35.84]]]}},{"type":"Feature","properties":{"id":"MLT-5948","name":"Siġġiewi"},"geometry":{"type":"Polygon","coordinates":[[[14.429,35.823],[14.389,35.84],[14.399,35.86],[14.47,35.86],[14.429,35.823]]]}},{"type":"Feature","properties":{"id":"MLT-5972","name":"Qrendi"},"geometry":{"type":"Polygon","coordinates":[[[14.454,35.816],[14.429,35.823],[14.467,35.838],[14.454,35.816]]]}},{"type":"Feature","properties":{"id":"MLT-5973","name":"Żurrieq"},"geometry":{"type":"Polygon","coordinates":[[[14.498,35.809],[14.454,35.816],[14.476,35.838],[14.486,35.825],[14.509,35.83],[14.498,35.809]]]}},{"type":"Feature","properties":{"id":"MLT-5968","name":"Birżebbuġa"},"geometry":{"type":"Polygon","coordinates":[[[14.54,35.829],[14.528,35.801],[14.498,35.809],[14.525,35.84],[14.54,35.829]]]}},{"type":"Feature","properties":{"id":"MLT-5963","name":"Marsaxlokk"},"geometry":{"type":"Polygon","coordinates":[[[14.566,35.842],[14.54,35.829],[14.525,35.845],[14.566,35.842]]]}},{"type":"Feature","properties":{"id":"MLT-5962","name":"Marsaskala"},"geometry":{"type":"Polygon","coordinates":[[[14.561,35.873],[14.566,35.842],[14.543,35.861],[14.561,35.873]]]}},{"type":"Feature","properties":{"id":"MLT-5956","name":"Żabbar"},"geometry":{"type":"Polygon","coordinates":[[[14.556,35.879],[14.549,35.863],[14.525,35.866],[14.529,35.882],[14.556,35.879]]]}},{"type":"Feature","properties":{"id":"MLT-5952","name":"Xgħajra"},"geometry":{"type":"Polygon","coordinates":[[[14.548,35.89],[14.556,35.879],[14.54,35.883],[14.548,35.89]]]}},{"type":"Feature","properties":{"id":"MLT-5974","name":"San Lawrenz"},"geometry":{"type":"Polygon","coordinates":[[[14.195,36.029],[14.184,36.065],[14.212,36.052],[14.195,36.029]]]}},{"type":"Feature","properties":{"id":"MLT-5981","name":"Kerċem"},"geometry":{"type":"Polygon","coordinates":[[[14.21,36.023],[14.195,36.029],[14.212,36.052],[14.229,36.048],[14.235,36.032],[14.21,36.023]]]}},{"type":"Feature","properties":{"id":"MLT-5984","name":"Munxar"},"geometry":{"type":"Polygon","coordinates":[[[14.233,36.017],[14.21,36.023],[14.235,36.032],[14.233,36.017]]]}},{"type":"Feature","properties":{"id":"MLT-5985","name":"Sannat"},"geometry":{"type":"Polygon","coordinates":[[[14.274,36.016],[14.233,36.017],[14.24,36.027],[14.274,36.016]]]}},{"type":"Feature","properties":{"id":"MLT-5987","name":"Għajnsielem"},"geometry":{"type":"Polygon","coordinates":[[[14.3,36.025],[14.272,36.019],[14.281,36.033],[14.3,36.025]]]}},{"type":"Feature","properties":{"id":"MLT-5980","name":"Qala"},"geometry":{"type":"Polygon","coordinates":[[[14.32,36.046],[14.334,36.034],[14.3,36.025],[14.32,36.046]]]}},{"type":"Feature","properties":{"id":"MLT-5979","name":"Nadur"},"geometry":{"type":"Polygon","coordinates":[[[14.289,36.064],[14.32,36.046],[14.305,36.031],[14.281,36.033],[14.289,36.064]]]}},{"type":"Feature","properties":{"id":"MLT-5978","name":"Xagħra"},"geometry":{"type":"Polygon","coordinates":[[[14.272,36.071],[14.289,36.064],[14.281,36.033],[14.251,36.046],[14.272,36.071]]]}},{"type":"Feature","properties":{"id":"MLT-5977","name":"Żebbuġ"},"geometry":{"type":"Polygon","coordinates":[[[14.234,36.073],[14.272,36.071],[14.245,36.046],[14.234,36.073]]]}},{"type":"Feature","properties":{"id":"MLT-5976","name":"Għasri"},"geometry":{"type":"Polygon","coordinates":[[[14.213,36.07],[14.234,36.073],[14.239,36.049],[14.219,36.051],[14.213,36.07]]]}},{"type":"Feature","properties":{"id":"MLT-5975","name":"Għarb"},"geometry":{"type":"Polygon","coordinates":[[[14.184,36.065],[14.213,36.07],[14.219,36.051],[14.184,36.065]]]}},{"type":"Feature","properties":{"id":"MLT-5982","name":"Victoria"},"geometry":{"type":"Polygon","coordinates":[[[14.236,36.038],[14.23,36.049],[14.256,36.04],[14.236,36.038]]]}},{"type":"Feature","properties":{"id":"MLT-5983","name":"Fontana, Gozo"},"geometry":{"type":"Polygon","coordinates":[[[14.235,36.032],[14.236,36.038],[14.239,36.038],[14.241,36.036],[14.244,36.034],[14.245,36.031],[14.241,36.028],[14.237,36.029],[14.235,36.032]]]}},{"type":"Feature","properties":{"id":"MLT-5986","name":"Xewkija"},"geometry":{"type":"Polygon","coordinates":[[[14.24,36.027],[14.281,36.033],[14.272,36.019],[14.24,36.027]]]}},{"type":"Feature","properties":{"id":"MLT-5927","name":"Mosta"},"geometry":{"type":"Polygon","coordinates":[[[14.404,35.905],[14.411,35.915],[14.394,35.923],[14.43,35.92],[14.435,35.895],[14.404,35.905]]]}},{"type":"Feature","properties":{"id":"MLT-5929","name":"Lija"},"geometry":{"type":"Polygon","coordinates":[[[14.435,35.895],[14.435,35.906],[14.449,35.901],[14.435,35.895]]]}},{"type":"Feature","properties":{"id":"MLT-5920","name":"Attard"},"geometry":{"type":"Polygon","coordinates":[[[14.423,35.9],[14.457,35.886],[14.413,35.879],[14.423,35.9]]]}},{"type":"Feature","properties":{"id":"MLT-5922","name":"Mtarfa"},"geometry":{"type":"Polygon","coordinates":[[[14.402,35.882],[14.396,35.883],[14.396,35.887],[14.399,35.89],[14.404,35.89],[14.408,35.89],[14.412,35.891],[14.411,35.887],[14.411,35.884],[14.407,35.884],[14.404,35.883],[14.402,35.882]]]}},{"type":"Feature","properties":{"id":"MLT-5921","name":"Mdina"},"geometry":{"type":"Polygon","coordinates":[[[14.402,35.882],[14.404,35.883],[14.407,35.884],[14.411,35.884],[14.413,35.879],[14.41,35.88],[14.405,35.88],[14.402,35.882]]]}},{"type":"Feature","properties":{"id":"MLT-5946","name":"Żebbuġ"},"geometry":{"type":"Polygon","coordinates":[[[14.416,35.864],[14.418,35.88],[14.455,35.883],[14.463,35.869],[14.416,35.864]]]}},{"type":"Feature","properties":{"id":"MLT-5945","name":"Qormi"},"geometry":{"type":"Polygon","coordinates":[[[14.463,35.863],[14.458,35.889],[14.484,35.876],[14.463,35.863]]]}},{"type":"Feature","properties":{"id":"MLT-5933","name":"Swieqi"},"geometry":{"type":"Polygon","coordinates":[[[14.455,35.929],[14.486,35.915],[14.466,35.911],[14.455,35.929]]]}},{"type":"Feature","properties":{"id":"MLT-5932","name":"Għargħur"},"geometry":{"type":"Polygon","coordinates":[[[14.451,35.913],[14.455,35.929],[14.464,35.912],[14.451,35.913]]]}},{"type":"Feature","properties":{"id":"MLT-5937","name":"San Ġwann"},"geometry":{"type":"Polygon","coordinates":[[[14.48,35.914],[14.486,35.9],[14.463,35.901],[14.48,35.914]]]}},{"type":"Feature","properties":{"id":"MLT-5931","name":"Iklin"},"geometry":{"type":"Polygon","coordinates":[[[14.451,35.913],[14.455,35.913],[14.458,35.912],[14.462,35.909],[14.463,35.901],[14.459,35.9],[14.455,35.899],[14.449,35.901],[14.447,35.904],[14.45,35.906],[14.448,35.909],[14.451,35.913]]]}},{"type":"Feature","properties":{"id":"MLT-5939","name":"Birkirkara"},"geometry":{"type":"Polygon","coordinates":[[[14.455,35.899],[14.477,35.894],[14.464,35.885],[14.455,35.899]]]}},{"type":"Feature","properties":{"id":"MLT-5930","name":"Balzan"},"geometry":{"type":"Polygon","coordinates":[[[14.449,35.901],[14.455,35.899],[14.457,35.896],[14.458,35.893],[14.458,35.889],[14.452,35.89],[14.449,35.892],[14.446,35.895],[14.449,35.901]]]}},{"type":"Feature","properties":{"id":"MLT-5943","name":"Santa Venera"},"geometry":{"type":"Polygon","coordinates":[[[14.479,35.882],[14.474,35.883],[14.47,35.884],[14.472,35.888],[14.472,35.891],[14.474,35.892],[14.477,35.891],[14.482,35.89],[14.487,35.886],[14.481,35.884],[14.479,35.882]]]}},{"type":"Feature","properties":{"id":"MLT-5944","name":"Ħamrun"},"geometry":{"type":"Polygon","coordinates":[[[14.484,35.876],[14.479,35.882],[14.481,35.884],[14.487,35.886],[14.491,35.886],[14.496,35.888],[14.498,35.886],[14.497,35.884],[14.492,35.882],[14.49,35.876],[14.484,35.876]]]}},{"type":"Feature","properties":{"id":"MLT-5957","name":"Marsa"},"geometry":{"type":"Polygon","coordinates":[[[14.48,35.872],[14.501,35.88],[14.493,35.863],[14.48,35.872]]]}},{"type":"Feature","properties":{"id":"MLT-5964","name":"Luqa"},"geometry":{"type":"Polygon","coordinates":[[[14.47,35.86],[14.48,35.872],[14.493,35.863],[14.509,35.83],[14.457,35.847],[14.47,35.86]]]}},{"type":"Feature","properties":{"id":"MLT-5969","name":"Mqabba"},"geometry":{"type":"Polygon","coordinates":[[[14.451,35.839],[14.453,35.843],[14.454,35.846],[14.457,35.847],[14.461,35.845],[14.465,35.847],[14.469,35.849],[14.473,35.848],[14.478,35.846],[14.48,35.844],[14.478,35.842],[14.476,35.838],[14.473,35.838],[14.467,35.838],[14.461,35.837],[14.456,35.838],[14.451,35.839]]]}},{"type":"Feature","properties":{"id":"MLT-5970","name":"Kirkop"},"geometry":{"type":"Polygon","coordinates":[[[14.484,35.834],[14.481,35.837],[14.476,35.838],[14.478,35.842],[14.48,35.844],[14.478,35.846],[14.482,35.848],[14.484,35.847],[14.487,35.844],[14.489,35.843],[14.49,35.84],[14.484,35.834]]]}},{"type":"Feature","properties":{"id":"MLT-5971","name":"Safi"},"geometry":{"type":"Polygon","coordinates":[[[14.486,35.825],[14.49,35.84],[14.504,35.829],[14.486,35.825]]]}},{"type":"Feature","properties":{"id":"MLT-5967","name":"Għaxaq"},"geometry":{"type":"Polygon","coordinates":[[[14.525,35.84],[14.503,35.837],[14.511,35.857],[14.525,35.84]]]}},{"type":"Feature","properties":{"id":"MLT-5961","name":"Żejtun"},"geometry":{"type":"Polygon","coordinates":[[[14.545,35.843],[14.511,35.857],[14.543,35.861],[14.545,35.843]]]}},{"type":"Feature","properties":{"id":"MLT-5959","name":"Fgura"},"geometry":{"type":"Polygon","coordinates":[[[14.525,35.866],[14.522,35.865],[14.519,35.864],[14.518,35.861],[14.516,35.86],[14.515,35.863],[14.516,35.866],[14.513,35.868],[14.508,35.869],[14.514,35.874],[14.517,35.874],[14.523,35.874],[14.527,35.874],[14.529,35.874],[14.528,35.871],[14.526,35.869],[14.525,35.866]]]}},{"type":"Feature","properties":{"id":"MLT-5960","name":"Tarxien"},"geometry":{"type":"Polygon","coordinates":[[[14.516,35.86],[14.513,35.858],[14.511,35.857],[14.51,35.855],[14.503,35.856],[14.498,35.857],[14.495,35.858],[14.5,35.861],[14.503,35.863],[14.505,35.866],[14.508,35.869],[14.513,35.868],[14.516,35.866],[14.515,35.863],[14.516,35.86]]]}},{"type":"Feature","properties":{"id":"MLT-5965","name":"Santa Luċija"},"geometry":{"type":"Polygon","coordinates":[[[14.51,35.855],[14.51,35.852],[14.51,35.85],[14.503,35.85],[14.494,35.851],[14.495,35.854],[14.495,35.858],[14.498,35.857],[14.503,35.856],[14.51,35.855]]]}},{"type":"Feature","properties":{"id":"MLT-5966","name":"Gudja"},"geometry":{"type":"Polygon","coordinates":[[[14.51,35.85],[14.503,35.837],[14.494,35.851],[14.51,35.85]]]}},{"type":"Feature","properties":{"id":"MLT-5958","name":"Paola"},"geometry":{"type":"Polygon","coordinates":[[[14.508,35.869],[14.495,35.858],[14.508,35.885],[14.508,35.869]]]}},{"type":"Feature","properties":{"id":"MLT-5938","name":"Gżira"},"geometry":{"type":"Polygon","coordinates":[[[14.507,35.899],[14.502,35.895],[14.498,35.897],[14.489,35.897],[14.486,35.9],[14.489,35.905],[14.493,35.907],[14.497,35.904],[14.507,35.902],[14.507,35.899]]]}},{"type":"Feature","properties":{"id":"MLT-5954","name":"Floriana"},"geometry":{"type":"Polygon","coordinates":[[[14.498,35.893],[14.511,35.889],[14.501,35.88],[14.498,35.893]]]}},{"type":"Feature","properties":{"id":"MLT-5941","name":"Ta' Xbiex"},"geometry":{"type":"Polygon","coordinates":[[[14.502,35.895],[14.498,35.893],[14.493,35.892],[14.489,35.892],[14.489,35.897],[14.498,35.897],[14.502,35.895]]]}},{"type":"Feature","properties":{"id":"MLT-5953","name":"Isla"},"geometry":{"type":"Polygon","coordinates":[[[14.511,35.889],[14.515,35.891],[14.521,35.887],[14.514,35.88],[14.508,35.885],[14.511,35.889]]]}},{"type":"Feature","properties":{"id":"MLT-5955","name":"Cospicua"},"geometry":{"type":"Polygon","coordinates":[[[14.529,35.882],[14.527,35.878],[14.527,35.874],[14.523,35.874],[14.517,35.874],[14.514,35.874],[14.511,35.876],[14.514,35.88],[14.521,35.887],[14.529,35.882]]]}},{"type":"Feature","properties":{"id":"MLT-5942","name":"Pietà"},"geometry":{"type":"Polygon","coordinates":[[[14.498,35.893],[14.496,35.888],[14.491,35.886],[14.487,35.886],[14.489,35.889],[14.489,35.892],[14.493,35.892],[14.498,35.893]]]}},{"type":"Feature","properties":{"id":"MLT-5940","name":"Msida"},"geometry":{"type":"Polygon","coordinates":[[[14.487,35.886],[14.482,35.89],[14.477,35.891],[14.474,35.892],[14.477,35.894],[14.476,35.896],[14.472,35.899],[14.476,35.9],[14.486,35.9],[14.489,35.897],[14.489,35.892],[14.489,35.889],[14.487,35.886]]]}},{"type":"Feature","properties":{"id":"MLT-5951","name":"Birgu"},"geometry":{"type":"Polygon","coordinates":[[[14.521,35.887],[14.515,35.891],[14.519,35.894],[14.525,35.89],[14.529,35.889],[14.529,35.882],[14.521,35.887]]]}}]}