{"type":"FeatureCollection","countryId":"MSR","features":[{"type":"Feature","properties":{"id":"MSR-5089","name":"Saint Peter"},"geometry":{"type":"Polygon","coordinates":[[[-62.225,16.748],[-62.202,16.819],[-62.175,16.813],[-62.17,16.777],[-62.189,16.739],[-62.225,16.748]]]}},{"type":"Feature","properties":{"id":"MSR-5087","name":"Saint Anthony"},"geometry":{"type":"Polygon","coordinates":[[[-62.151,16.72],[-62.144,16.688],[-62.168,16.675],[-62.219,16.689],[-62.23,16.728],[-62.225,16.748],[-62.151,16.72]]]}},{"type":"Feature","properties":{"id":"MSR-5088","name":"Saint Georges"},"geometry":{"type":"Polygon","coordinates":[[[-62.17,16.777],[-62.147,16.744],[-62.151,16.72],[-62.189,16.739],[-62.17,16.777]]]}}]}