{"type":"FeatureCollection","countryId":"MUS","features":[{"type":"Feature","properties":{"id":"MUS-5192","name":"Rivière du Rempart"},"geometry":{"type":"Polygon","coordinates":[[[57.58,-20],[57.607,-19.979],[57.68,-20],[57.709,-20.09],[57.734,-20.096],[57.631,-20.156],[57.619,-20.107],[57.635,-20.089],[57.58,-20]]]}},{"type":"Feature","properties":{"id":"MUS-5187","name":"Pamplemousses"},"geometry":{"type":"Polygon","coordinates":[[[57.494,-20.122],[57.532,-20.025],[57.58,-20],[57.635,-20.089],[57.619,-20.107],[57.627,-20.165],[57.608,-20.185],[57.546,-20.202],[57.54,-20.122],[57.494,-20.122]]]}},{"type":"Feature","properties":{"id":"MUS-5190","name":"Port Louis city"},"geometry":{"type":"Polygon","coordinates":[[[57.464,-20.162],[57.494,-20.122],[57.519,-20.135],[57.502,-20.172],[57.464,-20.162]]]}},{"type":"Feature","properties":{"id":"MUS-5193","name":"Rivière Noire"},"geometry":{"type":"Polygon","coordinates":[[[57.399,-20.498],[57.378,-20.507],[57.303,-20.431],[57.358,-20.427],[57.377,-20.243],[57.41,-20.189],[57.464,-20.162],[57.456,-20.243],[57.473,-20.331],[57.448,-20.343],[57.46,-20.38],[57.45,-20.387],[57.488,-20.408],[57.487,-20.423],[57.475,-20.416],[57.391,-20.453],[57.399,-20.498]]]}},{"type":"Feature","properties":{"id":"MUS-5195","name":"Savanne"},"geometry":{"type":"Polygon","coordinates":[[[57.631,-20.492],[57.474,-20.515],[57.399,-20.498],[57.391,-20.453],[57.475,-20.416],[57.503,-20.425],[57.512,-20.396],[57.574,-20.401],[57.613,-20.425],[57.631,-20.492]]]}},{"type":"Feature","properties":{"id":"MUS-5185","name":"Grand Port"},"geometry":{"type":"Polygon","coordinates":[[[57.778,-20.305],[57.782,-20.336],[57.712,-20.387],[57.723,-20.434],[57.672,-20.48],[57.631,-20.492],[57.613,-20.425],[57.594,-20.406],[57.546,-20.402],[57.6,-20.343],[57.778,-20.305]]]}},{"type":"Feature","properties":{"id":"MUS-5184","name":"Flacq"},"geometry":{"type":"Polygon","coordinates":[[[57.734,-20.096],[57.748,-20.112],[57.744,-20.144],[57.796,-20.223],[57.789,-20.274],[57.778,-20.305],[57.668,-20.328],[57.679,-20.291],[57.63,-20.252],[57.662,-20.222],[57.607,-20.189],[57.609,-20.176],[57.734,-20.096]]]}},{"type":"Feature","properties":{"id":"MUS-5180","name":"Agaléga"},"geometry":{"type":"Polygon","coordinates":[[[56.524,-10.33],[56.536,-10.324],[56.569,-10.407],[56.524,-10.33]]]}},{"type":"Feature","properties":{"id":"MUS-5194","name":"Rodrigues"},"geometry":{"type":"Polygon","coordinates":[[[63.476,-19.678],[63.494,-19.682],[63.469,-19.723],[63.366,-19.767],[63.332,-19.736],[63.343,-19.71],[63.389,-19.685],[63.476,-19.678]]]}},{"type":"Feature","properties":{"id":"MUS-5186","name":"Moka"},"geometry":{"type":"Polygon","coordinates":[[[57.608,-20.185],[57.662,-20.222],[57.63,-20.252],[57.679,-20.291],[57.668,-20.328],[57.634,-20.345],[57.578,-20.329],[57.546,-20.265],[57.503,-20.242],[57.486,-20.191],[57.505,-20.184],[57.556,-20.205],[57.608,-20.185]]]}},{"type":"Feature","properties":{"id":"MUS-5188","name":"Plaines Wilhems"},"geometry":{"type":"Polygon","coordinates":[[[57.6,-20.343],[57.546,-20.402],[57.512,-20.396],[57.503,-20.425],[57.459,-20.398],[57.455,-20.337],[57.483,-20.322],[57.504,-20.347],[57.555,-20.326],[57.483,-20.219],[57.46,-20.219],[57.471,-20.189],[57.486,-20.191],[57.503,-20.242],[57.546,-20.265],[57.578,-20.329],[57.6,-20.343]]]}},{"type":"Feature","properties":{"id":"MUS-5181","name":"Beau Bassin-Rose Hill"},"geometry":{"type":"Polygon","coordinates":[[[57.457,-20.256],[57.46,-20.219],[57.483,-20.219],[57.495,-20.249],[57.457,-20.256]]]}},{"type":"Feature","properties":{"id":"MUS-5189","name":"Port Louis"},"geometry":{"type":"Polygon","coordinates":[[[57.471,-20.189],[57.465,-20.168],[57.502,-20.172],[57.522,-20.149],[57.499,-20.123],[57.54,-20.122],[57.546,-20.202],[57.505,-20.184],[57.471,-20.189]]]}},{"type":"Feature","properties":{"id":"MUS-5191","name":"Quatre Bornes"},"geometry":{"type":"Polygon","coordinates":[[[57.459,-20.291],[57.457,-20.256],[57.495,-20.249],[57.511,-20.277],[57.459,-20.291]]]}},{"type":"Feature","properties":{"id":"MUS-5196","name":"Vacoas-Phoenix"},"geometry":{"type":"Polygon","coordinates":[[[57.471,-20.329],[57.459,-20.291],[57.511,-20.277],[57.529,-20.297],[57.471,-20.329]]]}},{"type":"Feature","properties":{"id":"MUS-5183","name":"Curepipe"},"geometry":{"type":"Polygon","coordinates":[[[57.483,-20.322],[57.529,-20.297],[57.555,-20.326],[57.504,-20.347],[57.483,-20.322]]]}}]}