{"type":"FeatureCollection","countryId":"NRU","features":[{"type":"Feature","properties":{"id":"NRU-4978","name":"Anetan"},"geometry":{"type":"Polygon","coordinates":[[[166.931,-0.493],[166.939,-0.49],[166.939,-0.504],[166.931,-0.493]]]}},{"type":"Feature","properties":{"id":"NRU-4977","name":"Ewa"},"geometry":{"type":"Polygon","coordinates":[[[166.925,-0.496],[166.931,-0.493],[166.939,-0.504],[166.938,-0.511],[166.925,-0.496]]]}},{"type":"Feature","properties":{"id":"NRU-4976","name":"Baiti"},"geometry":{"type":"Polygon","coordinates":[[[166.918,-0.498],[166.925,-0.496],[166.938,-0.511],[166.938,-0.514],[166.937,-0.517],[166.918,-0.498]]]}},{"type":"Feature","properties":{"id":"NRU-4975","name":"Uaboe"},"geometry":{"type":"Polygon","coordinates":[[[166.913,-0.5],[166.918,-0.498],[166.937,-0.517],[166.937,-0.52],[166.913,-0.5]]]}},{"type":"Feature","properties":{"id":"NRU-4974","name":"Nibok"},"geometry":{"type":"Polygon","coordinates":[[[166.91,-0.512],[166.913,-0.5],[166.936,-0.525],[166.91,-0.512]]]}},{"type":"Feature","properties":{"id":"NRU-4973","name":"Denigomodu"},"geometry":{"type":"Polygon","coordinates":[[[166.907,-0.525],[166.91,-0.512],[166.92,-0.521],[166.907,-0.525]]]}},{"type":"Feature","properties":{"id":"NRU-4972","name":"Aiwo"},"geometry":{"type":"Polygon","coordinates":[[[166.912,-0.537],[166.907,-0.525],[166.917,-0.524],[166.916,-0.529],[166.918,-0.535],[166.912,-0.537]]]}},{"type":"Feature","properties":{"id":"NRU-4971","name":"Boe"},"geometry":{"type":"Polygon","coordinates":[[[166.916,-0.548],[166.912,-0.537],[166.918,-0.535],[166.92,-0.539],[166.918,-0.54],[166.916,-0.548]]]}},{"type":"Feature","properties":{"id":"NRU-4983","name":"Yaren"},"geometry":{"type":"Polygon","coordinates":[[[166.933,-0.551],[166.916,-0.548],[166.925,-0.534],[166.933,-0.551]]]}},{"type":"Feature","properties":{"id":"NRU-4982","name":"Meneng"},"geometry":{"type":"Polygon","coordinates":[[[166.953,-0.533],[166.939,-0.552],[166.925,-0.534],[166.953,-0.533]]]}},{"type":"Feature","properties":{"id":"NRU-4981","name":"Anibare"},"geometry":{"type":"Polygon","coordinates":[[[166.957,-0.511],[166.953,-0.533],[166.935,-0.53],[166.939,-0.504],[166.957,-0.511]]]}},{"type":"Feature","properties":{"id":"NRU-4980","name":"Ijuw"},"geometry":{"type":"Polygon","coordinates":[[[166.956,-0.498],[166.957,-0.511],[166.939,-0.504],[166.956,-0.498]]]}},{"type":"Feature","properties":{"id":"NRU-4979","name":"Anabar"},"geometry":{"type":"Polygon","coordinates":[[[166.939,-0.49],[166.956,-0.498],[166.939,-0.504],[166.939,-0.49]]]}},{"type":"Feature","properties":{"id":"NRU-4970","name":"Buada"},"geometry":{"type":"Polygon","coordinates":[[[166.936,-0.525],[166.92,-0.539],[166.92,-0.521],[166.936,-0.525]]]}}]}