{"type":"FeatureCollection","countryId":"PYF","features":[{"type":"Feature","properties":{"id":"PYF-4965","name":"Tuamotu-Gambier"},"geometry":{"type":"MultiPolygon","coordinates":[[[[-136.166,-22.024],[-136.186,-22.034],[-136.164,-22.014],[-136.166,-22.024]]],[[[-136.377,-21.468],[-136.413,-21.471],[-136.391,-21.456],[-136.377,-21.468]]],[[[-136.549,-21.337],[-136.532,-21.331],[-136.529,-21.35],[-136.543,-21.36],[-136.534,-21.349],[-136.549,-21.337]]],[[[-136.636,-21.342],[-136.647,-21.327],[-136.652,-21.323],[-136.644,-21.323],[-136.64,-21.326],[-136.638,-21.333],[-136.636,-21.342]]],[[[-136.734,-21.312],[-136.752,-21.309],[-136.739,-21.299],[-136.734,-21.312]]],[[[-140.414,-19.614],[-140.383,-19.625],[-140.387,-19.657],[-140.412,-19.664],[-140.387,-19.64],[-140.414,-19.614]]],[[[-139.202,-19.351],[-139.215,-19.335],[-139.196,-19.341],[-139.202,-19.351]]],[[[-138.797,-19.29],[-138.806,-19.289],[-138.809,-19.287],[-138.812,-19.284],[-138.802,-19.282],[-138.795,-19.282],[-138.792,-19.284],[-138.797,-19.29]]],[[[-141.266,-19.204],[-141.237,-19.194],[-141.23,-19.227],[-141.243,-19.202],[-141.266,-19.204]]],[[[-140.722,-19.134],[-140.696,-19.119],[-140.661,-19.152],[-140.686,-19.162],[-140.67,-19.143],[-140.681,-19.132],[-140.722,-19.134]]],[[[-138.802,-18.765],[-138.793,-18.779],[-138.83,-18.76],[-138.802,-18.765]]],[[[-143.092,-17.853],[-143.072,-17.84],[-143.06,-17.868],[-143.073,-17.844],[-143.092,-17.853]]],[[[-141.439,-17.368],[-141.482,-17.349],[-141.445,-17.352],[-141.435,-17.389],[-141.439,-17.368]]],[[[-138.442,-17.366],[-138.464,-17.357],[-138.426,-17.325],[-138.459,-17.357],[-138.442,-17.366]]],[[[-143.085,-17.005],[-143.101,-16.99],[-143.062,-17.009],[-143.085,-17.005]]],[[[-144.201,-16.648],[-144.198,-16.642],[-144.188,-16.646],[-144.177,-16.655],[-144.17,-16.667],[-144.178,-16.664],[-144.186,-16.659],[-144.201,-16.648]]],[[[-145.899,-15.888],[-145.951,-15.84],[-145.914,-15.864],[-145.899,-15.878],[-145.899,-15.888]]],[[[-140.889,-15.82],[-140.852,-15.816],[-140.88,-15.838],[-140.895,-15.833],[-140.889,-15.82]]],[[[-148.251,-15.867],[-148.279,-15.83],[-148.262,-15.802],[-148.23,-15.848],[-148.251,-15.867]]],[[[-146.487,-15.803],[-146.482,-15.827],[-146.503,-15.792],[-146.487,-15.803]]],[[[-144.65,-15.73],[-144.633,-15.728],[-144.62,-15.747],[-144.642,-15.755],[-144.65,-15.73]]],[[[-145.456,-15.48],[-145.433,-15.489],[-145.55,-15.452],[-145.456,-15.48]]],[[[-146.194,-15.359],[-146.203,-15.389],[-146.196,-15.348],[-146.217,-15.324],[-146.197,-15.336],[-146.194,-15.359]]],[[[-146.621,-15.24],[-146.639,-15.233],[-146.612,-15.244],[-146.598,-15.272],[-146.621,-15.24]]],[[[-147.256,-15.233],[-147.242,-15.232],[-147.239,-15.235],[-147.237,-15.244],[-147.242,-15.239],[-147.246,-15.237],[-147.251,-15.235],[-147.256,-15.233]]],[[[-147.779,-15.216],[-147.774,-15.213],[-147.763,-15.219],[-147.75,-15.229],[-147.737,-15.235],[-147.779,-15.216]]],[[[-147.459,-15.121],[-147.512,-15.08],[-147.531,-15.069],[-147.511,-15.078],[-147.493,-15.091],[-147.459,-15.121]]],[[[-147.932,-15.081],[-147.934,-15.077],[-147.937,-15.074],[-147.938,-15.071],[-147.937,-15.066],[-147.932,-15.081]]],[[[-145.922,-14.434],[-145.933,-14.438],[-145.944,-14.442],[-145.955,-14.444],[-145.966,-14.443],[-145.933,-14.438],[-145.922,-14.434]]],[[[-141.175,-14.19],[-141.18,-14.196],[-141.189,-14.19],[-141.213,-14.165],[-141.203,-14.17],[-141.175,-14.19]]],[[[-135.019,-23.118],[-134.943,-23.084],[-134.985,-23.139],[-135.019,-23.118]]],[[[-140.672,-21.659],[-140.653,-21.647],[-140.604,-21.707],[-140.631,-21.722],[-140.658,-21.713],[-140.676,-21.689],[-140.672,-21.659]]],[[[-140.679,-17.78],[-140.785,-17.859],[-140.837,-17.855],[-140.823,-17.807],[-140.782,-17.752],[-140.652,-17.684],[-140.625,-17.687],[-140.628,-17.728],[-140.679,-17.78]]],[[[-146.387,-16.108],[-146.359,-16.1],[-146.338,-16.113],[-146.339,-16.163],[-146.392,-16.147],[-146.402,-16.13],[-146.387,-16.108]]],[[[-138.85,-21.871],[-138.932,-21.871],[-138.912,-21.864],[-138.892,-21.866],[-138.871,-21.87],[-138.85,-21.871]]],[[[-135.458,-21.528],[-135.526,-21.487],[-135.485,-21.497],[-135.458,-21.528]]],[[[-138.535,-20.877],[-138.517,-20.849],[-138.545,-20.785],[-138.568,-20.788],[-138.549,-20.78],[-138.52,-20.815],[-138.513,-20.858],[-138.535,-20.877]]],[[[-136.314,-18.567],[-136.331,-18.533],[-136.449,-18.472],[-136.461,-18.469],[-136.464,-18.486],[-136.479,-18.472],[-136.426,-18.475],[-136.33,-18.528],[-136.305,-18.546],[-136.314,-18.567]]],[[[-140.672,-18.417],[-140.782,-18.335],[-140.687,-18.391],[-140.672,-18.417]]],[[[-136.971,-18.362],[-137.068,-18.266],[-137.01,-18.304],[-136.971,-18.362]]],[[[-140.823,-18.218],[-140.974,-18.06],[-140.925,-18.085],[-140.899,-18.129],[-140.83,-18.19],[-140.823,-18.218]]],[[[-142.577,-17.621],[-142.565,-17.602],[-142.64,-17.533],[-142.558,-17.599],[-142.577,-17.621]]],[[[-143.414,-17.457],[-143.475,-17.43],[-143.438,-17.433],[-143.414,-17.457]]],[[[-145.38,-17.485],[-145.435,-17.417],[-145.419,-17.427],[-145.406,-17.443],[-145.38,-17.485]]],[[[-145.578,-17.383],[-145.586,-17.37],[-145.591,-17.358],[-145.593,-17.343],[-145.593,-17.325],[-145.578,-17.383]]],[[[-143.386,-16.67],[-143.454,-16.625],[-143.551,-16.622],[-143.441,-16.621],[-143.386,-16.67]]],[[[-143.571,-16.636],[-143.62,-16.632],[-143.702,-16.58],[-143.571,-16.636]]],[[[-143.818,-16.54],[-143.849,-16.493],[-143.934,-16.45],[-143.862,-16.467],[-143.818,-16.54]]],[[[-144.256,-16.478],[-144.291,-16.416],[-144.26,-16.442],[-144.256,-16.478]]],[[[-144.373,-16.34],[-144.406,-16.329],[-144.426,-16.333],[-144.435,-16.32],[-144.428,-16.321],[-144.427,-16.322],[-144.428,-16.327],[-144.412,-16.321],[-144.396,-16.324],[-144.382,-16.332],[-144.373,-16.34]]],[[[-145.482,-16.348],[-145.553,-16.252],[-145.614,-16.08],[-145.559,-16.233],[-145.482,-16.348]]],[[[-145.614,-16.053],[-145.709,-16.06],[-145.631,-16.038],[-145.614,-16.053]]],[[[-142.53,-16.108],[-142.522,-16.084],[-142.51,-16.059],[-142.495,-16.036],[-142.481,-16.019],[-142.53,-16.108]]],[[[-140.11,-15.977],[-140.117,-15.962],[-140.143,-15.961],[-140.172,-15.977],[-140.125,-15.953],[-140.107,-15.961],[-140.11,-15.977]]],[[[-145.168,-15.95],[-145.236,-15.888],[-145.22,-15.898],[-145.168,-15.95]]],[[[-145.058,-15.902],[-145.13,-15.778],[-145.161,-15.758],[-145.118,-15.781],[-145.067,-15.856],[-145.058,-15.902]]],[[[-148.046,-14.998],[-148.084,-14.955],[-148.176,-14.922],[-148.089,-14.937],[-148.055,-14.96],[-148.046,-14.998]]],[[[-148.628,-14.895],[-148.691,-14.854],[-148.641,-14.865],[-148.623,-14.878],[-148.628,-14.895]]],[[[-145.195,-14.662],[-145.26,-14.702],[-145.23,-14.62],[-145.255,-14.693],[-145.195,-14.662]]],[[[-146.257,-14.497],[-146.239,-14.456],[-146.271,-14.435],[-146.243,-14.439],[-146.232,-14.457],[-146.257,-14.497]]],[[[-145.003,-14.511],[-144.888,-14.418],[-145.003,-14.443],[-144.88,-14.412],[-145.003,-14.511]]],[[[-145.847,-14.367],[-145.843,-14.347],[-145.914,-14.347],[-145.835,-14.343],[-145.847,-14.367]]],[[[-136.739,-21.317],[-136.74,-21.32],[-136.742,-21.32],[-136.747,-21.316],[-136.745,-21.316],[-136.741,-21.317],[-136.739,-21.317]]],[[[-139.135,-20.8],[-139.141,-20.803],[-139.145,-20.804],[-139.148,-20.805],[-139.136,-20.8],[-139.135,-20.8]]],[[[-144.107,-16.724],[-144.08,-16.717],[-144.051,-16.759],[-144.091,-16.722],[-144.111,-16.74],[-144.107,-16.724]]]]}},{"type":"Feature","properties":{"id":"PYF-4963","name":"Windward Islands"},"geometry":{"type":"MultiPolygon","coordinates":[[[[-150.655,-17.669],[-150.643,-17.655],[-150.645,-17.678],[-150.655,-17.669]]],[[[-149.584,-16.987],[-149.568,-16.982],[-149.587,-17],[-149.584,-16.987]]],[[[-149.183,-17.731],[-149.149,-17.802],[-149.156,-17.846],[-149.19,-17.869],[-149.276,-17.845],[-149.348,-17.718],[-149.372,-17.739],[-149.472,-17.761],[-149.576,-17.738],[-149.639,-17.619],[-149.633,-17.553],[-149.604,-17.526],[-149.519,-17.498],[-149.475,-17.494],[-149.388,-17.518],[-149.336,-17.564],[-149.327,-17.684],[-149.304,-17.712],[-149.183,-17.731]]],[[[-149.797,-17.464],[-149.786,-17.479],[-149.805,-17.523],[-149.843,-17.568],[-149.914,-17.535],[-149.944,-17.492],[-149.898,-17.472],[-149.886,-17.492],[-149.835,-17.485],[-149.797,-17.464]]]]}},{"type":"Feature","properties":{"id":"PYF-4964","name":"Leeward Islands"},"geometry":{"type":"MultiPolygon","coordinates":[[[[-153.934,-16.798],[-153.92,-16.832],[-153.951,-16.774],[-153.934,-16.798]]],[[[-152.245,-16.444],[-152.256,-16.451],[-152.264,-16.447],[-152.261,-16.442],[-152.245,-16.444]]],[[[-154.523,-15.819],[-154.537,-15.792],[-154.519,-15.796],[-154.523,-15.819]]],[[[-151.006,-16.769],[-150.994,-16.762],[-150.978,-16.788],[-150.984,-16.809],[-151.013,-16.821],[-151.04,-16.79],[-151.006,-16.769]]],[[[-151.479,-16.738],[-151.431,-16.748],[-151.352,-16.859],[-151.414,-16.889],[-151.429,-16.882],[-151.449,-16.903],[-151.478,-16.89],[-151.495,-16.765],[-151.479,-16.738]]],[[[-151.026,-16.708],[-151.01,-16.746],[-151.047,-16.766],[-151.052,-16.73],[-151.035,-16.694],[-151.026,-16.708]]],[[[-151.458,-16.629],[-151.463,-16.674],[-151.535,-16.642],[-151.536,-16.595],[-151.473,-16.58],[-151.479,-16.594],[-151.439,-16.609],[-151.458,-16.629]]],[[[-151.78,-16.478],[-151.754,-16.484],[-151.747,-16.526],[-151.777,-16.512],[-151.78,-16.478]]]]}},{"type":"Feature","properties":{"id":"PYF-4966","name":"Austral Islands"},"geometry":{"type":"MultiPolygon","coordinates":[[[[-147.724,-23.872],[-147.648,-23.852],[-147.669,-23.872],[-147.724,-23.872]]],[[[-149.482,-23.358],[-149.456,-23.365],[-149.463,-23.396],[-149.519,-23.395],[-149.527,-23.368],[-149.482,-23.358]]],[[[-151.387,-22.422],[-151.356,-22.457],[-151.372,-22.514],[-151.397,-22.442],[-151.387,-22.422]]],[[[-144.284,-27.579],[-144.304,-27.6],[-144.304,-27.632],[-144.338,-27.634],[-144.339,-27.559],[-144.318,-27.551],[-144.284,-27.579]]]]}},{"type":"Feature","properties":{"id":"PYF-4967","name":"Marquesas Islands"},"geometry":{"type":"MultiPolygon","coordinates":[[[[-138.699,-10.426],[-138.65,-10.431],[-138.62,-10.472],[-138.637,-10.542],[-138.686,-10.542],[-138.694,-10.508],[-138.68,-10.474],[-138.699,-10.426]]],[[[-139.082,-9.9],[-139.048,-9.923],[-139.131,-10.015],[-139.144,-9.94],[-139.104,-9.888],[-139.082,-9.9]]],[[[-138.837,-9.741],[-138.814,-9.74],[-138.892,-9.801],[-139.05,-9.803],[-139.071,-9.855],[-139.143,-9.829],[-139.173,-9.774],[-139.051,-9.701],[-139.015,-9.694],[-138.985,-9.699],[-138.943,-9.742],[-138.867,-9.755],[-138.837,-9.741]]],[[[-140.077,-9.323],[-140.054,-9.346],[-140.028,-9.344],[-140.063,-9.436],[-140.093,-9.448],[-140.159,-9.372],[-140.102,-9.326],[-140.077,-9.323]]],[[[-139.514,-8.884],[-139.508,-8.912],[-139.586,-8.929],[-139.617,-8.954],[-139.63,-8.895],[-139.597,-8.858],[-139.514,-8.884]]],[[[-140.049,-8.823],[-140.016,-8.859],[-140.019,-8.896],[-140.056,-8.879],[-140.077,-8.915],[-140.118,-8.906],[-140.17,-8.929],[-140.183,-8.954],[-140.228,-8.927],[-140.261,-8.823],[-140.248,-8.787],[-140.217,-8.781],[-140.09,-8.802],[-140.028,-8.789],[-140.049,-8.823]]],[[[-140.692,-8.015],[-140.708,-8.04],[-140.727,-8.028],[-140.728,-7.991],[-140.706,-7.963],[-140.673,-7.95],[-140.638,-7.96],[-140.684,-7.985],[-140.692,-8.015]]]]}}]}