{"type":"FeatureCollection","countryId":"SHN","features":[{"type":"Feature","properties":{"id":"SHN-4865","name":"Tristan da Cunha"},"geometry":{"type":"MultiPolygon","coordinates":[[[[-9.926,-40.349],[-9.895,-40.386],[-9.925,-40.398],[-10.039,-40.332],[-10.022,-40.307],[-9.963,-40.302],[-9.926,-40.349]]],[[[-12.307,-37.07],[-12.292,-37.056],[-12.245,-37.059],[-12.191,-37.091],[-12.277,-37.149],[-12.335,-37.104],[-12.307,-37.07]]]]}},{"type":"Feature","properties":{"id":"SHN-4864","name":"Saint Helena"},"geometry":{"type":"Polygon","coordinates":[[[-5.722,-15.909],[-5.667,-15.902],[-5.654,-15.964],[-5.702,-16.005],[-5.716,-15.991],[-5.764,-16.016],[-5.787,-15.984],[-5.77,-15.945],[-5.722,-15.909]]]}},{"type":"Feature","properties":{"id":"SHN-4863","name":"Ascension"},"geometry":{"type":"Polygon","coordinates":[[[-14.356,-7.885],[-14.295,-7.945],[-14.35,-7.975],[-14.406,-7.974],[-14.418,-7.939],[-14.391,-7.889],[-14.356,-7.885]]]}}]}