{"type":"FeatureCollection","countryId":"SMR","features":[{"type":"Feature","properties":{"id":"SMR-4886","name":"Serravalle"},"geometry":{"type":"Polygon","coordinates":[[[12.482,43.983],[12.491,43.965],[12.465,43.952],[12.427,43.969],[12.482,43.983]]]}},{"type":"Feature","properties":{"id":"SMR-4887","name":"Domagnano"},"geometry":{"type":"Polygon","coordinates":[[[12.491,43.965],[12.488,43.946],[12.445,43.94],[12.457,43.96],[12.491,43.965]]]}},{"type":"Feature","properties":{"id":"SMR-4888","name":"Faetano"},"geometry":{"type":"Polygon","coordinates":[[[12.492,43.949],[12.478,43.923],[12.457,43.933],[12.492,43.949]]]}},{"type":"Feature","properties":{"id":"SMR-4889","name":"Montegiardino"},"geometry":{"type":"Polygon","coordinates":[[[12.478,43.923],[12.477,43.92],[12.478,43.917],[12.464,43.9],[12.463,43.907],[12.464,43.913],[12.465,43.917],[12.467,43.92],[12.468,43.923],[12.472,43.924],[12.478,43.923]]]}},{"type":"Feature","properties":{"id":"SMR-4890","name":"Fiorentino"},"geometry":{"type":"Polygon","coordinates":[[[12.464,43.9],[12.441,43.893],[12.435,43.904],[12.465,43.924],[12.464,43.9]]]}},{"type":"Feature","properties":{"id":"SMR-4891","name":"Chiesanuova"},"geometry":{"type":"Polygon","coordinates":[[[12.441,43.893],[12.429,43.892],[12.421,43.895],[12.4,43.903],[12.39,43.918],[12.399,43.918],[12.409,43.917],[12.421,43.913],[12.422,43.91],[12.422,43.906],[12.426,43.904],[12.435,43.904],[12.439,43.9],[12.441,43.893]]]}},{"type":"Feature","properties":{"id":"SMR-4884","name":"San Marino"},"geometry":{"type":"Polygon","coordinates":[[[12.39,43.918],[12.418,43.941],[12.441,43.914],[12.426,43.904],[12.39,43.918]]]}},{"type":"Feature","properties":{"id":"SMR-4885","name":"Acquaviva"},"geometry":{"type":"Polygon","coordinates":[[[12.386,43.925],[12.396,43.948],[12.426,43.957],[12.414,43.931],[12.386,43.925]]]}},{"type":"Feature","properties":{"id":"SMR-4883","name":"Borgo Maggiore"},"geometry":{"type":"Polygon","coordinates":[[[12.417,43.964],[12.444,43.968],[12.445,43.94],[12.465,43.924],[12.441,43.914],[12.417,43.964]]]}}]}