{"type":"FeatureCollection","countryId":"SPM","features":[{"type":"Feature","properties":{"id":"SPM-4866","name":"Saint-Pierre"},"geometry":{"type":"Polygon","coordinates":[[[-56.151,46.794],[-56.165,46.773],[-56.145,46.766],[-56.168,46.757],[-56.24,46.766],[-56.192,46.807],[-56.148,46.808],[-56.151,46.794]]]}},{"type":"Feature","properties":{"id":"SPM-4867","name":"Miquelon-Langlade"},"geometry":{"type":"Polygon","coordinates":[[[-56.274,46.895],[-56.236,46.872],[-56.249,46.842],[-56.346,46.784],[-56.371,46.786],[-56.396,46.836],[-56.343,46.876],[-56.328,46.915],[-56.385,47.036],[-56.397,47.104],[-56.366,47.14],[-56.343,47.136],[-56.372,47.116],[-56.357,47.095],[-56.253,47.054],[-56.256,47.018],[-56.28,46.99],[-56.35,46.995],[-56.346,46.98],[-56.309,46.972],[-56.312,46.9],[-56.274,46.895]]]}}]}