{"type":"FeatureCollection","countryId":"SRB","features":[{"type":"Feature","properties":{"id":"SRB-274","name":"Severno-Backi"},"geometry":{"type":"Polygon","coordinates":[[[19.712,46.159],[19.79,46.129],[19.88,46.147],[19.852,46.12],[19.848,46.052],[19.802,46.002],[19.807,45.92],[19.765,45.902],[19.811,45.829],[19.835,45.828],[19.861,45.772],[19.75,45.741],[19.759,45.718],[19.739,45.639],[19.684,45.619],[19.587,45.66],[19.612,45.676],[19.558,45.712],[19.578,45.741],[19.529,45.765],[19.489,45.745],[19.438,45.771],[19.428,45.807],[19.351,45.865],[19.331,45.937],[19.347,45.961],[19.341,45.989],[19.298,46.022],[19.379,46.034],[19.454,46.078],[19.499,46.109],[19.488,46.134],[19.525,46.156],[19.648,46.174],[19.712,46.159]]]}},{"type":"Feature","properties":{"id":"SRB-273","name":"Zapadno-Backi"},"geometry":{"type":"Polygon","coordinates":[[[19.236,45.978],[19.263,45.981],[19.298,46.022],[19.34,45.991],[19.347,45.961],[19.331,45.937],[19.351,45.865],[19.428,45.807],[19.44,45.769],[19.489,45.745],[19.534,45.764],[19.578,45.741],[19.558,45.712],[19.612,45.676],[19.558,45.625],[19.561,45.585],[19.525,45.578],[19.504,45.544],[19.395,45.536],[19.399,45.508],[19.355,45.49],[19.364,45.438],[19.297,45.439],[19.265,45.459],[19.255,45.443],[19.193,45.434],[19.157,45.462],[19.116,45.457],[19.095,45.476],[19.019,45.491],[19.077,45.492],[19.106,45.512],[19.018,45.567],[18.96,45.539],[18.932,45.546],[18.904,45.573],[18.912,45.619],[18.968,45.669],[18.917,45.707],[18.9,45.765],[18.845,45.816],[18.855,45.857],[18.907,45.868],[18.873,45.895],[18.907,45.916],[18.901,45.931],[18.988,45.924],[18.982,45.951],[19.049,45.963],[19.065,46.012],[19.088,46.019],[19.148,45.984],[19.236,45.978]]]}},{"type":"Feature","properties":{"id":"SRB-275","name":"Severno-Banatski"},"geometry":{"type":"Polygon","coordinates":[[[19.929,46.164],[20.035,46.143],[20.098,46.155],[20.138,46.136],[20.17,46.146],[20.243,46.108],[20.306,46.054],[20.354,45.977],[20.482,45.913],[20.557,45.898],[20.637,45.827],[20.643,45.795],[20.631,45.786],[20.645,45.765],[20.623,45.743],[20.62,45.704],[20.555,45.706],[20.508,45.679],[20.498,45.654],[20.529,45.613],[20.432,45.615],[20.362,45.598],[20.324,45.614],[20.332,45.634],[20.355,45.64],[20.332,45.67],[20.348,45.68],[20.35,45.659],[20.402,45.675],[20.424,45.702],[20.385,45.718],[20.348,45.79],[20.165,45.792],[20.145,45.78],[20.162,45.743],[20.114,45.724],[20.071,45.752],[19.861,45.772],[19.835,45.828],[19.811,45.829],[19.765,45.902],[19.807,45.92],[19.799,45.989],[19.857,46.071],[19.852,46.12],[19.878,46.137],[19.874,46.153],[19.929,46.164]]]}},{"type":"Feature","properties":{"id":"SRB-841","name":"Pcinjski"},"geometry":{"type":"Polygon","coordinates":[[[22.345,42.313],[22.292,42.328],[22.269,42.37],[22.061,42.301],[21.929,42.335],[21.877,42.308],[21.817,42.305],[21.677,42.235],[21.564,42.246],[21.515,42.318],[21.516,42.342],[21.537,42.359],[21.617,42.387],[21.619,42.449],[21.718,42.551],[21.735,42.624],[21.773,42.648],[21.744,42.679],[21.785,42.704],[21.785,42.733],[21.821,42.771],[21.964,42.788],[21.993,42.818],[22.031,42.803],[22.097,42.821],[22.118,42.807],[22.111,42.792],[22.167,42.802],[22.227,42.757],[22.287,42.746],[22.43,42.817],[22.483,42.731],[22.442,42.682],[22.425,42.573],[22.525,42.508],[22.537,42.478],[22.509,42.405],[22.47,42.392],[22.424,42.326],[22.345,42.313]]]}},{"type":"Feature","properties":{"id":"SRB-125","name":"Borski"},"geometry":{"type":"Polygon","coordinates":[[[22.692,44.228],[22.649,44.214],[22.606,44.175],[22.605,44.079],[22.593,44.064],[22.534,44.057],[22.504,44.02],[22.466,44.018],[22.453,44.032],[22.449,44.058],[22.484,44.086],[22.469,44.109],[22.392,44.141],[22.276,44.138],[22.233,44.169],[22.191,44.115],[22.217,44.096],[22.239,44.016],[22.212,44.004],[22.167,43.942],[22.162,43.909],[22.122,43.876],[22.061,43.902],[22.033,43.952],[21.998,43.937],[21.95,43.949],[21.894,43.989],[21.772,43.992],[21.818,44.066],[21.961,44.11],[21.944,44.141],[21.958,44.155],[21.956,44.225],[21.914,44.209],[21.896,44.223],[21.889,44.285],[21.851,44.303],[21.816,44.298],[21.807,44.313],[21.813,44.327],[21.794,44.351],[21.82,44.394],[21.918,44.428],[21.93,44.514],[22.036,44.589],[22.104,44.51],[22.172,44.505],[22.305,44.677],[22.381,44.701],[22.426,44.734],[22.484,44.724],[22.587,44.649],[22.7,44.631],[22.765,44.583],[22.742,44.552],[22.7,44.542],[22.621,44.569],[22.58,44.565],[22.548,44.512],[22.491,44.504],[22.477,44.477],[22.505,44.435],[22.505,44.404],[22.549,44.349],[22.682,44.305],[22.692,44.228]]]}},{"type":"Feature","properties":{"id":"SRB-844","name":"Zajecarski"},"geometry":{"type":"Polygon","coordinates":[[[22.466,44.018],[22.4,43.993],[22.395,43.936],[22.349,43.808],[22.389,43.758],[22.386,43.725],[22.405,43.687],[22.473,43.636],[22.478,43.559],[22.519,43.474],[22.596,43.429],[22.638,43.426],[22.659,43.401],[22.581,43.345],[22.577,43.325],[22.525,43.335],[22.49,43.367],[22.445,43.345],[22.337,43.382],[22.351,43.428],[22.304,43.459],[22.271,43.438],[22.212,43.469],[22.166,43.461],[22.047,43.491],[22.026,43.533],[21.974,43.572],[21.953,43.57],[21.951,43.549],[21.986,43.522],[21.913,43.514],[21.863,43.571],[21.755,43.586],[21.69,43.665],[21.683,43.701],[21.7,43.718],[21.674,43.74],[21.704,43.756],[21.646,43.803],[21.69,43.848],[21.671,43.864],[21.673,43.885],[21.729,43.908],[21.724,43.925],[21.777,43.974],[21.772,43.992],[21.894,43.989],[21.95,43.949],[21.998,43.937],[22.033,43.952],[22.061,43.902],[22.122,43.876],[22.162,43.909],[22.167,43.942],[22.212,44.004],[22.239,44.016],[22.217,44.096],[22.191,44.115],[22.233,44.169],[22.276,44.138],[22.392,44.141],[22.469,44.109],[22.484,44.086],[22.449,44.058],[22.466,44.018]]]}},{"type":"Feature","properties":{"id":"SRB-121","name":"Pirotski"},"geometry":{"type":"Polygon","coordinates":[[[22.659,43.401],[22.733,43.382],[22.805,43.329],[22.827,43.281],[22.884,43.231],[22.981,43.199],[22.985,43.175],[22.956,43.108],[22.902,43.07],[22.884,43.037],[22.829,42.993],[22.776,42.98],[22.739,42.897],[22.666,42.872],[22.591,42.887],[22.545,42.872],[22.438,42.883],[22.359,42.93],[22.396,42.937],[22.39,42.956],[22.202,43.015],[22.258,43.055],[22.234,43.074],[22.239,43.087],[22.296,43.11],[22.269,43.149],[22.234,43.148],[22.114,43.203],[22.131,43.243],[22.167,43.268],[22.137,43.337],[22.311,43.321],[22.334,43.342],[22.337,43.382],[22.445,43.345],[22.49,43.367],[22.525,43.335],[22.577,43.325],[22.581,43.345],[22.659,43.401]]]}},{"type":"Feature","properties":{"id":"SRB-843","name":"Jablanicki"},"geometry":{"type":"Polygon","coordinates":[[[22.545,42.872],[22.506,42.87],[22.287,42.746],[22.227,42.757],[22.167,42.802],[22.111,42.792],[22.106,42.82],[22.031,42.803],[21.993,42.818],[21.964,42.788],[21.821,42.771],[21.785,42.733],[21.785,42.704],[21.744,42.679],[21.687,42.687],[21.629,42.672],[21.565,42.72],[21.379,42.744],[21.408,42.842],[21.475,42.934],[21.452,42.976],[21.538,43.022],[21.683,43.055],[21.794,43.107],[21.814,43.122],[21.806,43.138],[21.856,43.14],[21.905,43.163],[21.937,43.133],[21.985,43.152],[22.028,43.144],[22.155,43.059],[22.215,43.057],[22.234,43.074],[22.258,43.055],[22.204,43.013],[22.39,42.956],[22.396,42.937],[22.359,42.93],[22.438,42.883],[22.545,42.872]]]}},{"type":"Feature","properties":{"id":"SRB-834","name":"Raški"},"geometry":{"type":"Polygon","coordinates":[[[20.81,43.26],[20.77,43.261],[20.667,43.21],[20.604,43.198],[20.621,43.133],[20.669,43.11],[20.665,43.085],[20.596,43.007],[20.562,43.009],[20.53,42.975],[20.459,42.95],[20.451,42.922],[20.499,42.878],[20.476,42.856],[20.345,42.827],[20.354,42.891],[20.337,42.907],[20.195,42.967],[20.117,42.977],[20.054,43.022],[20.09,43.081],[20.142,43.097],[20.14,43.117],[20.169,43.141],[20.282,43.157],[20.201,43.218],[20.233,43.239],[20.267,43.299],[20.326,43.26],[20.337,43.285],[20.413,43.333],[20.421,43.351],[20.396,43.386],[20.402,43.454],[20.305,43.533],[20.366,43.576],[20.373,43.61],[20.358,43.631],[20.392,43.648],[20.462,43.648],[20.461,43.696],[20.437,43.709],[20.442,43.721],[20.526,43.745],[20.523,43.77],[20.563,43.799],[20.559,43.82],[20.621,43.859],[20.721,43.775],[20.77,43.789],[20.765,43.824],[20.861,43.84],[20.894,43.827],[20.923,43.758],[20.957,43.728],[20.916,43.727],[20.917,43.675],[20.878,43.644],[20.914,43.64],[20.951,43.613],[20.907,43.578],[20.945,43.506],[20.87,43.493],[20.831,43.516],[20.76,43.509],[20.782,43.46],[20.762,43.403],[20.794,43.381],[20.829,43.383],[20.838,43.332],[20.805,43.297],[20.81,43.26]]]}},{"type":"Feature","properties":{"id":"SRB-833","name":"Pomoravski"},"geometry":{"type":"Polygon","coordinates":[[[20.865,43.217],[20.81,43.26],[20.805,43.297],[20.838,43.332],[20.829,43.383],[20.794,43.381],[20.762,43.403],[20.782,43.46],[20.76,43.509],[20.831,43.516],[20.87,43.493],[20.945,43.506],[20.907,43.578],[20.951,43.613],[20.914,43.64],[20.878,43.644],[20.917,43.675],[20.916,43.727],[21.093,43.713],[21.148,43.687],[21.14,43.747],[21.178,43.738],[21.239,43.769],[21.242,43.821],[21.261,43.841],[21.278,43.829],[21.267,43.765],[21.374,43.771],[21.384,43.724],[21.466,43.749],[21.503,43.717],[21.507,43.694],[21.472,43.686],[21.482,43.634],[21.503,43.628],[21.478,43.594],[21.514,43.577],[21.566,43.519],[21.543,43.464],[21.567,43.424],[21.553,43.402],[21.46,43.366],[21.416,43.385],[21.34,43.387],[21.213,43.354],[21.15,43.267],[21.102,43.24],[21.066,43.237],[21.038,43.255],[20.966,43.25],[20.948,43.219],[20.956,43.176],[20.912,43.139],[20.832,43.179],[20.84,43.212],[20.865,43.217]]]}},{"type":"Feature","properties":{"id":"SRB-835","name":"Toplicki"},"geometry":{"type":"Polygon","coordinates":[[[20.993,43.104],[20.912,43.139],[20.956,43.176],[20.948,43.219],[20.966,43.25],[21.038,43.255],[21.066,43.237],[21.102,43.24],[21.15,43.267],[21.213,43.354],[21.34,43.387],[21.416,43.385],[21.49,43.347],[21.594,43.349],[21.578,43.312],[21.626,43.268],[21.615,43.239],[21.693,43.208],[21.708,43.256],[21.766,43.247],[21.78,43.22],[21.761,43.201],[21.804,43.159],[21.792,43.146],[21.815,43.126],[21.683,43.055],[21.538,43.022],[21.452,42.976],[21.475,42.934],[21.408,42.842],[21.261,42.887],[21.232,42.911],[21.21,42.996],[21.148,42.993],[21.109,43.082],[20.993,43.104]]]}},{"type":"Feature","properties":{"id":"SRB-1505","name":"Zlatiborski"},"geometry":{"type":"Polygon","coordinates":[[[19.548,43.219],[19.372,43.384],[19.218,43.438],[19.176,43.481],[19.175,43.51],[19.195,43.533],[19.217,43.533],[19.253,43.589],[19.301,43.588],[19.347,43.609],[19.411,43.541],[19.432,43.571],[19.49,43.564],[19.477,43.617],[19.507,43.647],[19.462,43.762],[19.359,43.842],[19.275,43.933],[19.229,43.958],[19.238,43.993],[19.287,44.013],[19.365,43.973],[19.552,43.983],[19.619,44.036],[19.599,44.063],[19.58,44.052],[19.516,44.091],[19.548,44.115],[19.607,44.121],[19.618,44.144],[19.74,44.106],[19.785,44.053],[19.811,44.06],[19.799,44.096],[19.774,44.112],[19.79,44.122],[19.831,44.105],[19.863,44.13],[19.894,44.128],[19.912,44.097],[19.954,44.078],[19.978,44.076],[20.01,44.104],[20.062,44.085],[20.071,44.065],[20.055,44.027],[20.075,44.008],[20.056,43.98],[20.103,43.938],[20.087,43.919],[20.099,43.901],[20.156,43.877],[20.11,43.872],[20.088,43.84],[20.13,43.792],[20.125,43.738],[20.165,43.721],[20.153,43.678],[20.175,43.656],[20.158,43.632],[20.082,43.645],[20.08,43.605],[20.038,43.604],[19.974,43.558],[19.95,43.554],[19.909,43.576],[19.911,43.549],[19.894,43.535],[19.918,43.51],[20.002,43.482],[20.018,43.432],[20.117,43.298],[20.241,43.318],[20.264,43.307],[20.233,43.239],[20.201,43.218],[20.282,43.157],[20.169,43.141],[20.14,43.117],[20.142,43.097],[20.09,43.081],[20.054,43.022],[19.95,43.086],[19.929,43.114],[19.872,43.09],[19.782,43.096],[19.714,43.166],[19.619,43.168],[19.548,43.219]]]}},{"type":"Feature","properties":{"id":"SRB-281","name":"Sremski"},"geometry":{"type":"Polygon","coordinates":[[[19.202,44.908],[19.187,44.928],[19.085,44.879],[19.016,44.866],[18.994,44.895],[18.991,44.915],[19.018,44.926],[19.067,44.906],[19.132,44.953],[19.119,44.976],[19.087,44.977],[19.095,45.021],[19.082,45.085],[19.045,45.137],[19.138,45.146],[19.122,45.196],[19.144,45.2],[19.205,45.163],[19.287,45.18],[19.304,45.167],[19.394,45.172],[19.429,45.146],[19.465,45.174],[19.6,45.138],[19.699,45.142],[19.773,45.167],[19.795,45.145],[19.954,45.148],[19.981,45.161],[19.972,45.172],[19.986,45.19],[20.065,45.175],[20.185,45.185],[20.289,45.132],[20.346,45.073],[20.357,45.034],[20.291,44.977],[20.325,44.929],[20.157,44.888],[20.122,44.797],[20.082,44.783],[20.11,44.758],[20.094,44.708],[19.94,44.632],[19.921,44.648],[19.931,44.659],[20.01,44.689],[19.914,44.695],[19.797,44.752],[19.745,44.752],[19.715,44.772],[19.701,44.808],[19.759,44.905],[19.749,44.918],[19.673,44.934],[19.645,44.913],[19.549,44.901],[19.499,44.917],[19.465,44.9],[19.406,44.942],[19.386,44.915],[19.325,44.922],[19.357,44.896],[19.31,44.912],[19.202,44.908]]]}},{"type":"Feature","properties":{"id":"SRB-838","name":"Macvanski"},"geometry":{"type":"Polygon","coordinates":[[[19.264,44.27],[19.157,44.294],[19.117,44.344],[19.107,44.383],[19.141,44.431],[19.13,44.518],[19.18,44.538],[19.188,44.576],[19.328,44.734],[19.377,44.863],[19.359,44.901],[19.325,44.922],[19.386,44.915],[19.414,44.942],[19.465,44.9],[19.499,44.917],[19.549,44.901],[19.645,44.913],[19.673,44.934],[19.749,44.918],[19.759,44.905],[19.701,44.808],[19.72,44.765],[19.797,44.752],[19.914,44.695],[20.01,44.689],[19.921,44.648],[19.94,44.632],[19.973,44.641],[19.961,44.594],[19.971,44.565],[19.929,44.551],[19.898,44.559],[19.855,44.535],[19.87,44.491],[19.856,44.473],[19.864,44.441],[19.828,44.432],[19.85,44.406],[19.833,44.388],[19.776,44.389],[19.76,44.414],[19.677,44.439],[19.602,44.422],[19.561,44.446],[19.485,44.434],[19.504,44.42],[19.494,44.39],[19.449,44.356],[19.479,44.347],[19.492,44.322],[19.46,44.308],[19.426,44.254],[19.559,44.208],[19.618,44.144],[19.607,44.121],[19.548,44.115],[19.516,44.091],[19.466,44.153],[19.443,44.143],[19.362,44.191],[19.324,44.264],[19.264,44.27]]]}},{"type":"Feature","properties":{"id":"SRB-1059","name":"Južno-Backi"},"geometry":{"type":"Polygon","coordinates":[[[19.002,45.444],[18.996,45.474],[19.01,45.499],[19.116,45.457],[19.16,45.461],[19.193,45.434],[19.255,45.443],[19.265,45.459],[19.297,45.439],[19.364,45.438],[19.355,45.49],[19.399,45.508],[19.395,45.536],[19.504,45.544],[19.525,45.578],[19.561,45.585],[19.556,45.621],[19.587,45.66],[19.684,45.619],[19.737,45.636],[19.757,45.7],[19.75,45.741],[19.767,45.749],[19.886,45.775],[20.071,45.752],[20.114,45.724],[20.092,45.717],[20.102,45.653],[20.063,45.603],[20.122,45.598],[20.103,45.538],[20.23,45.443],[20.202,45.395],[20.264,45.341],[20.236,45.306],[20.301,45.259],[20.317,45.196],[20.289,45.184],[20.278,45.141],[20.185,45.185],[20.065,45.175],[19.986,45.19],[19.978,45.158],[19.913,45.143],[19.795,45.145],[19.773,45.167],[19.699,45.142],[19.6,45.138],[19.465,45.174],[19.425,45.146],[19.394,45.172],[19.408,45.203],[19.397,45.223],[19.29,45.236],[19.158,45.276],[19.104,45.299],[19.083,45.339],[18.977,45.371],[18.976,45.391],[19.031,45.416],[19.002,45.444]]]}},{"type":"Feature","properties":{"id":"SRB-1061","name":"Srednje-Banatski"},"geometry":{"type":"Polygon","coordinates":[[[20.643,45.795],[20.7,45.735],[20.727,45.736],[20.765,45.767],[20.786,45.753],[20.777,45.658],[20.754,45.606],[20.8,45.531],[20.761,45.493],[20.767,45.479],[20.816,45.463],[21.014,45.313],[20.915,45.301],[20.817,45.258],[20.843,45.239],[20.739,45.186],[20.721,45.153],[20.639,45.204],[20.578,45.219],[20.54,45.188],[20.486,45.204],[20.443,45.151],[20.454,45.13],[20.395,45.065],[20.339,45.08],[20.278,45.141],[20.289,45.184],[20.319,45.209],[20.301,45.259],[20.236,45.306],[20.264,45.341],[20.202,45.395],[20.23,45.443],[20.103,45.538],[20.122,45.598],[20.063,45.603],[20.102,45.653],[20.092,45.717],[20.162,45.743],[20.145,45.78],[20.165,45.792],[20.348,45.79],[20.385,45.718],[20.424,45.7],[20.407,45.677],[20.363,45.662],[20.336,45.675],[20.331,45.662],[20.355,45.64],[20.332,45.634],[20.324,45.614],[20.362,45.598],[20.432,45.615],[20.516,45.61],[20.529,45.613],[20.498,45.654],[20.508,45.679],[20.555,45.706],[20.619,45.703],[20.643,45.795]]]}},{"type":"Feature","properties":{"id":"SRB-1060","name":"Južno-Banatski"},"geometry":{"type":"Polygon","coordinates":[[[21.017,45.321],[21.103,45.286],[21.139,45.304],[21.239,45.229],[21.406,45.2],[21.459,45.174],[21.493,45.145],[21.494,45.119],[21.45,45.101],[21.422,45.031],[21.363,45.017],[21.353,44.99],[21.384,44.987],[21.385,44.97],[21.408,44.958],[21.516,44.934],[21.539,44.908],[21.536,44.889],[21.369,44.865],[21.346,44.846],[21.343,44.832],[21.36,44.827],[21.222,44.797],[21.151,44.744],[20.99,44.717],[20.826,44.661],[20.764,44.668],[20.633,44.765],[20.636,44.849],[20.595,44.858],[20.6,44.889],[20.521,44.928],[20.494,44.968],[20.404,45.022],[20.395,45.065],[20.454,45.13],[20.443,45.151],[20.486,45.204],[20.54,45.188],[20.578,45.219],[20.639,45.204],[20.721,45.153],[20.739,45.186],[20.843,45.239],[20.817,45.258],[20.908,45.299],[21.007,45.306],[21.017,45.321]]]}},{"type":"Feature","properties":{"id":"SRB-279","name":"Branicevski"},"geometry":{"type":"Polygon","coordinates":[[[21.36,44.827],[21.412,44.785],[21.578,44.778],[21.62,44.714],[21.656,44.688],[21.757,44.677],[21.855,44.698],[22.004,44.652],[22.036,44.589],[21.93,44.514],[21.918,44.428],[21.821,44.395],[21.794,44.351],[21.816,44.298],[21.851,44.303],[21.892,44.282],[21.897,44.221],[21.918,44.209],[21.956,44.225],[21.951,44.099],[21.819,44.065],[21.736,44.09],[21.688,44.084],[21.654,44.11],[21.558,44.119],[21.488,44.182],[21.434,44.195],[21.363,44.18],[21.366,44.216],[21.293,44.276],[21.263,44.238],[21.19,44.279],[21.12,44.292],[21.12,44.313],[21.145,44.317],[21.111,44.377],[21.131,44.426],[21.175,44.436],[21.147,44.456],[21.155,44.477],[21.175,44.477],[21.155,44.484],[21.161,44.505],[21.12,44.525],[21.141,44.551],[21.134,44.58],[21.118,44.599],[21.085,44.601],[21.088,44.62],[21.066,44.644],[21.079,44.655],[21.051,44.675],[21.058,44.696],[21.037,44.722],[21.164,44.748],[21.189,44.778],[21.269,44.814],[21.36,44.827]]]}},{"type":"Feature","properties":{"id":"SRB-836","name":"Grad Beograd"},"geometry":{"type":"Polygon","coordinates":[[[19.973,44.641],[20.094,44.708],[20.11,44.758],[20.082,44.783],[20.122,44.797],[20.157,44.888],[20.325,44.929],[20.291,44.977],[20.357,45.034],[20.339,45.08],[20.36,45.082],[20.394,45.067],[20.404,45.022],[20.494,44.968],[20.513,44.934],[20.598,44.891],[20.595,44.858],[20.636,44.849],[20.633,44.765],[20.742,44.679],[20.795,44.665],[20.771,44.616],[20.807,44.565],[20.737,44.533],[20.839,44.433],[20.817,44.415],[20.758,44.418],[20.731,44.384],[20.755,44.352],[20.788,44.347],[20.766,44.327],[20.772,44.298],[20.691,44.335],[20.65,44.322],[20.607,44.374],[20.54,44.355],[20.538,44.386],[20.442,44.419],[20.397,44.391],[20.433,44.355],[20.389,44.294],[20.356,44.289],[20.318,44.252],[20.29,44.257],[20.269,44.242],[20.187,44.318],[20.203,44.34],[20.191,44.361],[20.227,44.413],[20.218,44.479],[20.198,44.492],[20.187,44.54],[20.128,44.495],[20.095,44.526],[20.045,44.507],[19.99,44.522],[19.966,44.547],[19.973,44.641]]]}},{"type":"Feature","properties":{"id":"SRB-831","name":"Podunavski"},"geometry":{"type":"Polygon","coordinates":[[[20.795,44.665],[20.883,44.673],[20.99,44.717],[21.037,44.722],[21.058,44.696],[21.051,44.675],[21.079,44.655],[21.066,44.644],[21.088,44.62],[21.085,44.601],[21.118,44.599],[21.14,44.564],[21.12,44.525],[21.161,44.505],[21.155,44.484],[21.175,44.477],[21.155,44.477],[21.147,44.456],[21.175,44.436],[21.131,44.426],[21.11,44.371],[21.145,44.317],[21.12,44.313],[21.12,44.292],[21.168,44.258],[21.147,44.244],[21.155,44.21],[21.134,44.21],[21.155,44.195],[21.139,44.183],[20.996,44.22],[20.977,44.232],[20.974,44.259],[20.907,44.242],[20.816,44.258],[20.822,44.289],[20.772,44.298],[20.766,44.327],[20.788,44.347],[20.755,44.352],[20.731,44.384],[20.758,44.418],[20.817,44.415],[20.839,44.433],[20.737,44.533],[20.807,44.565],[20.771,44.616],[20.795,44.665]]]}},{"type":"Feature","properties":{"id":"SRB-830","name":"Nišavski"},"geometry":{"type":"Polygon","coordinates":[[[21.493,43.347],[21.469,43.368],[21.567,43.418],[21.543,43.46],[21.567,43.516],[21.514,43.577],[21.481,43.586],[21.503,43.628],[21.482,43.634],[21.472,43.686],[21.509,43.699],[21.466,43.749],[21.547,43.79],[21.646,43.803],[21.704,43.756],[21.674,43.74],[21.7,43.718],[21.683,43.701],[21.688,43.67],[21.768,43.578],[21.863,43.571],[21.913,43.514],[21.986,43.522],[21.951,43.549],[21.953,43.57],[21.974,43.572],[22.026,43.533],[22.022,43.52],[22.052,43.489],[22.086,43.491],[22.166,43.461],[22.212,43.469],[22.271,43.438],[22.304,43.459],[22.352,43.424],[22.324,43.324],[22.137,43.337],[22.167,43.268],[22.131,43.243],[22.114,43.203],[22.234,43.148],[22.269,43.149],[22.296,43.11],[22.196,43.055],[22.155,43.059],[22.028,43.144],[21.992,43.152],[21.937,43.133],[21.905,43.163],[21.856,43.14],[21.799,43.139],[21.804,43.159],[21.761,43.201],[21.78,43.22],[21.766,43.247],[21.708,43.256],[21.693,43.208],[21.612,43.243],[21.626,43.268],[21.578,43.312],[21.594,43.349],[21.493,43.347]]]}},{"type":"Feature","properties":{"id":"SRB-832","name":"Pomoravski"},"geometry":{"type":"Polygon","coordinates":[[[20.957,43.728],[20.923,43.758],[20.908,43.807],[20.938,43.805],[21.015,43.855],[21.001,43.896],[21.044,43.906],[21.041,43.931],[21.063,43.945],[21.042,43.978],[21.096,44],[21.101,44.03],[21.054,44.047],[21.137,44.091],[21.123,44.121],[21.143,44.153],[21.139,44.186],[21.155,44.195],[21.134,44.21],[21.155,44.21],[21.147,44.244],[21.168,44.258],[21.134,44.287],[21.19,44.279],[21.263,44.238],[21.293,44.276],[21.366,44.216],[21.363,44.18],[21.434,44.195],[21.488,44.182],[21.558,44.119],[21.654,44.11],[21.68,44.086],[21.736,44.09],[21.818,44.066],[21.774,44.008],[21.775,43.971],[21.724,43.925],[21.723,43.902],[21.675,43.888],[21.669,43.869],[21.69,43.848],[21.633,43.797],[21.547,43.79],[21.456,43.741],[21.384,43.724],[21.374,43.771],[21.262,43.768],[21.278,43.829],[21.261,43.841],[21.242,43.821],[21.239,43.769],[21.178,43.738],[21.14,43.747],[21.148,43.687],[21.093,43.713],[20.957,43.728]]]}},{"type":"Feature","properties":{"id":"SRB-839","name":"Šumadijski"},"geometry":{"type":"Polygon","coordinates":[[[20.725,43.775],[20.69,43.788],[20.655,43.836],[20.526,43.947],[20.563,43.965],[20.595,44.011],[20.62,44.005],[20.637,44.02],[20.542,44.077],[20.512,44.138],[20.46,44.158],[20.415,44.285],[20.389,44.294],[20.433,44.355],[20.397,44.391],[20.442,44.419],[20.538,44.386],[20.54,44.355],[20.607,44.374],[20.65,44.322],[20.691,44.335],[20.816,44.292],[20.816,44.258],[20.907,44.242],[20.974,44.259],[20.977,44.232],[20.996,44.22],[21.139,44.183],[21.143,44.153],[21.123,44.121],[21.137,44.091],[21.054,44.047],[21.089,44.04],[21.103,44.021],[21.091,43.994],[21.042,43.978],[21.063,43.945],[21.041,43.931],[21.044,43.906],[21.001,43.896],[21.013,43.853],[20.938,43.805],[20.908,43.807],[20.861,43.84],[20.789,43.831],[20.759,43.82],[20.769,43.788],[20.725,43.775]]]}},{"type":"Feature","properties":{"id":"SRB-829","name":"Moravicki"},"geometry":{"type":"Polygon","coordinates":[[[20.621,43.859],[20.559,43.82],[20.563,43.799],[20.523,43.77],[20.526,43.745],[20.442,43.721],[20.437,43.709],[20.461,43.696],[20.462,43.648],[20.392,43.648],[20.358,43.631],[20.373,43.61],[20.366,43.576],[20.305,43.533],[20.402,43.454],[20.396,43.386],[20.421,43.351],[20.337,43.285],[20.326,43.26],[20.245,43.318],[20.117,43.298],[20.018,43.432],[20.002,43.482],[19.918,43.51],[19.894,43.535],[19.911,43.549],[19.909,43.576],[19.95,43.554],[19.974,43.558],[20.038,43.604],[20.08,43.605],[20.082,43.645],[20.158,43.632],[20.175,43.656],[20.153,43.678],[20.165,43.721],[20.125,43.738],[20.13,43.792],[20.088,43.84],[20.11,43.872],[20.156,43.877],[20.099,43.901],[20.087,43.919],[20.103,43.938],[20.056,43.98],[20.075,44.008],[20.055,44.027],[20.071,44.065],[20.062,44.085],[20.126,44.074],[20.125,44.095],[20.177,44.112],[20.287,44.121],[20.338,44.167],[20.371,44.175],[20.423,44.242],[20.46,44.158],[20.512,44.138],[20.542,44.077],[20.637,44.02],[20.62,44.005],[20.595,44.011],[20.563,43.965],[20.526,43.947],[20.621,43.859]]]}},{"type":"Feature","properties":{"id":"SRB-837","name":"Kolubarski"},"geometry":{"type":"Polygon","coordinates":[[[19.726,44.107],[19.614,44.145],[19.554,44.211],[19.426,44.254],[19.46,44.308],[19.492,44.322],[19.479,44.347],[19.449,44.36],[19.494,44.39],[19.504,44.42],[19.485,44.434],[19.561,44.446],[19.596,44.422],[19.677,44.439],[19.76,44.414],[19.776,44.389],[19.833,44.388],[19.85,44.406],[19.827,44.43],[19.863,44.438],[19.856,44.473],[19.87,44.484],[19.85,44.524],[19.898,44.559],[19.929,44.551],[19.971,44.565],[19.967,44.543],[19.99,44.522],[20.045,44.507],[20.095,44.526],[20.128,44.495],[20.185,44.542],[20.198,44.492],[20.218,44.479],[20.227,44.418],[20.191,44.361],[20.203,44.343],[20.192,44.308],[20.269,44.242],[20.29,44.257],[20.318,44.252],[20.356,44.289],[20.389,44.294],[20.415,44.285],[20.424,44.252],[20.371,44.175],[20.338,44.167],[20.287,44.121],[20.177,44.112],[20.125,44.095],[20.126,44.074],[20.01,44.104],[19.978,44.076],[19.954,44.078],[19.912,44.097],[19.908,44.121],[19.863,44.13],[19.831,44.105],[19.793,44.122],[19.774,44.115],[19.81,44.074],[19.809,44.056],[19.793,44.052],[19.726,44.107]]]}}]}