{"type":"FeatureCollection","countryId":"SSD","features":[{"type":"Feature","properties":{"id":"SSD-0","name":"S. Sudan"},"geometry":{"type":"Polygon","coordinates":[[[30.834,3.509],[29.954,4.174],[29.716,4.601],[29.159,4.389],[28.697,4.455],[28.429,4.287],[27.98,4.408],[27.374,5.234],[27.213,5.551],[26.466,5.947],[26.213,6.547],[25.797,6.979],[25.124,7.5],[25.115,7.825],[24.567,8.229],[23.887,8.62],[24.194,8.729],[24.537,8.918],[24.795,9.81],[25.07,10.274],[25.791,10.411],[25.962,10.136],[26.477,9.553],[26.752,9.467],[27.113,9.639],[27.834,9.604],[27.971,9.398],[28.967,9.398],[29.001,9.604],[29.516,9.793],[29.619,10.085],[29.997,10.291],[30.838,9.707],[31.353,9.81],[31.851,10.531],[32.4,11.081],[32.314,11.681],[32.074,11.973],[32.675,12.025],[32.743,12.248],[33.207,12.179],[33.087,11.441],[33.207,10.72],[33.722,10.325],[33.842,9.982],[33.825,9.484],[33.963,9.464],[33.975,8.685],[33.826,8.379],[33.295,8.355],[32.954,7.785],[33.568,7.713],[34.075,7.226],[34.25,6.826],[34.707,6.594],[35.298,5.506],[34.005,4.25],[33.39,3.79],[32.686,3.792],[31.881,3.558],[31.246,3.782],[30.834,3.509]]]}}]}