{"type":"FeatureCollection","countryId":"SVN","features":[{"type":"Feature","properties":{"id":"SVN-1033","name":"Piran"},"geometry":{"type":"Polygon","coordinates":[[[13.643,45.459],[13.59,45.489],[13.596,45.518],[13.569,45.539],[13.611,45.538],[13.647,45.488],[13.663,45.507],[13.691,45.498],[13.643,45.459]]]}},{"type":"Feature","properties":{"id":"SVN-1044","name":"Moravske Toplice"},"geometry":{"type":"Polygon","coordinates":[[[16.299,46.78],[16.314,46.743],[16.357,46.716],[16.356,46.685],[16.334,46.684],[16.314,46.645],[16.192,46.672],[16.176,46.719],[16.258,46.78],[16.299,46.78]]]}},{"type":"Feature","properties":{"id":"SVN-196","name":"Šalovci"},"geometry":{"type":"Polygon","coordinates":[[[16.311,46.798],[16.299,46.779],[16.258,46.78],[16.259,46.818],[16.179,46.858],[16.282,46.86],[16.311,46.798]]]}},{"type":"Feature","properties":{"id":"SVN-201","name":"Hodoš"},"geometry":{"type":"Polygon","coordinates":[[[16.297,46.847],[16.33,46.834],[16.311,46.798],[16.296,46.81],[16.297,46.847]]]}},{"type":"Feature","properties":{"id":"SVN-928","name":"Gornji Petrovci"},"geometry":{"type":"Polygon","coordinates":[[[16.135,46.856],[16.179,46.858],[16.245,46.828],[16.265,46.81],[16.258,46.78],[16.211,46.745],[16.193,46.762],[16.202,46.79],[16.125,46.833],[16.135,46.856]]]}},{"type":"Feature","properties":{"id":"SVN-197","name":"Kuzma"},"geometry":{"type":"Polygon","coordinates":[[[16.094,46.863],[16.13,46.857],[16.125,46.833],[16.056,46.816],[16.053,46.846],[16.094,46.863]]]}},{"type":"Feature","properties":{"id":"SVN-264","name":"Lendava"},"geometry":{"type":"Polygon","coordinates":[[[16.372,46.636],[16.501,46.545],[16.515,46.502],[16.329,46.549],[16.398,46.578],[16.348,46.615],[16.372,46.636]]]}},{"type":"Feature","properties":{"id":"SVN-271","name":"Dobrovnik"},"geometry":{"type":"Polygon","coordinates":[[[16.403,46.663],[16.348,46.615],[16.314,46.645],[16.341,46.689],[16.403,46.663]]]}},{"type":"Feature","properties":{"id":"SVN-1043","name":"Kobilje"},"geometry":{"type":"Polygon","coordinates":[[[16.366,46.696],[16.405,46.687],[16.411,46.668],[16.364,46.675],[16.366,46.696]]]}},{"type":"Feature","properties":{"id":"SVN-1014","name":"Kranjska Gora"},"geometry":{"type":"Polygon","coordinates":[[[13.686,46.464],[13.701,46.52],[13.891,46.512],[14.015,46.483],[13.992,46.445],[13.848,46.381],[13.751,46.438],[13.692,46.429],[13.686,46.464]]]}},{"type":"Feature","properties":{"id":"SVN-1023","name":"Bovec"},"geometry":{"type":"Polygon","coordinates":[[[13.659,46.445],[13.686,46.464],[13.692,46.429],[13.767,46.433],[13.842,46.382],[13.764,46.345],[13.727,46.302],[13.55,46.302],[13.515,46.277],[13.396,46.307],[13.434,46.354],[13.53,46.388],[13.6,46.443],[13.659,46.445]]]}},{"type":"Feature","properties":{"id":"SVN-1029","name":"Kobarid"},"geometry":{"type":"Polygon","coordinates":[[[13.41,46.208],[13.365,46.29],[13.396,46.307],[13.515,46.277],[13.55,46.302],[13.727,46.302],[13.737,46.286],[13.709,46.277],[13.685,46.234],[13.629,46.224],[13.628,46.182],[13.559,46.184],[13.51,46.214],[13.423,46.229],[13.437,46.211],[13.41,46.208]]]}},{"type":"Feature","properties":{"id":"SVN-1018","name":"Tolmin"},"geometry":{"type":"Polygon","coordinates":[[[13.641,46.171],[13.624,46.219],[13.685,46.234],[13.727,46.286],[13.866,46.232],[13.997,46.239],[14.005,46.227],[13.989,46.195],[13.89,46.148],[13.908,46.076],[13.861,46.059],[13.875,46.043],[13.866,46.007],[13.82,46.036],[13.8,46.104],[13.769,46.102],[13.697,46.136],[13.667,46.175],[13.641,46.171]]]}},{"type":"Feature","properties":{"id":"SVN-1028","name":"Kanal"},"geometry":{"type":"Polygon","coordinates":[[[13.523,46.075],[13.616,46.125],[13.641,46.171],[13.667,46.175],[13.697,46.136],[13.769,46.102],[13.74,46.058],[13.681,46.067],[13.655,46.055],[13.625,46.027],[13.637,46.001],[13.523,46.075]]]}},{"type":"Feature","properties":{"id":"SVN-1024","name":"Brda"},"geometry":{"type":"Polygon","coordinates":[[[13.462,46.006],[13.49,46.026],[13.482,46.045],[13.523,46.075],[13.626,45.997],[13.509,45.967],[13.462,46.006]]]}},{"type":"Feature","properties":{"id":"SVN-260","name":"Nova Goriška"},"geometry":{"type":"Polygon","coordinates":[[[13.615,45.946],[13.623,45.966],[13.601,45.985],[13.626,45.997],[13.604,46.013],[13.641,46.002],[13.625,46.027],[13.655,46.055],[13.681,46.067],[13.74,46.058],[13.781,46.109],[13.8,46.104],[13.82,46.036],[13.866,46.007],[13.733,45.906],[13.834,45.835],[13.629,45.879],[13.621,45.889],[13.687,45.922],[13.615,45.946]]]}},{"type":"Feature","properties":{"id":"SVN-261","name":"Šempeter-Vrtojba"},"geometry":{"type":"Polygon","coordinates":[[[13.599,45.912],[13.615,45.946],[13.687,45.922],[13.647,45.897],[13.599,45.912]]]}},{"type":"Feature","properties":{"id":"SVN-1032","name":"Miren-Kostanjevica"},"geometry":{"type":"Polygon","coordinates":[[[13.574,45.819],[13.569,45.865],[13.599,45.912],[13.647,45.897],[13.621,45.889],[13.639,45.874],[13.709,45.865],[13.706,45.846],[13.67,45.823],[13.574,45.819]]]}},{"type":"Feature","properties":{"id":"SVN-1030","name":"Komen"},"geometry":{"type":"Polygon","coordinates":[[[13.589,45.806],[13.574,45.819],[13.67,45.823],[13.706,45.846],[13.709,45.865],[13.762,45.844],[13.886,45.829],[13.903,45.81],[13.726,45.79],[13.7,45.771],[13.589,45.806]]]}},{"type":"Feature","properties":{"id":"SVN-1034","name":"Sežana"},"geometry":{"type":"Polygon","coordinates":[[[13.894,45.634],[13.858,45.649],[13.779,45.743],[13.709,45.765],[13.706,45.78],[13.903,45.81],[13.984,45.773],[13.957,45.74],[13.968,45.705],[13.936,45.67],[13.938,45.643],[13.894,45.634]]]}},{"type":"Feature","properties":{"id":"SVN-1026","name":"Hrpelje-Kozina"},"geometry":{"type":"Polygon","coordinates":[[[13.868,45.602],[13.909,45.644],[14.04,45.602],[14.09,45.614],[14.105,45.605],[14.09,45.57],[14.106,45.566],[14.087,45.518],[14.112,45.501],[14.117,45.473],[13.987,45.512],[13.952,45.546],[13.895,45.56],[13.868,45.602]]]}},{"type":"Feature","properties":{"id":"SVN-1031","name":"Koper"},"geometry":{"type":"Polygon","coordinates":[[[13.801,45.581],[13.848,45.585],[13.868,45.602],[13.895,45.56],[13.952,45.546],[13.984,45.52],[13.961,45.504],[13.983,45.475],[13.889,45.424],[13.82,45.433],[13.759,45.463],[13.66,45.46],[13.693,45.495],[13.663,45.507],[13.675,45.545],[13.753,45.553],[13.712,45.593],[13.801,45.581]]]}},{"type":"Feature","properties":{"id":"SVN-931","name":"Rogašovci"},"geometry":{"type":"Polygon","coordinates":[[[16.028,46.837],[16.053,46.846],[16.056,46.756],[15.971,46.775],[15.972,46.821],[16.028,46.837]]]}},{"type":"Feature","properties":{"id":"SVN-926","name":"Cankova"},"geometry":{"type":"Polygon","coordinates":[[[16.017,46.671],[16.015,46.694],[15.971,46.743],[15.971,46.775],[16.056,46.756],[16.059,46.709],[16.108,46.69],[16.123,46.644],[16.11,46.624],[16.017,46.671]]]}},{"type":"Feature","properties":{"id":"SVN-927","name":"Gornja Radgona"},"geometry":{"type":"Polygon","coordinates":[[[15.968,46.695],[16.042,46.663],[16.008,46.633],[16.014,46.594],[15.933,46.596],[15.913,46.624],[15.931,46.638],[15.888,46.646],[15.889,46.663],[15.932,46.665],[15.968,46.695]]]}},{"type":"Feature","properties":{"id":"SVN-5884","name":"Apace"},"geometry":{"type":"Polygon","coordinates":[[[15.851,46.724],[15.968,46.695],[15.932,46.665],[15.889,46.663],[15.785,46.712],[15.851,46.724]]]}},{"type":"Feature","properties":{"id":"SVN-986","name":"Šentilj"},"geometry":{"type":"Polygon","coordinates":[[[15.729,46.703],[15.785,46.712],[15.804,46.7],[15.8,46.647],[15.771,46.634],[15.731,46.673],[15.694,46.677],[15.678,46.649],[15.646,46.643],[15.622,46.667],[15.636,46.718],[15.729,46.703]]]}},{"type":"Feature","properties":{"id":"SVN-959","name":"Kungota"},"geometry":{"type":"Polygon","coordinates":[[[15.604,46.673],[15.622,46.678],[15.664,46.604],[15.647,46.594],[15.598,46.628],[15.52,46.648],[15.546,46.672],[15.604,46.673]]]}},{"type":"Feature","properties":{"id":"SVN-256","name":"Maribor"},"geometry":{"type":"Polygon","coordinates":[[[15.514,46.633],[15.52,46.648],[15.598,46.628],[15.647,46.594],[15.769,46.559],[15.723,46.527],[15.732,46.505],[15.564,46.51],[15.55,46.518],[15.56,46.562],[15.514,46.633]]]}},{"type":"Feature","properties":{"id":"SVN-234","name":"Selnica ob Dravi"},"geometry":{"type":"Polygon","coordinates":[[[15.463,46.615],[15.514,46.633],[15.56,46.562],[15.483,46.534],[15.458,46.539],[15.462,46.568],[15.435,46.592],[15.435,46.627],[15.463,46.615]]]}},{"type":"Feature","properties":{"id":"SVN-981","name":"Radlje ob Dravi"},"geometry":{"type":"Polygon","coordinates":[[[15.173,46.641],[15.333,46.635],[15.329,46.619],[15.199,46.529],[15.176,46.547],[15.212,46.602],[15.173,46.641]]]}},{"type":"Feature","properties":{"id":"SVN-974","name":"Muta"},"geometry":{"type":"Polygon","coordinates":[[[15.106,46.646],[15.173,46.641],[15.183,46.619],[15.126,46.601],[15.089,46.634],[15.086,46.648],[15.106,46.646]]]}},{"type":"Feature","properties":{"id":"SVN-947","name":"Dravograd"},"geometry":{"type":"Polygon","coordinates":[[[15.062,46.65],[15.086,46.648],[15.126,46.601],[15.064,46.542],[15.025,46.538],[15.007,46.569],[14.92,46.614],[14.948,46.619],[14.967,46.6],[15.004,46.637],[15.062,46.65]]]}},{"type":"Feature","properties":{"id":"SVN-214","name":"Podvelka"},"geometry":{"type":"Polygon","coordinates":[[[15.388,46.646],[15.435,46.627],[15.443,46.585],[15.426,46.575],[15.371,46.587],[15.323,46.511],[15.318,46.541],[15.27,46.573],[15.284,46.599],[15.329,46.619],[15.333,46.644],[15.388,46.646]]]}},{"type":"Feature","properties":{"id":"SVN-217","name":"Ravne na Koroškem"},"geometry":{"type":"Polygon","coordinates":[[[14.894,46.605],[14.92,46.615],[15.007,46.569],[14.992,46.499],[14.943,46.491],[14.924,46.505],[14.948,46.521],[14.947,46.557],[14.894,46.605]]]}},{"type":"Feature","properties":{"id":"SVN-233","name":"Prevalje"},"geometry":{"type":"Polygon","coordinates":[[[14.877,46.604],[14.945,46.563],[14.948,46.521],[14.924,46.505],[14.9,46.504],[14.903,46.517],[14.863,46.552],[14.815,46.551],[14.85,46.601],[14.877,46.604]]]}},{"type":"Feature","properties":{"id":"SVN-970","name":"Mežica"},"geometry":{"type":"Polygon","coordinates":[[[14.797,46.519],[14.815,46.551],[14.857,46.553],[14.903,46.517],[14.886,46.496],[14.797,46.519]]]}},{"type":"Feature","properties":{"id":"SVN-944","name":"Črna na Koroškem"},"geometry":{"type":"Polygon","coordinates":[[[14.735,46.493],[14.797,46.519],[14.966,46.489],[14.942,46.44],[14.892,46.424],[14.776,46.432],[14.755,46.421],[14.722,46.448],[14.673,46.46],[14.71,46.493],[14.735,46.493]]]}},{"type":"Feature","properties":{"id":"SVN-1019","name":"Tržič"},"geometry":{"type":"Polygon","coordinates":[[[14.242,46.438],[14.396,46.441],[14.437,46.419],[14.405,46.352],[14.36,46.351],[14.326,46.321],[14.301,46.319],[14.267,46.326],[14.25,46.348],[14.242,46.438]]]}},{"type":"Feature","properties":{"id":"SVN-259","name":"Žirovnica"},"geometry":{"type":"Polygon","coordinates":[[[14.148,46.44],[14.242,46.437],[14.191,46.387],[14.137,46.372],[14.121,46.393],[14.148,46.44]]]}},{"type":"Feature","properties":{"id":"SVN-258","name":"Jesenice"},"geometry":{"type":"Polygon","coordinates":[[[14.032,46.485],[14.148,46.44],[14.128,46.407],[14.102,46.404],[13.992,46.445],[14.015,46.483],[14.032,46.485]]]}},{"type":"Feature","properties":{"id":"SVN-251","name":"Solcava"},"geometry":{"type":"Polygon","coordinates":[[[14.667,46.461],[14.734,46.442],[14.755,46.421],[14.743,46.393],[14.669,46.365],[14.569,46.369],[14.575,46.42],[14.667,46.461]]]}},{"type":"Feature","properties":{"id":"SVN-237","name":"Jezersko"},"geometry":{"type":"Polygon","coordinates":[[[14.54,46.379],[14.562,46.392],[14.569,46.369],[14.45,46.367],[14.405,46.352],[14.437,46.419],[14.502,46.418],[14.54,46.379]]]}},{"type":"Feature","properties":{"id":"SVN-263","name":"Črenšovci"},"geometry":{"type":"Polygon","coordinates":[[[16.34,46.544],[16.311,46.531],[16.248,46.554],[16.301,46.597],[16.335,46.578],[16.329,46.549],[16.34,46.544]]]}},{"type":"Feature","properties":{"id":"SVN-265","name":"Ljutomer"},"geometry":{"type":"Polygon","coordinates":[[[16.311,46.531],[16.278,46.534],[16.207,46.473],[16.171,46.496],[16.137,46.489],[16.02,46.511],[16.046,46.545],[16.166,46.528],[16.177,46.56],[16.217,46.584],[16.254,46.547],[16.311,46.531]]]}},{"type":"Feature","properties":{"id":"SVN-269","name":"Razkrižje"},"geometry":{"type":"Polygon","coordinates":[[[16.302,46.527],[16.261,46.514],[16.278,46.534],[16.302,46.527]]]}},{"type":"Feature","properties":{"id":"SVN-1047","name":"Ormož"},"geometry":{"type":"Polygon","coordinates":[[[16.234,46.485],[16.251,46.405],[16.28,46.376],[16.209,46.367],[16.144,46.395],[16.094,46.372],[16.051,46.425],[16.026,46.432],[16.04,46.469],[16.014,46.508],[16.171,46.496],[16.202,46.473],[16.234,46.485]]]}},{"type":"Feature","properties":{"id":"SVN-1050","name":"Zavrc"},"geometry":{"type":"Polygon","coordinates":[[[16.089,46.373],[16.058,46.378],[16.05,46.317],[16.031,46.358],[16.041,46.38],[16.089,46.373]]]}},{"type":"Feature","properties":{"id":"SVN-1041","name":"Gorišnica"},"geometry":{"type":"Polygon","coordinates":[[[16.05,46.317],[15.989,46.295],[15.967,46.349],[15.998,46.373],[15.983,46.417],[15.995,46.429],[16.051,46.425],[16.076,46.384],[16.055,46.388],[16.032,46.364],[16.05,46.317]]]}},{"type":"Feature","properties":{"id":"SVN-222","name":"Videm"},"geometry":{"type":"Polygon","coordinates":[[[15.994,46.291],[15.919,46.273],[15.906,46.341],[15.837,46.345],[15.825,46.308],[15.801,46.321],[15.813,46.339],[15.802,46.355],[15.819,46.359],[15.831,46.395],[15.85,46.382],[15.896,46.397],[15.928,46.387],[15.969,46.362],[15.994,46.291]]]}},{"type":"Feature","properties":{"id":"SVN-232","name":"Podlehnik"},"geometry":{"type":"Polygon","coordinates":[[[15.919,46.273],[15.881,46.259],[15.825,46.308],[15.828,46.334],[15.865,46.352],[15.906,46.341],[15.919,46.273]]]}},{"type":"Feature","properties":{"id":"SVN-231","name":"Žetale"},"geometry":{"type":"Polygon","coordinates":[[[15.881,46.259],[15.799,46.249],[15.758,46.262],[15.762,46.286],[15.801,46.321],[15.881,46.259]]]}},{"type":"Feature","properties":{"id":"SVN-983","name":"Rogatec"},"geometry":{"type":"Polygon","coordinates":[[[15.8,46.249],[15.75,46.211],[15.678,46.214],[15.708,46.252],[15.741,46.266],[15.8,46.249]]]}},{"type":"Feature","properties":{"id":"SVN-982","name":"Rogaška Slatina"},"geometry":{"type":"Polygon","coordinates":[[[15.678,46.214],[15.627,46.195],[15.566,46.274],[15.609,46.284],[15.741,46.266],[15.708,46.252],[15.678,46.214]]]}},{"type":"Feature","properties":{"id":"SVN-213","name":"Bistrica ob Sotli"},"geometry":{"type":"Polygon","coordinates":[[[15.627,46.195],[15.59,46.139],[15.59,46.114],[15.624,46.076],[15.608,46.066],[15.585,46.109],[15.536,46.13],[15.545,46.155],[15.613,46.204],[15.627,46.195]]]}},{"type":"Feature","properties":{"id":"SVN-255","name":"Podcetrtek"},"geometry":{"type":"Polygon","coordinates":[[[15.624,46.076],[15.693,46.042],[15.668,46.026],[15.631,46.034],[15.608,46.066],[15.624,46.076]]]}},{"type":"Feature","properties":{"id":"SVN-938","name":"Brežice"},"geometry":{"type":"Polygon","coordinates":[[[15.693,46.042],[15.659,45.889],[15.676,45.842],[15.626,45.82],[15.55,45.824],[15.513,45.867],[15.515,45.894],[15.567,45.92],[15.584,45.994],[15.693,46.042]]]}},{"type":"Feature","properties":{"id":"SVN-958","name":"Krško"},"geometry":{"type":"Polygon","coordinates":[[[15.55,45.824],[15.44,45.811],[15.429,45.776],[15.401,45.81],[15.388,45.877],[15.351,45.892],[15.372,45.951],[15.429,46.001],[15.418,46.063],[15.525,46.059],[15.548,46.044],[15.565,46],[15.584,45.994],[15.567,45.92],[15.51,45.882],[15.55,45.824]]]}},{"type":"Feature","properties":{"id":"SVN-987","name":"Šentjernej"},"geometry":{"type":"Polygon","coordinates":[[[15.43,45.776],[15.331,45.752],[15.271,45.842],[15.329,45.875],[15.388,45.877],[15.401,45.81],[15.43,45.776]]]}},{"type":"Feature","properties":{"id":"SVN-212","name":"Novo Mesto"},"geometry":{"type":"Polygon","coordinates":[[[15.331,45.752],[15.191,45.684],[15.103,45.684],[15.124,45.707],[15.058,45.781],[15.113,45.82],[15.145,45.873],[15.218,45.88],[15.239,45.924],[15.306,45.881],[15.271,45.842],[15.331,45.752]]]}},{"type":"Feature","properties":{"id":"SVN-969","name":"Metlika"},"geometry":{"type":"Polygon","coordinates":[[[15.25,45.714],[15.292,45.676],[15.331,45.685],[15.374,45.64],[15.297,45.626],[15.269,45.602],[15.282,45.571],[15.253,45.597],[15.224,45.6],[15.284,45.643],[15.228,45.703],[15.25,45.714]]]}},{"type":"Feature","properties":{"id":"SVN-945","name":"Crnomelj"},"geometry":{"type":"Polygon","coordinates":[[[15.282,45.571],[15.311,45.506],[15.361,45.482],[15.325,45.453],[15.184,45.426],[15.139,45.43],[15.066,45.474],[15.121,45.512],[15.073,45.517],[15.073,45.534],[15.101,45.546],[15.074,45.602],[15.133,45.596],[15.174,45.617],[15.207,45.615],[15.282,45.571]]]}},{"type":"Feature","properties":{"id":"SVN-207","name":"Kocevje"},"geometry":{"type":"Polygon","coordinates":[[[15.066,45.474],[14.977,45.492],[14.938,45.526],[14.858,45.53],[14.839,45.504],[14.817,45.501],[14.739,45.554],[14.711,45.628],[14.732,45.647],[14.778,45.649],[14.822,45.728],[14.796,45.743],[14.814,45.758],[14.877,45.744],[14.939,45.772],[14.982,45.766],[14.972,45.712],[15.074,45.602],[15.101,45.551],[15.073,45.534],[15.073,45.517],[15.121,45.516],[15.066,45.474]]]}},{"type":"Feature","properties":{"id":"SVN-245","name":"Kostel"},"geometry":{"type":"Polygon","coordinates":[[[14.977,45.492],[14.904,45.514],[14.882,45.47],[14.797,45.465],[14.781,45.493],[14.668,45.534],[14.664,45.57],[14.724,45.597],[14.739,45.554],[14.817,45.501],[14.865,45.531],[14.944,45.525],[14.977,45.492]]]}},{"type":"Feature","properties":{"id":"SVN-965","name":"Loški Potok"},"geometry":{"type":"Polygon","coordinates":[[[14.664,45.57],[14.603,45.604],[14.592,45.663],[14.569,45.664],[14.537,45.734],[14.62,45.729],[14.677,45.683],[14.731,45.667],[14.735,45.652],[14.711,45.628],[14.724,45.597],[14.664,45.57]]]}},{"type":"Feature","properties":{"id":"SVN-209","name":"Loška dolina"},"geometry":{"type":"Polygon","coordinates":[[[14.569,45.664],[14.492,45.579],[14.439,45.581],[14.444,45.595],[14.422,45.617],[14.426,45.662],[14.386,45.707],[14.478,45.748],[14.537,45.734],[14.569,45.664]]]}},{"type":"Feature","properties":{"id":"SVN-954","name":"Ilirska Bistrica"},"geometry":{"type":"Polygon","coordinates":[[[14.492,45.579],[14.469,45.526],[14.373,45.478],[14.219,45.497],[14.117,45.473],[14.118,45.492],[14.087,45.518],[14.106,45.566],[14.09,45.57],[14.105,45.605],[14.091,45.624],[14.227,45.633],[14.333,45.672],[14.426,45.644],[14.439,45.581],[14.492,45.579]]]}},{"type":"Feature","properties":{"id":"SVN-1027","name":"Izola"},"geometry":{"type":"Polygon","coordinates":[[[13.611,45.538],[13.675,45.545],[13.674,45.521],[13.647,45.488],[13.611,45.538]]]}},{"type":"Feature","properties":{"id":"SVN-976","name":"Pesnica"},"geometry":{"type":"Polygon","coordinates":[[[15.745,46.569],[15.647,46.594],[15.664,46.604],[15.646,46.643],[15.678,46.649],[15.694,46.677],[15.738,46.668],[15.771,46.634],[15.745,46.569]]]}},{"type":"Feature","properties":{"id":"SVN-948","name":"Duplek"},"geometry":{"type":"Polygon","coordinates":[[[15.732,46.505],[15.721,46.524],[15.754,46.547],[15.785,46.545],[15.818,46.515],[15.781,46.468],[15.732,46.505]]]}},{"type":"Feature","properties":{"id":"SVN-228","name":"Miklavž na Dravskem polju"},"geometry":{"type":"Polygon","coordinates":[[[15.696,46.512],[15.733,46.503],[15.733,46.474],[15.717,46.46],[15.695,46.487],[15.696,46.512]]]}},{"type":"Feature","properties":{"id":"SVN-229","name":"Hoce-Slivnica"},"geometry":{"type":"Polygon","coordinates":[[[15.608,46.517],[15.696,46.512],[15.71,46.465],[15.659,46.46],[15.546,46.483],[15.539,46.497],[15.608,46.517]]]}},{"type":"Feature","properties":{"id":"SVN-208","name":"Lenart"},"geometry":{"type":"Polygon","coordinates":[[[15.778,46.648],[15.818,46.645],[15.829,46.619],[15.898,46.584],[15.956,46.588],[15.922,46.569],[15.924,46.534],[15.892,46.546],[15.854,46.506],[15.816,46.497],[15.815,46.52],[15.785,46.545],[15.754,46.547],[15.769,46.559],[15.755,46.573],[15.758,46.603],[15.778,46.648]]]}},{"type":"Feature","properties":{"id":"SVN-200","name":"Sveta Ana"},"geometry":{"type":"Polygon","coordinates":[[[15.8,46.647],[15.804,46.7],[15.889,46.663],[15.857,46.607],[15.8,46.647]]]}},{"type":"Feature","properties":{"id":"SVN-235","name":"Lovrenc na Pohorju"},"geometry":{"type":"Polygon","coordinates":[[[15.376,46.589],[15.426,46.575],[15.443,46.585],[15.46,46.55],[15.408,46.478],[15.377,46.469],[15.316,46.482],[15.376,46.589]]]}},{"type":"Feature","properties":{"id":"SVN-257","name":"Ribnica na Pohorju"},"geometry":{"type":"Polygon","coordinates":[[[15.27,46.573],[15.321,46.537],[15.312,46.492],[15.223,46.497],[15.189,46.517],[15.215,46.548],[15.27,46.573]]]}},{"type":"Feature","properties":{"id":"SVN-991","name":"Slovenj Gradec"},"geometry":{"type":"Polygon","coordinates":[[[14.966,46.489],[14.998,46.506],[15.01,46.55],[15.064,46.542],[15.103,46.57],[15.196,46.511],[15.124,46.422],[14.956,46.46],[14.966,46.489]]]}},{"type":"Feature","properties":{"id":"SVN-1005","name":"Vuzenica"},"geometry":{"type":"Polygon","coordinates":[[[15.183,46.619],[15.212,46.602],[15.184,46.577],[15.176,46.543],[15.199,46.529],[15.189,46.517],[15.103,46.57],[15.112,46.599],[15.183,46.619]]]}},{"type":"Feature","properties":{"id":"SVN-215","name":"Preddvor"},"geometry":{"type":"Polygon","coordinates":[[[14.467,46.292],[14.38,46.289],[14.367,46.304],[14.387,46.307],[14.405,46.352],[14.44,46.365],[14.546,46.353],[14.544,46.312],[14.467,46.292]]]}},{"type":"Feature","properties":{"id":"SVN-985","name":"Šenčur"},"geometry":{"type":"Polygon","coordinates":[[[14.417,46.289],[14.467,46.292],[14.442,46.255],[14.459,46.193],[14.407,46.192],[14.384,46.222],[14.417,46.289]]]}},{"type":"Feature","properties":{"id":"SVN-942","name":"Cerklje na Gorenjskem"},"geometry":{"type":"Polygon","coordinates":[[[14.467,46.292],[14.544,46.312],[14.569,46.254],[14.501,46.203],[14.463,46.206],[14.442,46.255],[14.467,46.292]]]}},{"type":"Feature","properties":{"id":"SVN-206","name":"Kamnik"},"geometry":{"type":"Polygon","coordinates":[[[14.544,46.312],[14.553,46.321],[14.536,46.36],[14.64,46.366],[14.647,46.334],[14.686,46.286],[14.706,46.287],[14.714,46.263],[14.855,46.253],[14.93,46.219],[14.77,46.196],[14.658,46.207],[14.59,46.189],[14.553,46.243],[14.57,46.261],[14.544,46.312]]]}},{"type":"Feature","properties":{"id":"SVN-967","name":"Medvode"},"geometry":{"type":"Polygon","coordinates":[[[14.394,46.16],[14.414,46.171],[14.407,46.192],[14.459,46.193],[14.469,46.143],[14.427,46.127],[14.438,46.097],[14.409,46.083],[14.333,46.09],[14.331,46.127],[14.394,46.16]]]}},{"type":"Feature","properties":{"id":"SVN-1013","name":"Kranj"},"geometry":{"type":"Polygon","coordinates":[[[14.407,46.192],[14.414,46.171],[14.394,46.16],[14.367,46.195],[14.269,46.214],[14.275,46.234],[14.167,46.281],[14.275,46.275],[14.325,46.255],[14.335,46.27],[14.311,46.297],[14.33,46.337],[14.405,46.352],[14.387,46.307],[14.367,46.304],[14.38,46.289],[14.417,46.289],[14.383,46.225],[14.407,46.192]]]}},{"type":"Feature","properties":{"id":"SVN-1017","name":"Škofja Loka"},"geometry":{"type":"Polygon","coordinates":[[[14.249,46.243],[14.279,46.23],[14.276,46.211],[14.367,46.195],[14.394,46.16],[14.338,46.135],[14.325,46.098],[14.267,46.106],[14.211,46.088],[14.2,46.141],[14.223,46.171],[14.162,46.179],[14.225,46.207],[14.249,46.243]]]}},{"type":"Feature","properties":{"id":"SVN-1020","name":"Železniki"},"geometry":{"type":"Polygon","coordinates":[[[14.167,46.281],[14.249,46.243],[14.23,46.211],[14.074,46.158],[13.988,46.181],[14.005,46.22],[13.997,46.239],[14.094,46.246],[14.111,46.281],[14.167,46.281]]]}},{"type":"Feature","properties":{"id":"SVN-1009","name":"Bohinj"},"geometry":{"type":"Polygon","coordinates":[[[14.179,46.284],[14.111,46.281],[14.085,46.244],[13.881,46.23],[13.771,46.262],[13.727,46.302],[13.764,46.345],[13.842,46.382],[13.947,46.36],[14.044,46.315],[14.087,46.316],[14.102,46.299],[14.172,46.305],[14.179,46.284]]]}},{"type":"Feature","properties":{"id":"SVN-1015","name":"Naklo"},"geometry":{"type":"Polygon","coordinates":[[[14.326,46.321],[14.311,46.297],[14.335,46.27],[14.33,46.257],[14.275,46.275],[14.267,46.326],[14.326,46.321]]]}},{"type":"Feature","properties":{"id":"SVN-1016","name":"Radovljica"},"geometry":{"type":"Polygon","coordinates":[[[14.234,46.273],[14.179,46.284],[14.172,46.305],[14.111,46.307],[14.151,46.347],[14.137,46.372],[14.191,46.387],[14.238,46.425],[14.253,46.413],[14.249,46.353],[14.275,46.275],[14.234,46.273]]]}},{"type":"Feature","properties":{"id":"SVN-995","name":"Šoštanj"},"geometry":{"type":"Polygon","coordinates":[[[14.956,46.46],[15.089,46.426],[15.067,46.352],[15.014,46.364],[14.994,46.394],[14.902,46.394],[14.892,46.424],[14.956,46.447],[14.956,46.46]]]}},{"type":"Feature","properties":{"id":"SVN-963","name":"Ljubno"},"geometry":{"type":"Polygon","coordinates":[[[14.892,46.424],[14.902,46.394],[14.867,46.316],[14.781,46.339],[14.807,46.388],[14.804,46.425],[14.892,46.424]]]}},{"type":"Feature","properties":{"id":"SVN-210","name":"Luce"},"geometry":{"type":"Polygon","coordinates":[[[14.804,46.425],[14.807,46.388],[14.781,46.339],[14.706,46.287],[14.68,46.291],[14.64,46.366],[14.726,46.383],[14.77,46.431],[14.804,46.425]]]}},{"type":"Feature","properties":{"id":"SVN-966","name":"Lukovica"},"geometry":{"type":"Polygon","coordinates":[[[14.77,46.196],[14.899,46.209],[14.902,46.191],[14.817,46.171],[14.828,46.16],[14.772,46.168],[14.684,46.144],[14.65,46.165],[14.683,46.199],[14.77,46.196]]]}},{"type":"Feature","properties":{"id":"SVN-199","name":"Benedikt"},"geometry":{"type":"Polygon","coordinates":[[[15.902,46.583],[15.863,46.611],[15.888,46.646],[15.931,46.638],[15.913,46.624],[15.933,46.596],[15.902,46.583]]]}},{"type":"Feature","properties":{"id":"SVN-960","name":"Laško"},"geometry":{"type":"Polygon","coordinates":[[[15.371,46.136],[15.383,46.108],[15.368,46.072],[15.287,46.059],[15.269,46.08],[15.203,46.084],[15.202,46.061],[15.143,46.102],[15.188,46.116],[15.113,46.183],[15.257,46.197],[15.301,46.189],[15.294,46.165],[15.363,46.181],[15.371,46.136]]]}},{"type":"Feature","properties":{"id":"SVN-252","name":"Dobje"},"geometry":{"type":"Polygon","coordinates":[[[15.383,46.108],[15.371,46.136],[15.403,46.152],[15.439,46.132],[15.436,46.118],[15.42,46.126],[15.383,46.108]]]}},{"type":"Feature","properties":{"id":"SVN-219","name":"Ruše"},"geometry":{"type":"Polygon","coordinates":[[[15.564,46.51],[15.408,46.478],[15.46,46.55],[15.458,46.539],[15.483,46.534],[15.56,46.562],[15.55,46.518],[15.564,46.51]]]}},{"type":"Feature","properties":{"id":"SVN-1003","name":"Vodice"},"geometry":{"type":"Polygon","coordinates":[[[14.469,46.143],[14.463,46.206],[14.501,46.203],[14.538,46.174],[14.524,46.15],[14.469,46.143]]]}},{"type":"Feature","properties":{"id":"SVN-225","name":"Komenda"},"geometry":{"type":"Polygon","coordinates":[[[14.538,46.174],[14.501,46.203],[14.553,46.243],[14.583,46.198],[14.538,46.174]]]}},{"type":"Feature","properties":{"id":"SVN-968","name":"Mengeš"},"geometry":{"type":"Polygon","coordinates":[[[14.514,46.146],[14.538,46.174],[14.583,46.198],[14.59,46.189],[14.59,46.148],[14.521,46.132],[14.514,46.146]]]}},{"type":"Feature","properties":{"id":"SVN-1004","name":"Vrhnika"},"geometry":{"type":"Polygon","coordinates":[[[14.244,46.02],[14.245,46.001],[14.274,45.994],[14.385,46.032],[14.397,46.024],[14.366,45.965],[14.334,45.943],[14.376,45.871],[14.299,45.886],[14.26,45.929],[14.214,45.952],[14.23,45.995],[14.19,46.025],[14.244,46.02]]]}},{"type":"Feature","properties":{"id":"SVN-250","name":"Horjul"},"geometry":{"type":"Polygon","coordinates":[[[14.274,45.994],[14.239,46.009],[14.253,46.04],[14.323,46.043],[14.343,46.029],[14.342,46.014],[14.274,45.994]]]}},{"type":"Feature","properties":{"id":"SVN-198","name":"Cerkvenjak"},"geometry":{"type":"Polygon","coordinates":[[[15.928,46.542],[15.926,46.574],[15.978,46.586],[15.969,46.566],[15.987,46.547],[15.959,46.533],[15.928,46.542]]]}},{"type":"Feature","properties":{"id":"SVN-236","name":"Trzin"},"geometry":{"type":"Polygon","coordinates":[[[14.521,46.132],[14.59,46.148],[14.569,46.108],[14.521,46.132]]]}},{"type":"Feature","properties":{"id":"SVN-929","name":"Puconci"},"geometry":{"type":"Polygon","coordinates":[[[16.097,46.762],[16.127,46.788],[16.136,46.829],[16.15,46.827],[16.202,46.79],[16.193,46.762],[16.211,46.745],[16.176,46.719],[16.179,46.698],[16.108,46.69],[16.053,46.72],[16.064,46.764],[16.097,46.762]]]}},{"type":"Feature","properties":{"id":"SVN-202","name":"Grad"},"geometry":{"type":"Polygon","coordinates":[[[16.136,46.829],[16.112,46.767],[16.052,46.77],[16.056,46.816],[16.136,46.829]]]}},{"type":"Feature","properties":{"id":"SVN-1045","name":"Murska Sobota"},"geometry":{"type":"Polygon","coordinates":[[[16.151,46.69],[16.179,46.698],[16.198,46.667],[16.241,46.654],[16.161,46.606],[16.11,46.624],[16.123,46.644],[16.108,46.69],[16.151,46.69]]]}},{"type":"Feature","properties":{"id":"SVN-268","name":"Sveti Andraž v Slovenskih Goricah"},"geometry":{"type":"Polygon","coordinates":[[[15.924,46.534],[15.987,46.547],[16.007,46.524],[15.962,46.511],[15.947,46.487],[15.924,46.534]]]}},{"type":"Feature","properties":{"id":"SVN-940","name":"Brezovica"},"geometry":{"type":"Polygon","coordinates":[[[14.407,46.036],[14.458,46.005],[14.436,45.98],[14.49,45.881],[14.442,45.863],[14.418,45.871],[14.415,45.923],[14.366,45.965],[14.372,45.994],[14.399,46.016],[14.385,46.032],[14.407,46.036]]]}},{"type":"Feature","properties":{"id":"SVN-204","name":"Dobrova-Polhov Gradec"},"geometry":{"type":"Polygon","coordinates":[[[14.429,46.029],[14.407,46.036],[14.342,46.014],[14.323,46.043],[14.253,46.04],[14.244,46.02],[14.19,46.025],[14.187,46.038],[14.211,46.088],[14.267,46.106],[14.421,46.081],[14.44,46.05],[14.429,46.029]]]}},{"type":"Feature","properties":{"id":"SVN-1011","name":"Gorenja vas-Poljane"},"geometry":{"type":"Polygon","coordinates":[[[14.211,46.088],[14.187,46.038],[14.13,46.073],[14.022,46.082],[14.074,46.158],[14.204,46.181],[14.223,46.171],[14.2,46.141],[14.211,46.088]]]}},{"type":"Feature","properties":{"id":"SVN-964","name":"Logatec"},"geometry":{"type":"Polygon","coordinates":[[[14.187,46.038],[14.196,46.008],[14.23,45.995],[14.214,45.952],[14.26,45.929],[14.299,45.886],[14.276,45.846],[14.2,45.872],[14.126,45.869],[14.104,45.906],[14.111,45.973],[14.187,46.038]]]}},{"type":"Feature","properties":{"id":"SVN-230","name":"Trnovska vas"},"geometry":{"type":"Polygon","coordinates":[[[15.892,46.546],[15.93,46.53],[15.929,46.504],[15.854,46.506],[15.892,46.546]]]}},{"type":"Feature","properties":{"id":"SVN-203","name":"Destrnik"},"geometry":{"type":"Polygon","coordinates":[[[15.823,46.495],[15.929,46.504],[15.947,46.487],[15.893,46.452],[15.823,46.495]]]}},{"type":"Feature","properties":{"id":"SVN-979","name":"Race-Fram"},"geometry":{"type":"Polygon","coordinates":[[[15.71,46.465],[15.734,46.428],[15.687,46.409],[15.546,46.483],[15.659,46.46],[15.71,46.465]]]}},{"type":"Feature","properties":{"id":"SVN-996","name":"Starše"},"geometry":{"type":"Polygon","coordinates":[[[15.733,46.503],[15.819,46.455],[15.8,46.432],[15.734,46.428],[15.717,46.46],[15.733,46.474],[15.733,46.503]]]}},{"type":"Feature","properties":{"id":"SVN-241","name":"Vransko"},"geometry":{"type":"Polygon","coordinates":[[[14.91,46.211],[14.93,46.219],[14.885,46.241],[14.9,46.263],[14.97,46.284],[15.01,46.258],[14.971,46.198],[14.937,46.192],[14.91,46.211]]]}},{"type":"Feature","properties":{"id":"SVN-1001","name":"Velenje"},"geometry":{"type":"Polygon","coordinates":[[[15.092,46.434],[15.176,46.409],[15.205,46.354],[15.197,46.328],[15.146,46.336],[15.123,46.317],[15.067,46.352],[15.092,46.434]]]}},{"type":"Feature","properties":{"id":"SVN-244","name":"Polzela"},"geometry":{"type":"Polygon","coordinates":[[[15.067,46.352],[15.123,46.317],[15.104,46.255],[15.051,46.307],[15.067,46.352]]]}},{"type":"Feature","properties":{"id":"SVN-994","name":"Šmartno ob Paki"},"geometry":{"type":"Polygon","coordinates":[[[15,46.377],[15.067,46.352],[15.051,46.307],[15.008,46.337],[15,46.377]]]}},{"type":"Feature","properties":{"id":"SVN-973","name":"Mozirje"},"geometry":{"type":"Polygon","coordinates":[[[14.867,46.316],[14.902,46.394],[15.003,46.387],[15.008,46.337],[14.971,46.303],[14.954,46.326],[14.877,46.301],[14.867,46.316]]]}},{"type":"Feature","properties":{"id":"SVN-1002","name":"Vitanje"},"geometry":{"type":"Polygon","coordinates":[[[15.331,46.365],[15.268,46.365],[15.232,46.393],[15.273,46.443],[15.325,46.451],[15.337,46.446],[15.325,46.429],[15.358,46.398],[15.331,46.365]]]}},{"type":"Feature","properties":{"id":"SVN-223","name":"Vojnik"},"geometry":{"type":"Polygon","coordinates":[[[15.268,46.365],[15.331,46.365],[15.369,46.334],[15.38,46.295],[15.359,46.261],[15.302,46.274],[15.24,46.321],[15.268,46.365]]]}},{"type":"Feature","properties":{"id":"SVN-1007","name":"Zrece"},"geometry":{"type":"Polygon","coordinates":[[[15.331,46.365],[15.358,46.398],[15.325,46.429],[15.337,46.446],[15.316,46.482],[15.423,46.425],[15.409,46.381],[15.425,46.371],[15.412,46.355],[15.388,46.356],[15.369,46.334],[15.331,46.365]]]}},{"type":"Feature","properties":{"id":"SVN-971","name":"Mislinja"},"geometry":{"type":"Polygon","coordinates":[[[15.312,46.492],[15.325,46.451],[15.273,46.443],[15.232,46.393],[15.19,46.388],[15.176,46.409],[15.124,46.422],[15.196,46.511],[15.312,46.492]]]}},{"type":"Feature","properties":{"id":"SVN-1006","name":"Zasavska"},"geometry":{"type":"Polygon","coordinates":[[[14.911,46.093],[14.89,46.128],[14.839,46.13],[14.841,46.149],[14.817,46.171],[14.893,46.179],[14.91,46.211],[14.937,46.192],[15,46.199],[15.013,46.182],[14.986,46.167],[15.013,46.156],[15.031,46.126],[14.911,46.093]]]}},{"type":"Feature","properties":{"id":"SVN-961","name":"Litija"},"geometry":{"type":"Polygon","coordinates":[[[14.835,46.137],[14.89,46.128],[14.911,46.093],[15,46.119],[15.002,46.056],[15.071,46.065],[15.116,46.004],[15.041,46.001],[15.032,45.977],[15,45.964],[14.954,45.975],[14.936,46.018],[14.866,46.07],[14.806,46.06],[14.712,46.079],[14.835,46.137]]]}},{"type":"Feature","properties":{"id":"SVN-949","name":"Gornji Grad"},"geometry":{"type":"Polygon","coordinates":[[[14.798,46.343],[14.877,46.301],[14.855,46.253],[14.753,46.254],[14.704,46.27],[14.731,46.311],[14.798,46.343]]]}},{"type":"Feature","properties":{"id":"SVN-943","name":"Cerknica"},"geometry":{"type":"Polygon","coordinates":[[[14.436,45.863],[14.49,45.881],[14.498,45.87],[14.505,45.841],[14.442,45.8],[14.492,45.756],[14.411,45.71],[14.386,45.707],[14.258,45.791],[14.309,45.891],[14.393,45.86],[14.436,45.863]]]}},{"type":"Feature","properties":{"id":"SVN-1000","name":"Velike Lašče"},"geometry":{"type":"Polygon","coordinates":[[[14.505,45.841],[14.49,45.881],[14.57,45.868],[14.601,45.909],[14.64,45.875],[14.639,45.849],[14.688,45.818],[14.564,45.79],[14.505,45.841]]]}},{"type":"Feature","properties":{"id":"SVN-937","name":"Borovnica"},"geometry":{"type":"Polygon","coordinates":[[[14.393,45.86],[14.334,45.934],[14.344,45.961],[14.366,45.965],[14.415,45.923],[14.418,45.871],[14.393,45.86]]]}},{"type":"Feature","properties":{"id":"SVN-978","name":"Postojna"},"geometry":{"type":"Polygon","coordinates":[[[14.276,45.846],[14.258,45.791],[14.323,45.754],[14.256,45.727],[14.134,45.704],[14.093,45.714],[14.037,45.761],[14.059,45.809],[14.046,45.837],[14.126,45.869],[14.2,45.872],[14.276,45.846]]]}},{"type":"Feature","properties":{"id":"SVN-977","name":"Pivka"},"geometry":{"type":"Polygon","coordinates":[[[14.323,45.754],[14.386,45.707],[14.426,45.644],[14.333,45.672],[14.216,45.631],[14.08,45.628],[14.063,45.686],[14.093,45.714],[14.172,45.707],[14.323,45.754]]]}},{"type":"Feature","properties":{"id":"SVN-239","name":"Dobrna"},"geometry":{"type":"Polygon","coordinates":[[[15.268,46.365],[15.261,46.338],[15.226,46.317],[15.197,46.328],[15.206,46.346],[15.19,46.388],[15.232,46.393],[15.268,46.365]]]}},{"type":"Feature","properties":{"id":"SVN-941","name":"Celje"},"geometry":{"type":"Polygon","coordinates":[[[15.226,46.317],[15.27,46.307],[15.306,46.272],[15.359,46.261],[15.339,46.229],[15.308,46.218],[15.31,46.194],[15.218,46.193],[15.226,46.317]]]}},{"type":"Feature","properties":{"id":"SVN-975","name":"Nazarje"},"geometry":{"type":"Polygon","coordinates":[[[14.885,46.241],[14.855,46.253],[14.877,46.301],[14.96,46.325],[14.97,46.284],[14.9,46.263],[14.885,46.241]]]}},{"type":"Feature","properties":{"id":"SVN-205","name":"Domžale"},"geometry":{"type":"Polygon","coordinates":[[[14.59,46.148],[14.59,46.189],[14.658,46.207],[14.683,46.199],[14.65,46.165],[14.684,46.144],[14.675,46.133],[14.687,46.117],[14.594,46.097],[14.569,46.108],[14.59,46.148]]]}},{"type":"Feature","properties":{"id":"SVN-955","name":"Ivancna Gorica"},"geometry":{"type":"Polygon","coordinates":[[[14.74,45.998],[14.866,46.006],[14.927,45.963],[14.882,45.933],[14.877,45.857],[14.847,45.851],[14.849,45.8],[14.805,45.798],[14.759,45.837],[14.768,45.867],[14.733,45.947],[14.715,45.953],[14.74,45.998]]]}},{"type":"Feature","properties":{"id":"SVN-962","name":"Ljubljana"},"geometry":{"type":"Polygon","coordinates":[[[14.75,46.003],[14.701,46.011],[14.631,45.989],[14.563,46.019],[14.535,46.013],[14.533,45.99],[14.503,45.998],[14.445,45.974],[14.436,45.987],[14.458,46.005],[14.429,46.029],[14.44,46.05],[14.409,46.083],[14.438,46.097],[14.427,46.127],[14.514,46.146],[14.54,46.116],[14.592,46.105],[14.616,46.08],[14.678,46.083],[14.736,46.066],[14.75,46.003]]]}},{"type":"Feature","properties":{"id":"SVN-5885","name":"Šmartno in Litiji"},"geometry":{"type":"Polygon","coordinates":[[[14.75,46.003],[14.736,46.066],[14.866,46.07],[14.936,46.018],[14.954,45.975],[14.927,45.963],[14.866,46.006],[14.75,46.003]]]}},{"type":"Feature","properties":{"id":"SVN-953","name":"Ig"},"geometry":{"type":"Polygon","coordinates":[[[14.513,45.998],[14.554,45.972],[14.557,45.921],[14.585,45.896],[14.57,45.868],[14.49,45.881],[14.467,45.906],[14.445,45.974],[14.513,45.998]]]}},{"type":"Feature","properties":{"id":"SVN-946","name":"Dol pri Ljubljani"},"geometry":{"type":"Polygon","coordinates":[[[14.754,46.1],[14.692,46.078],[14.616,46.08],[14.594,46.097],[14.666,46.118],[14.754,46.1]]]}},{"type":"Feature","properties":{"id":"SVN-243","name":"Prebold"},"geometry":{"type":"Polygon","coordinates":[[[15.095,46.258],[15.143,46.232],[15.131,46.195],[15.045,46.193],[15.051,46.226],[15.095,46.258]]]}},{"type":"Feature","properties":{"id":"SVN-972","name":"Moravce"},"geometry":{"type":"Polygon","coordinates":[[[14.835,46.137],[14.806,46.115],[14.735,46.099],[14.675,46.133],[14.772,46.168],[14.828,46.16],[14.835,46.137]]]}},{"type":"Feature","properties":{"id":"SVN-253","name":"Dobrepolje"},"geometry":{"type":"Polygon","coordinates":[[[14.752,45.883],[14.768,45.867],[14.759,45.837],[14.805,45.798],[14.814,45.758],[14.796,45.743],[14.637,45.854],[14.64,45.875],[14.665,45.889],[14.752,45.883]]]}},{"type":"Feature","properties":{"id":"SVN-980","name":"Radece"},"geometry":{"type":"Polygon","coordinates":[[[15.094,46.04],[15.071,46.065],[15.106,46.094],[15.163,46.092],[15.24,46.034],[15.094,46.04]]]}},{"type":"Feature","properties":{"id":"SVN-997","name":"Štore"},"geometry":{"type":"Polygon","coordinates":[[[15.332,46.23],[15.364,46.219],[15.363,46.181],[15.29,46.167],[15.308,46.218],[15.332,46.23]]]}},{"type":"Feature","properties":{"id":"SVN-992","name":"Slovenske Konjice"},"geometry":{"type":"Polygon","coordinates":[[[15.377,46.311],[15.364,46.324],[15.382,46.352],[15.425,46.371],[15.541,46.345],[15.558,46.293],[15.552,46.278],[15.53,46.277],[15.377,46.311]]]}},{"type":"Feature","properties":{"id":"SVN-1021","name":"Žiri"},"geometry":{"type":"Polygon","coordinates":[[[14.05,46.085],[14.141,46.07],[14.187,46.038],[14.139,46.006],[14.111,46.013],[14.03,46.073],[14.05,46.085]]]}},{"type":"Feature","properties":{"id":"SVN-226","name":"Oplotnica"},"geometry":{"type":"Polygon","coordinates":[[[15.462,46.358],[15.409,46.381],[15.423,46.425],[15.495,46.393],[15.503,46.36],[15.462,46.358]]]}},{"type":"Feature","properties":{"id":"SVN-1010","name":"Cerkno"},"geometry":{"type":"Polygon","coordinates":[[[14.074,46.158],[14.028,46.102],[14.03,46.066],[13.965,46.087],[13.923,46.061],[13.895,46.068],[13.908,46.076],[13.886,46.14],[13.907,46.164],[13.989,46.195],[13.994,46.178],[14.074,46.158]]]}},{"type":"Feature","properties":{"id":"SVN-1008","name":"Bled"},"geometry":{"type":"Polygon","coordinates":[[[13.879,46.366],[13.848,46.381],[13.992,46.445],[14.082,46.409],[14.128,46.407],[14.121,46.393],[14.152,46.352],[14.102,46.299],[14.087,46.316],[14.044,46.315],[13.947,46.36],[13.879,46.366]]]}},{"type":"Feature","properties":{"id":"SVN-1022","name":"Ajdovščina"},"geometry":{"type":"Polygon","coordinates":[[[14.121,45.879],[14.126,45.869],[14.093,45.849],[14.046,45.837],[14.005,45.873],[13.957,45.874],[13.864,45.826],[13.733,45.906],[13.852,46.002],[14.043,45.89],[14.121,45.879]]]}},{"type":"Feature","properties":{"id":"SVN-1025","name":"Divaca"},"geometry":{"type":"Polygon","coordinates":[[[14.037,45.761],[14.093,45.714],[14.063,45.686],[14.09,45.614],[14.06,45.6],[13.938,45.643],[13.936,45.67],[13.968,45.705],[13.957,45.74],[14.005,45.771],[14.037,45.761]]]}},{"type":"Feature","properties":{"id":"SVN-1012","name":"Idrija"},"geometry":{"type":"Polygon","coordinates":[[[14.139,46.006],[14.109,45.969],[14.1,45.922],[14.121,45.879],[14.043,45.89],[13.852,46.002],[13.875,46.043],[13.864,46.063],[13.923,46.061],[13.96,46.087],[14.054,46.063],[14.139,46.006]]]}},{"type":"Feature","properties":{"id":"SVN-1035","name":"Vipava"},"geometry":{"type":"Polygon","coordinates":[[[14.046,45.837],[14.059,45.809],[14.037,45.761],[13.99,45.765],[13.886,45.829],[13.932,45.863],[13.987,45.878],[14.046,45.837]]]}},{"type":"Feature","properties":{"id":"SVN-254","name":"Bloke"},"geometry":{"type":"Polygon","coordinates":[[[14.505,45.841],[14.564,45.79],[14.553,45.781],[14.576,45.735],[14.508,45.731],[14.442,45.796],[14.505,45.841]]]}},{"type":"Feature","properties":{"id":"SVN-220","name":"Šentjur pri Celju"},"geometry":{"type":"Polygon","coordinates":[[[15.363,46.181],[15.364,46.219],[15.339,46.229],[15.377,46.311],[15.53,46.277],[15.447,46.221],[15.491,46.161],[15.545,46.155],[15.536,46.13],[15.478,46.108],[15.493,46.068],[15.368,46.072],[15.383,46.108],[15.44,46.129],[15.407,46.153],[15.371,46.136],[15.363,46.181]]]}},{"type":"Feature","properties":{"id":"SVN-957","name":"Kozje"},"geometry":{"type":"Polygon","coordinates":[[[15.499,46.109],[15.536,46.13],[15.559,46.122],[15.585,46.109],[15.62,46.041],[15.668,46.026],[15.584,45.994],[15.604,46.018],[15.559,46.017],[15.538,46.053],[15.493,46.068],[15.476,46.102],[15.499,46.109]]]}},{"type":"Feature","properties":{"id":"SVN-993","name":"Šmarje pri Jelšah"},"geometry":{"type":"Polygon","coordinates":[[[15.505,46.157],[15.478,46.173],[15.448,46.226],[15.53,46.277],[15.566,46.274],[15.613,46.204],[15.568,46.165],[15.505,46.157]]]}},{"type":"Feature","properties":{"id":"SVN-988","name":"Sevnica"},"geometry":{"type":"Polygon","coordinates":[[[15.368,46.072],[15.418,46.063],[15.43,46.007],[15.363,45.935],[15.296,45.956],[15.284,45.936],[15.26,45.945],[15.239,45.924],[15.166,45.964],[15.169,45.994],[15.137,45.991],[15.093,46.031],[15.24,46.034],[15.205,46.053],[15.193,46.081],[15.203,46.084],[15.269,46.08],[15.287,46.059],[15.368,46.072]]]}},{"type":"Feature","properties":{"id":"SVN-242","name":"Mirna Pec"},"geometry":{"type":"Polygon","coordinates":[[[15.145,45.873],[15.113,45.82],[15.086,45.806],[15.037,45.841],[15.043,45.867],[15.098,45.895],[15.145,45.873]]]}},{"type":"Feature","properties":{"id":"SVN-999","name":"Trebnje"},"geometry":{"type":"Polygon","coordinates":[[[15.145,45.873],[15.098,45.895],[15.05,45.873],[15.026,45.838],[14.967,45.844],[14.939,45.869],[14.877,45.87],[14.869,45.887],[14.882,45.933],[14.927,45.963],[14.954,45.975],[15.024,45.97],[15.041,46.001],[15.097,46.007],[15.143,45.989],[15.166,45.996],[15.166,45.964],[15.239,45.924],[15.21,45.874],[15.145,45.873]]]}},{"type":"Feature","properties":{"id":"SVN-238","name":"Žužemberk"},"geometry":{"type":"Polygon","coordinates":[[[15.037,45.841],[15.086,45.806],[15.058,45.781],[14.939,45.772],[14.877,45.744],[14.814,45.758],[14.804,45.775],[14.805,45.798],[14.856,45.808],[14.847,45.851],[14.877,45.857],[14.877,45.87],[14.929,45.871],[14.967,45.844],[15.037,45.841]]]}},{"type":"Feature","properties":{"id":"SVN-1049","name":"Turnišče"},"geometry":{"type":"Polygon","coordinates":[[[16.348,46.615],[16.378,46.6],[16.34,46.599],[16.328,46.584],[16.301,46.597],[16.286,46.641],[16.314,46.645],[16.348,46.615]]]}},{"type":"Feature","properties":{"id":"SVN-930","name":"Radenci"},"geometry":{"type":"Polygon","coordinates":[[[16.014,46.594],[16.008,46.633],[16.042,46.663],[16.11,46.624],[16.112,46.608],[16.07,46.587],[16.056,46.606],[16.014,46.594]]]}},{"type":"Feature","properties":{"id":"SVN-1048","name":"Sveti Jurij"},"geometry":{"type":"Polygon","coordinates":[[[15.978,46.586],[16.056,46.606],[16.079,46.593],[16.089,46.564],[16.078,46.542],[16.034,46.539],[16.02,46.511],[15.969,46.566],[15.978,46.586]]]}},{"type":"Feature","properties":{"id":"SVN-270","name":"Velika Polana"},"geometry":{"type":"Polygon","coordinates":[[[16.378,46.6],[16.398,46.578],[16.335,46.556],[16.336,46.597],[16.378,46.6]]]}},{"type":"Feature","properties":{"id":"SVN-1039","name":"Beltinci"},"geometry":{"type":"Polygon","coordinates":[[[16.161,46.606],[16.241,46.654],[16.298,46.648],[16.283,46.628],[16.301,46.597],[16.266,46.593],[16.266,46.569],[16.248,46.554],[16.161,46.606]]]}},{"type":"Feature","properties":{"id":"SVN-267","name":"Veržej"},"geometry":{"type":"Polygon","coordinates":[[[16.161,46.606],[16.217,46.584],[16.177,46.56],[16.137,46.595],[16.161,46.606]]]}},{"type":"Feature","properties":{"id":"SVN-1046","name":"Odranci"},"geometry":{"type":"Polygon","coordinates":[[[16.274,46.598],[16.3,46.589],[16.266,46.569],[16.259,46.583],[16.274,46.598]]]}},{"type":"Feature","properties":{"id":"SVN-950","name":"Grosuplje"},"geometry":{"type":"Polygon","coordinates":[[[14.74,45.998],[14.715,45.953],[14.733,45.947],[14.752,45.883],[14.672,45.89],[14.64,45.875],[14.601,45.909],[14.597,45.988],[14.661,45.99],[14.701,46.011],[14.74,45.998]]]}},{"type":"Feature","properties":{"id":"SVN-990","name":"Škofljica"},"geometry":{"type":"Polygon","coordinates":[[[14.601,45.909],[14.592,45.895],[14.565,45.905],[14.535,46.013],[14.587,46.015],[14.616,45.997],[14.591,45.98],[14.601,45.909]]]}},{"type":"Feature","properties":{"id":"SVN-951","name":"Hrastnik"},"geometry":{"type":"Polygon","coordinates":[[[15.128,46.086],[15.065,46.137],[15.113,46.183],[15.188,46.116],[15.173,46.102],[15.145,46.11],[15.163,46.092],[15.128,46.086]]]}},{"type":"Feature","properties":{"id":"SVN-224","name":"Žalec"},"geometry":{"type":"Polygon","coordinates":[[[15.226,46.317],[15.216,46.198],[15.113,46.183],[15.144,46.23],[15.104,46.255],[15.131,46.328],[15.158,46.336],[15.226,46.317]]]}},{"type":"Feature","properties":{"id":"SVN-952","name":"Trbovlje"},"geometry":{"type":"Polygon","coordinates":[[[15.106,46.094],[15.089,46.068],[15.002,46.056],[15,46.119],[15.031,46.131],[14.986,46.167],[15.013,46.182],[15,46.199],[15.111,46.187],[15.065,46.137],[15.106,46.094]]]}},{"type":"Feature","properties":{"id":"SVN-247","name":"Braslovce"},"geometry":{"type":"Polygon","coordinates":[[[15.01,46.258],[14.97,46.284],[14.971,46.303],[15.008,46.337],[15.095,46.258],[15.051,46.226],[15.01,46.258]]]}},{"type":"Feature","properties":{"id":"SVN-240","name":"Tabor"},"geometry":{"type":"Polygon","coordinates":[[[14.971,46.198],[15.01,46.258],[15.046,46.238],[15.045,46.193],[14.971,46.198]]]}},{"type":"Feature","properties":{"id":"SVN-939","name":"Krsko"},"geometry":{"type":"Polygon","coordinates":[[[15.584,45.994],[15.559,46.017],[15.602,46.02],[15.584,45.994]]]}},{"type":"Feature","properties":{"id":"SVN-227","name":"Hajdina"},"geometry":{"type":"Polygon","coordinates":[[[15.8,46.432],[15.819,46.455],[15.87,46.384],[15.831,46.395],[15.8,46.432]]]}},{"type":"Feature","properties":{"id":"SVN-216","name":"Ptuj"},"geometry":{"type":"Polygon","coordinates":[[[15.816,46.497],[15.893,46.452],[15.944,46.481],[15.943,46.414],[15.87,46.384],[15.847,46.431],[15.805,46.467],[15.781,46.468],[15.816,46.497]]]}},{"type":"Feature","properties":{"id":"SVN-211","name":"Majšperk"},"geometry":{"type":"Polygon","coordinates":[[[15.758,46.262],[15.685,46.274],[15.712,46.297],[15.721,46.337],[15.681,46.368],[15.784,46.361],[15.812,46.342],[15.762,46.286],[15.758,46.262]]]}},{"type":"Feature","properties":{"id":"SVN-221","name":"Slovenska Bistrica"},"geometry":{"type":"Polygon","coordinates":[[[15.552,46.278],[15.548,46.334],[15.503,46.36],[15.495,46.393],[15.352,46.453],[15.335,46.477],[15.381,46.469],[15.539,46.497],[15.548,46.474],[15.687,46.409],[15.678,46.362],[15.721,46.337],[15.712,46.297],[15.685,46.274],[15.552,46.278]]]}},{"type":"Feature","properties":{"id":"SVN-272","name":"Markovci"},"geometry":{"type":"Polygon","coordinates":[[[15.969,46.362],[15.904,46.394],[15.943,46.421],[15.983,46.417],[15.998,46.373],[15.969,46.362]]]}},{"type":"Feature","properties":{"id":"SVN-956","name":"Kidricevo"},"geometry":{"type":"Polygon","coordinates":[[[15.687,46.409],[15.782,46.435],[15.831,46.395],[15.819,46.359],[15.802,46.355],[15.681,46.368],[15.687,46.409]]]}},{"type":"Feature","properties":{"id":"SVN-1040","name":"Dornava"},"geometry":{"type":"Polygon","coordinates":[[[16.026,46.432],[15.943,46.421],[15.953,46.451],[15.977,46.446],[16.021,46.491],[16.04,46.469],[16.026,46.432]]]}},{"type":"Feature","properties":{"id":"SVN-266","name":"Križevci"},"geometry":{"type":"Polygon","coordinates":[[[16.11,46.624],[16.161,46.606],[16.137,46.595],[16.177,46.56],[16.171,46.53],[16.078,46.542],[16.09,46.57],[16.079,46.593],[16.112,46.608],[16.11,46.624]]]}},{"type":"Feature","properties":{"id":"SVN-1042","name":"Juršinci"},"geometry":{"type":"Polygon","coordinates":[[[15.947,46.487],[15.983,46.519],[16.02,46.511],[16.021,46.491],[15.977,46.446],[15.944,46.46],[15.947,46.487]]]}},{"type":"Feature","properties":{"id":"SVN-984","name":"Semic"},"geometry":{"type":"Polygon","coordinates":[[[15.172,45.682],[15.236,45.703],[15.284,45.643],[15.234,45.608],[15.174,45.617],[15.133,45.596],[15.056,45.607],[15.038,45.631],[15.073,45.682],[15.172,45.682]]]}},{"type":"Feature","properties":{"id":"SVN-249","name":"Dolenjske Toplice"},"geometry":{"type":"Polygon","coordinates":[[[15.058,45.781],[15.124,45.707],[15.103,45.684],[15.064,45.676],[15.038,45.631],[14.972,45.712],[14.996,45.78],[15.058,45.781]]]}},{"type":"Feature","properties":{"id":"SVN-248","name":"Sodražica"},"geometry":{"type":"Polygon","coordinates":[[[14.564,45.79],[14.675,45.768],[14.664,45.723],[14.646,45.707],[14.63,45.725],[14.576,45.735],[14.553,45.781],[14.564,45.79]]]}},{"type":"Feature","properties":{"id":"SVN-218","name":"Ribnica"},"geometry":{"type":"Polygon","coordinates":[[[14.587,45.793],[14.688,45.818],[14.822,45.728],[14.778,45.649],[14.755,45.64],[14.732,45.647],[14.731,45.667],[14.646,45.707],[14.675,45.768],[14.587,45.793]]]}},{"type":"Feature","properties":{"id":"SVN-989","name":"Škocjan"},"geometry":{"type":"Polygon","coordinates":[[[15.304,45.864],[15.303,45.885],[15.238,45.932],[15.26,45.945],[15.284,45.936],[15.296,45.956],[15.343,45.951],[15.363,45.935],[15.351,45.892],[15.361,45.884],[15.304,45.864]]]}}]}