{"type":"FeatureCollection","countryId":"TCA","features":[{"type":"Feature","properties":{"id":"TCA-5005","name":"Providenciales and West Caicos"},"geometry":{"type":"MultiPolygon","coordinates":[[[[-72.461,21.705],[-72.433,21.709],[-72.433,21.68],[-72.452,21.645],[-72.481,21.63],[-72.461,21.705]]],[[[-72.337,21.801],[-72.33,21.862],[-72.232,21.793],[-72.18,21.801],[-72.157,21.825],[-72.124,21.815],[-72.159,21.774],[-72.165,21.795],[-72.194,21.767],[-72.234,21.767],[-72.234,21.781],[-72.292,21.749],[-72.303,21.774],[-72.281,21.762],[-72.275,21.774],[-72.316,21.795],[-72.315,21.771],[-72.34,21.767],[-72.31,21.822],[-72.337,21.801]]],[[[-72.125,21.855],[-72.119,21.858],[-72.116,21.854],[-72.124,21.847],[-72.133,21.848],[-72.125,21.855]]],[[[-72.095,21.883],[-72.087,21.873],[-72.1,21.865],[-72.095,21.883]]]]}},{"type":"Feature","properties":{"id":"TCA-5006","name":"South Caicos and East Caicos"},"geometry":{"type":"MultiPolygon","coordinates":[[[[-71.508,21.705],[-71.591,21.754],[-71.576,21.767],[-71.481,21.725],[-71.452,21.69],[-71.46,21.664],[-71.508,21.705]]],[[[-71.688,21.3],[-71.674,21.307],[-71.699,21.292],[-71.688,21.3]]],[[[-71.634,21.319],[-71.629,21.324],[-71.628,21.31],[-71.635,21.295],[-71.641,21.303],[-71.634,21.319]]],[[[-71.498,21.569],[-71.496,21.507],[-71.521,21.489],[-71.54,21.517],[-71.509,21.528],[-71.498,21.569]]]]}},{"type":"Feature","properties":{"id":"TCA-5003","name":"Middle Caicos"},"geometry":{"type":"Polygon","coordinates":[[[-71.803,21.788],[-71.836,21.791],[-71.851,21.856],[-71.809,21.84],[-71.679,21.842],[-71.631,21.774],[-71.679,21.822],[-71.645,21.746],[-71.669,21.75],[-71.686,21.774],[-71.7,21.76],[-71.715,21.787],[-71.741,21.795],[-71.803,21.788]]]}},{"type":"Feature","properties":{"id":"TCA-5004","name":"North Caicos"},"geometry":{"type":"Polygon","coordinates":[[[-72.022,21.905],[-72.036,21.939],[-72.017,21.957],[-71.911,21.948],[-71.903,21.867],[-71.889,21.846],[-71.857,21.843],[-71.895,21.832],[-71.954,21.867],[-71.948,21.942],[-71.992,21.9],[-72.022,21.905]]]}},{"type":"Feature","properties":{"id":"TCA-5007","name":"Grand Turk"},"geometry":{"type":"Polygon","coordinates":[[[-71.138,21.514],[-71.129,21.472],[-71.145,21.432],[-71.138,21.514]]]}},{"type":"Feature","properties":{"id":"TCA-5008","name":"Salt Cay"},"geometry":{"type":"Polygon","coordinates":[[[-71.21,21.341],[-71.192,21.335],[-71.214,21.311],[-71.21,21.341]]]}}]}