{"type":"FeatureCollection","countryId":"UMI","features":[{"type":"Feature","properties":{"id":"UMI-5174","name":"Johnston Atoll"},"geometry":{"type":"MultiPolygon","coordinates":[[[[-169.53,16.76],[-169.517,16.762],[-169.539,16.754],[-169.53,16.76]]],[[[-169.532,16.733],[-169.522,16.732],[-169.55,16.723],[-169.532,16.733]]],[[[-169.514,16.744],[-169.514,16.746],[-169.513,16.744],[-169.514,16.744]]]]}},{"type":"Feature","properties":{"id":"UMI-5173","name":"Jarvis Island"},"geometry":{"type":"Polygon","coordinates":[[[-160.03,-0.376],[-160.009,-0.372],[-160.025,-0.389],[-160.03,-0.376]]]}},{"type":"Feature","properties":{"id":"UMI-5171","name":"Baker Island"},"geometry":{"type":"MultiPolygon","coordinates":[[[[-176.486,0.197],[-176.482,0.197],[-176.479,0.198],[-176.477,0.197],[-176.475,0.193],[-176.479,0.19],[-176.481,0.191],[-176.483,0.194],[-176.486,0.197]]],[[[-176.46,0.226],[-176.459,0.219],[-176.464,0.222],[-176.46,0.226]]]]}},{"type":"Feature","properties":{"id":"UMI-5172","name":"Howland Island"},"geometry":{"type":"Polygon","coordinates":[[[-176.636,0.79],[-176.64,0.802],[-176.64,0.804],[-176.64,0.805],[-176.639,0.807],[-176.636,0.803],[-176.636,0.79]]]}},{"type":"Feature","properties":{"id":"UMI-5179","name":"Wake Atoll"},"geometry":{"type":"Polygon","coordinates":[[[166.619,19.282],[166.638,19.286],[166.635,19.306],[166.648,19.298],[166.644,19.276],[166.619,19.282]]]}},{"type":"Feature","properties":{"id":"UMI-5176","name":"Midway Islands"},"geometry":{"type":"MultiPolygon","coordinates":[[[[-177.329,28.211],[-177.323,28.208],[-177.321,28.206],[-177.325,28.205],[-177.335,28.204],[-177.329,28.211]]],[[[-177.358,28.214],[-177.364,28.208],[-177.372,28.202],[-177.381,28.199],[-177.39,28.198],[-177.385,28.207],[-177.378,28.213],[-177.369,28.215],[-177.358,28.214]]]]}},{"type":"Feature","properties":{"id":"UMI-5177","name":"Navassa Island"},"geometry":{"type":"Polygon","coordinates":[[[-75.024,18.417],[-75.007,18.415],[-75.005,18.396],[-75.024,18.417]]]}},{"type":"Feature","properties":{"id":"UMI-5178","name":"Palmyra Atoll"},"geometry":{"type":"Polygon","coordinates":[[[-162.061,5.887],[-162.073,5.869],[-162.094,5.875],[-162.075,5.886],[-162.104,5.889],[-162.061,5.887]]]}}]}