{"type":"FeatureCollection","countryId":"URY","features":[{"type":"Feature","properties":{"id":"URY-8","name":"Paysandú"},"geometry":{"type":"Polygon","coordinates":[[[-58.2,-32.447],[-58.102,-32.311],[-58.097,-32.281],[-58.187,-32.153],[-58.159,-32.102],[-58.145,-32.018],[-58.159,-31.944],[-58.203,-31.893],[-58.153,-31.836],[-58.049,-31.797],[-57.98,-31.599],[-57.987,-31.554],[-58.039,-31.509],[-57.955,-31.501],[-57.944,-31.479],[-57.899,-31.47],[-57.862,-31.481],[-57.787,-31.519],[-57.75,-31.581],[-57.595,-31.611],[-57.48,-31.668],[-57.374,-31.687],[-57.327,-31.736],[-57.166,-31.797],[-57.059,-31.809],[-57.004,-31.791],[-56.939,-31.81],[-56.829,-31.793],[-56.702,-31.819],[-56.639,-31.85],[-56.492,-31.871],[-56.452,-31.857],[-56.389,-31.773],[-56.322,-31.751],[-56.284,-31.794],[-56.28,-31.855],[-56.245,-31.907],[-56.288,-31.94],[-56.295,-32.043],[-56.359,-32.232],[-56.506,-32.357],[-56.559,-32.492],[-56.67,-32.426],[-56.725,-32.411],[-56.903,-32.41],[-57.04,-32.363],[-57.089,-32.389],[-57.175,-32.393],[-57.268,-32.443],[-57.336,-32.433],[-57.401,-32.451],[-57.47,-32.445],[-57.543,-32.485],[-57.584,-32.536],[-57.757,-32.558],[-57.773,-32.597],[-57.809,-32.614],[-57.996,-32.582],[-58.015,-32.547],[-58.091,-32.49],[-58.191,-32.492],[-58.2,-32.447]]]}},{"type":"Feature","properties":{"id":"URY-6","name":"Artigas"},"geometry":{"type":"Polygon","coordinates":[[[-57.603,-30.191],[-57.567,-30.256],[-57.536,-30.274],[-57.443,-30.269],[-57.399,-30.299],[-57.354,-30.272],[-57.296,-30.293],[-57.27,-30.275],[-57.245,-30.293],[-57.184,-30.268],[-57.13,-30.15],[-57.077,-30.106],[-56.831,-30.102],[-56.767,-30.161],[-56.657,-30.221],[-56.633,-30.247],[-56.631,-30.285],[-56.575,-30.302],[-56.524,-30.357],[-56.441,-30.409],[-56.386,-30.476],[-56.235,-30.565],[-56.077,-30.752],[-56.011,-30.798],[-55.989,-30.856],[-56.016,-30.934],[-56.017,-31.074],[-56.183,-30.937],[-56.416,-30.887],[-56.451,-30.894],[-56.481,-30.939],[-56.549,-30.982],[-56.61,-30.995],[-56.699,-31.05],[-56.797,-31.062],[-56.934,-31.043],[-57.071,-31.078],[-57.156,-31.051],[-57.236,-30.989],[-57.479,-30.875],[-57.572,-30.863],[-57.715,-30.758],[-57.763,-30.753],[-57.799,-30.791],[-57.826,-30.69],[-57.886,-30.59],[-57.89,-30.551],[-57.85,-30.485],[-57.653,-30.329],[-57.624,-30.258],[-57.642,-30.193],[-57.603,-30.191]]]}},{"type":"Feature","properties":{"id":"URY-10","name":"Salto"},"geometry":{"type":"Polygon","coordinates":[[[-57.82,-30.912],[-57.796,-30.868],[-57.799,-30.791],[-57.753,-30.752],[-57.701,-30.765],[-57.572,-30.863],[-57.479,-30.875],[-57.236,-30.989],[-57.156,-31.051],[-57.071,-31.078],[-56.934,-31.043],[-56.797,-31.062],[-56.699,-31.05],[-56.61,-30.995],[-56.549,-30.982],[-56.481,-30.939],[-56.451,-30.894],[-56.416,-30.887],[-56.16,-30.948],[-56.01,-31.082],[-56.056,-31.196],[-56.183,-31.25],[-56.186,-31.275],[-56.158,-31.305],[-56.183,-31.388],[-56.257,-31.443],[-56.321,-31.519],[-56.354,-31.6],[-56.333,-31.635],[-56.322,-31.751],[-56.389,-31.773],[-56.462,-31.865],[-56.509,-31.871],[-56.639,-31.85],[-56.702,-31.819],[-56.829,-31.793],[-56.939,-31.81],[-57.004,-31.791],[-57.059,-31.809],[-57.166,-31.797],[-57.327,-31.736],[-57.374,-31.687],[-57.48,-31.668],[-57.595,-31.611],[-57.75,-31.581],[-57.787,-31.519],[-57.888,-31.472],[-57.944,-31.479],[-57.96,-31.502],[-58.051,-31.501],[-58.075,-31.475],[-58.063,-31.444],[-57.99,-31.399],[-57.966,-31.315],[-57.905,-31.241],[-57.912,-31.171],[-57.855,-31.059],[-57.863,-31.012],[-57.912,-30.947],[-57.885,-30.919],[-57.82,-30.912]]]}},{"type":"Feature","properties":{"id":"URY-14","name":"Rivera"},"geometry":{"type":"Polygon","coordinates":[[[-55.817,-31.043],[-55.764,-31.008],[-55.732,-30.945],[-55.653,-30.939],[-55.65,-30.861],[-55.592,-30.848],[-55.369,-31.037],[-55.338,-31.126],[-55.282,-31.169],[-55.244,-31.245],[-55.087,-31.327],[-55.029,-31.269],[-54.97,-31.341],[-54.85,-31.425],[-54.592,-31.471],[-54.483,-31.584],[-54.467,-31.664],[-54.52,-31.732],[-54.504,-31.842],[-54.589,-31.985],[-54.544,-32.003],[-54.54,-32.019],[-54.582,-32.061],[-54.575,-32.095],[-54.655,-32.123],[-54.828,-31.928],[-54.887,-31.875],[-54.953,-31.851],[-55.377,-31.795],[-55.504,-31.806],[-55.625,-31.796],[-55.661,-31.706],[-55.647,-31.641],[-55.666,-31.584],[-55.791,-31.511],[-55.84,-31.378],[-55.977,-31.318],[-56.064,-31.259],[-56.121,-31.263],[-56.158,-31.305],[-56.188,-31.269],[-56.176,-31.242],[-56.056,-31.196],[-56.01,-31.082],[-55.864,-31.077],[-55.817,-31.043]]]}},{"type":"Feature","properties":{"id":"URY-22","name":"Rocha"},"geometry":{"type":"Polygon","coordinates":[[[-53.521,-33.125],[-53.537,-33.171],[-53.536,-33.245],[-53.514,-33.395],[-53.54,-33.649],[-53.512,-33.69],[-53.457,-33.688],[-53.411,-33.742],[-53.379,-33.741],[-53.473,-33.835],[-53.53,-34.048],[-53.711,-34.199],[-53.78,-34.336],[-53.765,-34.39],[-53.972,-34.487],[-54.125,-34.61],[-54.146,-34.668],[-54.26,-34.686],[-54.232,-34.658],[-54.253,-34.631],[-54.239,-34.59],[-54.329,-34.562],[-54.28,-34.582],[-54.345,-34.631],[-54.337,-34.655],[-54.323,-34.645],[-54.289,-34.66],[-54.288,-34.695],[-54.531,-34.807],[-54.536,-34.782],[-54.517,-34.749],[-54.536,-34.655],[-54.498,-34.555],[-54.537,-34.421],[-54.527,-34.397],[-54.493,-34.391],[-54.492,-34.201],[-54.461,-34.095],[-54.482,-33.926],[-54.423,-33.858],[-54.416,-33.801],[-54.375,-33.738],[-54.379,-33.652],[-54.348,-33.617],[-54.23,-33.549],[-54.208,-33.487],[-54.143,-33.477],[-54.009,-33.41],[-53.953,-33.337],[-53.895,-33.316],[-53.846,-33.263],[-53.798,-33.238],[-53.769,-33.189],[-53.521,-33.125]]]}},{"type":"Feature","properties":{"id":"URY-16","name":"Treinta y Tres"},"geometry":{"type":"Polygon","coordinates":[[[-53.183,-32.8],[-53.299,-32.889],[-53.327,-32.974],[-53.483,-33.067],[-53.521,-33.125],[-53.769,-33.189],[-53.798,-33.238],[-53.846,-33.263],[-53.895,-33.316],[-53.953,-33.337],[-54.009,-33.41],[-54.126,-33.465],[-54.234,-33.419],[-54.306,-33.348],[-54.355,-33.357],[-54.414,-33.391],[-54.434,-33.429],[-54.484,-33.449],[-54.715,-33.396],[-54.818,-33.338],[-54.914,-33.367],[-54.999,-33.342],[-55.056,-33.35],[-55.125,-33.382],[-55.147,-33.354],[-55.091,-33.252],[-55.111,-33.118],[-55.095,-33.088],[-55.01,-33.025],[-55.024,-32.957],[-54.82,-32.838],[-54.675,-32.813],[-54.597,-32.821],[-54.564,-32.79],[-54.514,-32.785],[-54.489,-32.752],[-54.411,-32.75],[-54.316,-32.715],[-54.13,-32.756],[-54.031,-32.798],[-54.033,-32.751],[-53.957,-32.705],[-53.844,-32.765],[-53.5,-32.75],[-53.393,-32.788],[-53.329,-32.776],[-53.183,-32.8]]]}},{"type":"Feature","properties":{"id":"URY-12","name":"Cerro Largo"},"geometry":{"type":"Polygon","coordinates":[[[-54.467,-31.664],[-54.146,-31.91],[-54.088,-31.878],[-54.05,-31.887],[-54.009,-31.927],[-53.906,-31.959],[-53.858,-32.021],[-53.757,-32.055],[-53.75,-32.104],[-53.659,-32.254],[-53.644,-32.356],[-53.561,-32.45],[-53.416,-32.564],[-53.201,-32.637],[-53.12,-32.707],[-53.114,-32.741],[-53.183,-32.8],[-53.329,-32.776],[-53.393,-32.788],[-53.5,-32.75],[-53.844,-32.765],[-53.957,-32.705],[-54.033,-32.751],[-54.023,-32.789],[-54.045,-32.799],[-54.13,-32.756],[-54.316,-32.715],[-54.411,-32.75],[-54.489,-32.752],[-54.514,-32.785],[-54.564,-32.79],[-54.597,-32.821],[-54.684,-32.814],[-54.82,-32.838],[-54.878,-32.863],[-55.019,-32.95],[-55.028,-32.97],[-55.01,-33.025],[-55.159,-33.018],[-55.286,-32.936],[-55.321,-32.891],[-55.316,-32.826],[-55.345,-32.777],[-55.307,-32.748],[-55.336,-32.68],[-55.303,-32.56],[-55.328,-32.494],[-55.24,-32.459],[-55.106,-32.485],[-55.04,-32.469],[-54.957,-32.389],[-54.921,-32.38],[-54.84,-32.31],[-54.8,-32.238],[-54.809,-32.186],[-54.756,-32.102],[-54.691,-32.129],[-54.589,-32.11],[-54.572,-32.077],[-54.582,-32.061],[-54.54,-32.019],[-54.544,-32.003],[-54.589,-31.985],[-54.554,-31.944],[-54.499,-31.825],[-54.52,-31.732],[-54.467,-31.664]]]}},{"type":"Feature","properties":{"id":"URY-20","name":"Maldonado"},"geometry":{"type":"Polygon","coordinates":[[[-54.531,-34.807],[-54.959,-34.973],[-54.952,-34.953],[-54.976,-34.928],[-55.033,-34.917],[-55.06,-34.888],[-55.26,-34.898],[-55.338,-34.819],[-55.374,-34.803],[-55.419,-34.734],[-55.416,-34.687],[-55.473,-34.622],[-55.312,-34.61],[-55.168,-34.518],[-55.083,-34.512],[-54.997,-34.449],[-54.844,-34.393],[-54.814,-34.294],[-54.781,-34.257],[-54.777,-34.194],[-54.705,-34.086],[-54.668,-34.06],[-54.574,-34.04],[-54.524,-33.952],[-54.482,-33.926],[-54.461,-34.095],[-54.492,-34.201],[-54.493,-34.391],[-54.527,-34.397],[-54.537,-34.421],[-54.498,-34.555],[-54.536,-34.655],[-54.517,-34.749],[-54.536,-34.782],[-54.531,-34.807]]]}},{"type":"Feature","properties":{"id":"URY-17","name":"Canelones"},"geometry":{"type":"Polygon","coordinates":[[[-55.374,-34.803],[-55.51,-34.799],[-55.693,-34.765],[-55.757,-34.783],[-55.792,-34.774],[-55.889,-34.803],[-56.038,-34.886],[-56.053,-34.848],[-56.039,-34.775],[-56.082,-34.773],[-56.138,-34.725],[-56.219,-34.764],[-56.293,-34.715],[-56.364,-34.734],[-56.46,-34.664],[-56.471,-34.59],[-56.398,-34.527],[-56.401,-34.433],[-56.364,-34.362],[-56.289,-34.352],[-56.212,-34.379],[-56.146,-34.368],[-56.098,-34.3],[-55.999,-34.244],[-55.86,-34.27],[-55.744,-34.222],[-55.619,-34.208],[-55.579,-34.331],[-55.533,-34.405],[-55.544,-34.5],[-55.479,-34.579],[-55.458,-34.65],[-55.416,-34.687],[-55.419,-34.734],[-55.374,-34.803]]]}},{"type":"Feature","properties":{"id":"URY-21","name":"Montevideo"},"geometry":{"type":"Polygon","coordinates":[[[-56.038,-34.886],[-56.105,-34.898],[-56.15,-34.92],[-56.156,-34.941],[-56.177,-34.916],[-56.213,-34.908],[-56.203,-34.888],[-56.215,-34.88],[-56.231,-34.878],[-56.256,-34.906],[-56.311,-34.906],[-56.403,-34.855],[-56.421,-34.828],[-56.361,-34.797],[-56.364,-34.734],[-56.331,-34.718],[-56.286,-34.717],[-56.224,-34.764],[-56.138,-34.725],[-56.082,-34.773],[-56.039,-34.775],[-56.053,-34.848],[-56.038,-34.886]]]}},{"type":"Feature","properties":{"id":"URY-5","name":"San José"},"geometry":{"type":"Polygon","coordinates":[[[-56.365,-34.794],[-56.448,-34.758],[-56.558,-34.765],[-56.646,-34.723],[-56.874,-34.67],[-57.102,-34.476],[-57.167,-34.448],[-57.099,-34.394],[-57.073,-34.302],[-57.103,-34.268],[-57.096,-34.232],[-56.997,-34.19],[-56.942,-34.148],[-56.985,-34.079],[-57.047,-34.032],[-57.078,-33.963],[-56.865,-33.985],[-56.821,-33.967],[-56.76,-33.911],[-56.664,-33.888],[-56.603,-33.85],[-56.463,-33.902],[-56.415,-34.108],[-56.446,-34.167],[-56.421,-34.231],[-56.427,-34.317],[-56.471,-34.36],[-56.401,-34.433],[-56.408,-34.488],[-56.396,-34.521],[-56.472,-34.597],[-56.46,-34.664],[-56.364,-34.734],[-56.354,-34.777],[-56.365,-34.794]]]}},{"type":"Feature","properties":{"id":"URY-4","name":"Colonia"},"geometry":{"type":"Polygon","coordinates":[[[-57.167,-34.448],[-57.347,-34.443],[-57.365,-34.43],[-57.437,-34.445],[-57.475,-34.43],[-57.538,-34.454],[-57.569,-34.427],[-57.595,-34.425],[-57.764,-34.474],[-57.855,-34.471],[-57.854,-34.448],[-57.9,-34.417],[-57.898,-34.376],[-58.017,-34.253],[-58.05,-34.24],[-58.077,-34.192],[-58.209,-34.148],[-58.232,-34.089],[-58.317,-33.987],[-58.389,-33.942],[-58.416,-33.876],[-58.279,-33.836],[-58.17,-33.778],[-58.04,-33.804],[-57.994,-33.862],[-57.84,-33.864],[-57.791,-33.899],[-57.654,-33.938],[-57.566,-33.935],[-57.393,-33.896],[-57.293,-33.946],[-57.078,-33.963],[-57.047,-34.032],[-56.985,-34.079],[-56.942,-34.148],[-56.997,-34.19],[-57.096,-34.232],[-57.103,-34.268],[-57.073,-34.302],[-57.099,-34.394],[-57.167,-34.448]]]}},{"type":"Feature","properties":{"id":"URY-11","name":"Soriano"},"geometry":{"type":"Polygon","coordinates":[[[-58.416,-33.876],[-58.435,-33.785],[-58.426,-33.613],[-58.438,-33.551],[-58.385,-33.47],[-58.392,-33.424],[-58.296,-33.377],[-58.224,-33.308],[-58.136,-33.308],[-58.117,-33.234],[-58.084,-33.219],[-58.039,-33.247],[-58.028,-33.205],[-58.05,-33.187],[-58.06,-33.137],[-58.049,-33.13],[-57.965,-33.131],[-57.95,-33.087],[-57.85,-33.04],[-57.789,-33.061],[-57.733,-33.056],[-57.65,-33.085],[-57.607,-33.047],[-57.525,-33.021],[-57.45,-33.05],[-57.429,-33.095],[-57.385,-33.075],[-57.305,-33.095],[-57.282,-33.147],[-57.24,-33.116],[-57.217,-33.157],[-57.127,-33.123],[-57.147,-33.164],[-57.348,-33.38],[-57.298,-33.43],[-57.255,-33.545],[-57.218,-33.583],[-57.16,-33.61],[-57.186,-33.752],[-57.078,-33.963],[-57.293,-33.946],[-57.393,-33.896],[-57.566,-33.935],[-57.654,-33.938],[-57.791,-33.899],[-57.84,-33.864],[-57.994,-33.862],[-58.04,-33.804],[-58.17,-33.778],[-58.279,-33.836],[-58.416,-33.876]]]}},{"type":"Feature","properties":{"id":"URY-9","name":"Río Negro"},"geometry":{"type":"Polygon","coordinates":[[[-58.392,-33.424],[-58.419,-33.39],[-58.351,-33.306],[-58.367,-33.154],[-58.351,-33.122],[-58.31,-33.109],[-58.174,-33.11],[-58.138,-33.095],[-58.084,-33.048],[-58.056,-32.952],[-58.057,-32.882],[-58.131,-32.803],[-58.138,-32.671],[-58.191,-32.492],[-58.103,-32.486],[-58.015,-32.547],[-57.996,-32.582],[-57.8,-32.614],[-57.773,-32.597],[-57.757,-32.558],[-57.584,-32.536],[-57.543,-32.485],[-57.47,-32.445],[-57.401,-32.451],[-57.336,-32.433],[-57.268,-32.443],[-57.175,-32.393],[-57.089,-32.389],[-57.04,-32.363],[-56.903,-32.41],[-56.725,-32.411],[-56.67,-32.426],[-56.559,-32.492],[-56.595,-32.65],[-56.629,-32.699],[-56.631,-32.75],[-56.667,-32.843],[-56.782,-32.87],[-56.805,-32.889],[-56.815,-32.933],[-56.864,-32.938],[-56.868,-32.987],[-56.925,-32.959],[-56.932,-32.987],[-56.985,-32.994],[-56.969,-33.025],[-57.083,-33.006],[-57.174,-33.05],[-57.172,-33.071],[-57.13,-33.075],[-57.127,-33.123],[-57.217,-33.157],[-57.24,-33.116],[-57.282,-33.147],[-57.305,-33.095],[-57.374,-33.075],[-57.429,-33.095],[-57.45,-33.05],[-57.525,-33.021],[-57.607,-33.047],[-57.65,-33.085],[-57.733,-33.056],[-57.869,-33.044],[-57.959,-33.095],[-57.965,-33.131],[-58.06,-33.137],[-58.05,-33.187],[-58.028,-33.205],[-58.039,-33.247],[-58.084,-33.219],[-58.117,-33.234],[-58.136,-33.308],[-58.224,-33.308],[-58.296,-33.377],[-58.392,-33.424]]]}},{"type":"Feature","properties":{"id":"URY-15","name":"Tacuarembó"},"geometry":{"type":"Polygon","coordinates":[[[-56.559,-32.492],[-56.506,-32.357],[-56.359,-32.232],[-56.295,-32.043],[-56.288,-31.94],[-56.246,-31.914],[-56.28,-31.855],[-56.284,-31.794],[-56.322,-31.751],[-56.351,-31.589],[-56.317,-31.512],[-56.257,-31.443],[-56.187,-31.395],[-56.158,-31.305],[-56.105,-31.257],[-56.064,-31.259],[-55.831,-31.387],[-55.791,-31.511],[-55.666,-31.584],[-55.647,-31.641],[-55.661,-31.706],[-55.645,-31.767],[-55.617,-31.802],[-55.377,-31.795],[-55.25,-31.819],[-55.116,-31.82],[-54.91,-31.865],[-54.813,-31.942],[-54.655,-32.123],[-54.691,-32.129],[-54.756,-32.102],[-54.809,-32.186],[-54.8,-32.238],[-54.84,-32.31],[-54.921,-32.38],[-54.957,-32.389],[-55.04,-32.469],[-55.106,-32.485],[-55.24,-32.459],[-55.359,-32.499],[-55.43,-32.471],[-55.445,-32.438],[-55.471,-32.427],[-55.496,-32.445],[-55.521,-32.503],[-55.65,-32.497],[-55.676,-32.54],[-55.711,-32.548],[-55.768,-32.52],[-55.793,-32.608],[-55.83,-32.634],[-55.903,-32.604],[-56.014,-32.7],[-56.169,-32.726],[-56.225,-32.823],[-56.362,-32.815],[-56.407,-32.861],[-56.496,-32.829],[-56.583,-32.836],[-56.637,-32.858],[-56.667,-32.843],[-56.631,-32.75],[-56.629,-32.699],[-56.595,-32.65],[-56.559,-32.492]]]}},{"type":"Feature","properties":{"id":"URY-13","name":"Durazno"},"geometry":{"type":"Polygon","coordinates":[[[-55.471,-32.427],[-55.445,-32.438],[-55.43,-32.471],[-55.359,-32.499],[-55.328,-32.494],[-55.308,-32.527],[-55.304,-32.573],[-55.336,-32.68],[-55.307,-32.748],[-55.345,-32.777],[-55.316,-32.826],[-55.323,-32.88],[-55.305,-32.918],[-55.159,-33.018],[-55.01,-33.025],[-55.095,-33.088],[-55.111,-33.118],[-55.247,-33.204],[-55.326,-33.205],[-55.622,-33.361],[-55.711,-33.364],[-55.768,-33.403],[-55.863,-33.435],[-55.928,-33.422],[-56.022,-33.434],[-56.096,-33.493],[-56.236,-33.48],[-56.28,-33.429],[-56.355,-33.43],[-56.411,-33.401],[-56.424,-33.483],[-56.454,-33.497],[-56.533,-33.496],[-56.559,-33.465],[-56.574,-33.408],[-56.67,-33.305],[-56.827,-33.266],[-56.883,-33.193],[-57.039,-33.182],[-57.127,-33.123],[-57.13,-33.075],[-57.179,-33.065],[-57.174,-33.05],[-57.083,-33.006],[-56.969,-33.025],[-56.985,-32.994],[-56.932,-32.987],[-56.925,-32.959],[-56.868,-32.987],[-56.864,-32.938],[-56.815,-32.933],[-56.796,-32.881],[-56.686,-32.838],[-56.637,-32.858],[-56.559,-32.832],[-56.471,-32.831],[-56.407,-32.861],[-56.362,-32.815],[-56.225,-32.823],[-56.169,-32.726],[-56.014,-32.7],[-55.903,-32.604],[-55.83,-32.634],[-55.793,-32.608],[-55.768,-32.52],[-55.711,-32.548],[-55.676,-32.54],[-55.65,-32.497],[-55.521,-32.503],[-55.496,-32.445],[-55.471,-32.427]]]}},{"type":"Feature","properties":{"id":"URY-7","name":"Flores"},"geometry":{"type":"Polygon","coordinates":[[[-57.127,-33.123],[-57.039,-33.182],[-56.872,-33.197],[-56.827,-33.266],[-56.67,-33.305],[-56.574,-33.408],[-56.559,-33.465],[-56.517,-33.522],[-56.461,-33.696],[-56.424,-33.754],[-56.427,-33.856],[-56.442,-33.887],[-56.463,-33.902],[-56.603,-33.85],[-56.664,-33.888],[-56.76,-33.911],[-56.821,-33.967],[-56.865,-33.985],[-57.078,-33.963],[-57.186,-33.752],[-57.16,-33.61],[-57.218,-33.583],[-57.255,-33.545],[-57.298,-33.43],[-57.348,-33.38],[-57.147,-33.164],[-57.127,-33.123]]]}},{"type":"Feature","properties":{"id":"URY-18","name":"Florida"},"geometry":{"type":"Polygon","coordinates":[[[-55.258,-33.208],[-55.111,-33.118],[-55.091,-33.252],[-55.108,-33.299],[-55.148,-33.344],[-55.111,-33.403],[-55.11,-33.44],[-55.136,-33.474],[-55.201,-33.503],[-55.245,-33.579],[-55.322,-33.61],[-55.328,-33.65],[-55.292,-33.719],[-55.342,-33.873],[-55.393,-33.911],[-55.447,-33.987],[-55.454,-34.025],[-55.525,-34.083],[-55.562,-34.149],[-55.619,-34.208],[-55.744,-34.222],[-55.86,-34.27],[-55.999,-34.244],[-56.098,-34.3],[-56.146,-34.368],[-56.212,-34.379],[-56.289,-34.352],[-56.351,-34.357],[-56.384,-34.382],[-56.401,-34.433],[-56.471,-34.36],[-56.425,-34.307],[-56.421,-34.231],[-56.446,-34.167],[-56.415,-34.097],[-56.463,-33.902],[-56.428,-33.863],[-56.422,-33.763],[-56.461,-33.696],[-56.533,-33.496],[-56.454,-33.497],[-56.424,-33.483],[-56.411,-33.401],[-56.355,-33.43],[-56.28,-33.429],[-56.236,-33.48],[-56.088,-33.492],[-56.031,-33.437],[-55.83,-33.426],[-55.711,-33.364],[-55.622,-33.361],[-55.304,-33.196],[-55.258,-33.208]]]}},{"type":"Feature","properties":{"id":"URY-19","name":"Lavalleja"},"geometry":{"type":"Polygon","coordinates":[[[-55.619,-34.208],[-55.555,-34.14],[-55.525,-34.083],[-55.454,-34.025],[-55.447,-33.987],[-55.393,-33.911],[-55.342,-33.873],[-55.292,-33.719],[-55.328,-33.65],[-55.322,-33.61],[-55.245,-33.579],[-55.198,-33.5],[-55.118,-33.457],[-55.11,-33.409],[-55.125,-33.382],[-55.076,-33.357],[-54.999,-33.342],[-54.914,-33.367],[-54.818,-33.338],[-54.715,-33.396],[-54.484,-33.449],[-54.434,-33.429],[-54.414,-33.391],[-54.355,-33.357],[-54.297,-33.349],[-54.234,-33.419],[-54.126,-33.465],[-54.208,-33.487],[-54.23,-33.549],[-54.369,-33.636],[-54.383,-33.673],[-54.375,-33.738],[-54.416,-33.801],[-54.427,-33.864],[-54.524,-33.952],[-54.574,-34.04],[-54.668,-34.06],[-54.705,-34.086],[-54.777,-34.194],[-54.781,-34.257],[-54.814,-34.294],[-54.84,-34.388],[-54.892,-34.419],[-54.997,-34.449],[-55.083,-34.512],[-55.168,-34.518],[-55.312,-34.61],[-55.473,-34.622],[-55.479,-34.579],[-55.544,-34.5],[-55.533,-34.405],[-55.579,-34.331],[-55.619,-34.208]]]}}]}