{"type":"FeatureCollection","countryId":"VGB","features":[{"type":"Feature","properties":{"id":"VGB+00?","name":"British Virgin Islands"},"geometry":{"type":"MultiPolygon","coordinates":[[[[-64.635,18.406],[-64.66,18.383],[-64.714,18.386],[-64.683,18.4],[-64.642,18.451],[-64.56,18.454],[-64.517,18.439],[-64.549,18.44],[-64.583,18.416],[-64.613,18.423],[-64.635,18.406]]],[[[-64.381,18.481],[-64.443,18.443],[-64.412,18.491],[-64.415,18.512],[-64.326,18.512],[-64.381,18.481]]],[[[-64.337,18.724],[-64.381,18.726],[-64.409,18.745],[-64.32,18.746],[-64.285,18.734],[-64.271,18.701],[-64.337,18.724]]],[[[-64.569,18.358],[-64.571,18.335],[-64.603,18.356],[-64.569,18.358]]],[[[-64.73,18.453],[-64.73,18.438],[-64.774,18.442],[-64.73,18.453]]],[[[-64.533,18.494],[-64.53,18.493],[-64.529,18.482],[-64.529,18.476],[-64.532,18.467],[-64.537,18.462],[-64.538,18.465],[-64.537,18.472],[-64.539,18.483],[-64.538,18.491],[-64.533,18.494]]]]}}]}